{
"type": "FeatureCollection",
"name": "roda_talleres_principales",
"crs": { "type": "name", "properties": { "name": "urn:ogc:def:crs:OGC:1.3:CRS84" } },
"features": [
{"type":"Feature","properties":{"fid":3,"id":"node/1659527405","@id":"node/1659527405","addr:city":null,"addr:housenumber":null,"addr:postcode":null,"addr:street":"Avenida Calle 116","amenity":null,"brand":null,"building":null,"check_date":null,"coffee":null,"contact:facebook":null,"contact:instagram":null,"description":null,"email":null,"fixme":null,"internet_access":null,"name":"Colombian Bikes","opening_hours":null,"operator":null,"payment:cash":null,"payment:contactless":null,"payment:credit_cards":null,"payment:debit_cards":null,"payment:maestro":null,"payment:mastercard":null,"payment:visa":null,"payment:visa_debit":null,"payment:visa_electron":null,"phone":null,"service":null,"service:bicycle:Bicycle_Sales_and_Service":null,"service:bicycle:bicycle":null,"service:bicycle:bike":null,"service:bicycle:cleaning":null,"service:bicycle:clothing":null,"service:bicycle:ebike":null,"service:bicycle:parts":null,"service:bicycle:pump":null,"service:bicycle:rental":null,"service:bicycle:repair":"yes","service:bicycle:retail":"yes","service:bicycle:sales":null,"service:bicycle:second_hand":null,"service:bicycle:service":null,"service:bicycle:showroom":null,"service:bicycle:spare_parts":null,"service:bicycle:tools":null,"service:bicycle:vending":null,"service:bicycle:wheel":null,"shop":"bicycle","source":"Kaart Ground Survey 2017","stroller":null,"website":null,"wheelchair":null},"geometry":{"type":"Point","coordinates":[-74.0477964,4.6982838]}},
{"type":"Feature","properties":{"fid":4,"id":"node/2137445033","@id":"node/2137445033","addr:city":"Bogotá","addr:housenumber":"16-24","addr:postcode":"110111","addr:street":"Avenida Calle 116","amenity":"bicycle_rental","brand":"Batavus; Brooks; Crank Brothers; Create; Dahon; Marin; RavX; Tern; Trek","building":null,"check_date":null,"coffee":null,"contact:facebook":null,"contact:instagram":null,"description":null,"email":null,"fixme":null,"internet_access":null,"name":"Kooning","opening_hours":null,"operator":null,"payment:cash":null,"payment:contactless":null,"payment:credit_cards":null,"payment:debit_cards":null,"payment:maestro":null,"payment:mastercard":null,"payment:visa":null,"payment:visa_debit":null,"payment:visa_electron":null,"phone":"+57 (1) 619-2143","service":null,"service:bicycle:Bicycle_Sales_and_Service":null,"service:bicycle:bicycle":null,"service:bicycle:bike":null,"service:bicycle:cleaning":null,"service:bicycle:clothing":null,"service:bicycle:ebike":null,"service:bicycle:parts":null,"service:bicycle:pump":null,"service:bicycle:rental":null,"service:bicycle:repair":null,"service:bicycle:retail":null,"service:bicycle:sales":null,"service:bicycle:second_hand":null,"service:bicycle:service":null,"service:bicycle:showroom":null,"service:bicycle:spare_parts":null,"service:bicycle:tools":null,"service:bicycle:vending":null,"service:bicycle:wheel":null,"shop":"bicycle","source":"Kaart Ground Survey 2017","stroller":null,"website":"http://kooning.co","wheelchair":"no"},"geometry":{"type":"Point","coordinates":[-74.0453938,4.6975306]}},
{"type":"Feature","properties":{"fid":5,"id":"node/2139307047","@id":"node/2139307047","addr:city":null,"addr:housenumber":null,"addr:postcode":null,"addr:street":null,"amenity":null,"brand":null,"building":null,"check_date":null,"coffee":null,"contact:facebook":null,"contact:instagram":null,"description":null,"email":null,"fixme":null,"internet_access":null,"name":null,"opening_hours":null,"operator":null,"payment:cash":null,"payment:contactless":null,"payment:credit_cards":null,"payment:debit_cards":null,"payment:maestro":null,"payment:mastercard":null,"payment:visa":null,"payment:visa_debit":null,"payment:visa_electron":null,"phone":null,"service":null,"service:bicycle:Bicycle_Sales_and_Service":null,"service:bicycle:bicycle":null,"service:bicycle:bike":null,"service:bicycle:cleaning":null,"service:bicycle:clothing":null,"service:bicycle:ebike":null,"service:bicycle:parts":null,"service:bicycle:pump":null,"service:bicycle:rental":null,"service:bicycle:repair":null,"service:bicycle:retail":null,"service:bicycle:sales":null,"service:bicycle:second_hand":null,"service:bicycle:service":null,"service:bicycle:showroom":null,"service:bicycle:spare_parts":null,"service:bicycle:tools":null,"service:bicycle:vending":null,"service:bicycle:wheel":null,"shop":"bicycle","source":null,"stroller":null,"website":null,"wheelchair":null},"geometry":{"type":"Point","coordinates":[-74.0943503,4.6885889]}},
{"type":"Feature","properties":{"fid":6,"id":"node/2139333665","@id":"node/2139333665","addr:city":null,"addr:housenumber":null,"addr:postcode":null,"addr:street":null,"amenity":null,"brand":null,"building":null,"check_date":null,"coffee":null,"contact:facebook":null,"contact:instagram":null,"description":null,"email":null,"fixme":null,"internet_access":null,"name":null,"opening_hours":null,"operator":null,"payment:cash":null,"payment:contactless":null,"payment:credit_cards":null,"payment:debit_cards":null,"payment:maestro":null,"payment:mastercard":null,"payment:visa":null,"payment:visa_debit":null,"payment:visa_electron":null,"phone":null,"service":null,"service:bicycle:Bicycle_Sales_and_Service":null,"service:bicycle:bicycle":null,"service:bicycle:bike":null,"service:bicycle:cleaning":null,"service:bicycle:clothing":null,"service:bicycle:ebike":null,"service:bicycle:parts":null,"service:bicycle:pump":null,"service:bicycle:rental":null,"service:bicycle:repair":null,"service:bicycle:retail":null,"service:bicycle:sales":null,"service:bicycle:second_hand":null,"service:bicycle:service":null,"service:bicycle:showroom":null,"service:bicycle:spare_parts":null,"service:bicycle:tools":null,"service:bicycle:vending":null,"service:bicycle:wheel":null,"shop":"bicycle","source":null,"stroller":null,"website":null,"wheelchair":null},"geometry":{"type":"Point","coordinates":[-74.0942644,4.6887012]}},
{"type":"Feature","properties":{"fid":17,"id":"node/3755306109","@id":"node/3755306109","addr:city":null,"addr:housenumber":null,"addr:postcode":null,"addr:street":null,"amenity":null,"brand":null,"building":null,"check_date":null,"coffee":null,"contact:facebook":null,"contact:instagram":null,"description":null,"email":null,"fixme":null,"internet_access":null,"name":"Bicicletas Lubet","opening_hours":null,"operator":null,"payment:cash":null,"payment:contactless":null,"payment:credit_cards":null,"payment:debit_cards":null,"payment:maestro":null,"payment:mastercard":null,"payment:visa":null,"payment:visa_debit":null,"payment:visa_electron":null,"phone":null,"service":null,"service:bicycle:Bicycle_Sales_and_Service":null,"service:bicycle:bicycle":null,"service:bicycle:bike":null,"service:bicycle:cleaning":null,"service:bicycle:clothing":null,"service:bicycle:ebike":null,"service:bicycle:parts":null,"service:bicycle:pump":null,"service:bicycle:rental":null,"service:bicycle:repair":null,"service:bicycle:retail":null,"service:bicycle:sales":null,"service:bicycle:second_hand":null,"service:bicycle:service":null,"service:bicycle:showroom":null,"service:bicycle:spare_parts":null,"service:bicycle:tools":null,"service:bicycle:vending":null,"service:bicycle:wheel":null,"shop":"bicycle","source":null,"stroller":null,"website":null,"wheelchair":null},"geometry":{"type":"Point","coordinates":[-74.1068619,4.6945341]}},
{"type":"Feature","properties":{"fid":18,"id":"node/3756697088","@id":"node/3756697088","addr:city":null,"addr:housenumber":null,"addr:postcode":null,"addr:street":null,"amenity":null,"brand":null,"building":null,"check_date":null,"coffee":null,"contact:facebook":null,"contact:instagram":null,"description":null,"email":null,"fixme":null,"internet_access":null,"name":"Taller de Biicicletas DK","opening_hours":null,"operator":null,"payment:cash":null,"payment:contactless":null,"payment:credit_cards":null,"payment:debit_cards":null,"payment:maestro":null,"payment:mastercard":null,"payment:visa":null,"payment:visa_debit":null,"payment:visa_electron":null,"phone":null,"service":null,"service:bicycle:Bicycle_Sales_and_Service":null,"service:bicycle:bicycle":null,"service:bicycle:bike":null,"service:bicycle:cleaning":null,"service:bicycle:clothing":null,"service:bicycle:ebike":null,"service:bicycle:parts":null,"service:bicycle:pump":null,"service:bicycle:rental":null,"service:bicycle:repair":null,"service:bicycle:retail":null,"service:bicycle:sales":null,"service:bicycle:second_hand":null,"service:bicycle:service":null,"service:bicycle:showroom":null,"service:bicycle:spare_parts":null,"service:bicycle:tools":null,"service:bicycle:vending":null,"service:bicycle:wheel":null,"shop":"bicycle","source":null,"stroller":null,"website":null,"wheelchair":null},"geometry":{"type":"Point","coordinates":[-74.0901443,4.7327698]}},
{"type":"Feature","properties":{"fid":20,"id":"node/4126657153","@id":"node/4126657153","addr:city":null,"addr:housenumber":null,"addr:postcode":null,"addr:street":null,"amenity":"bicycle_repair_station","brand":null,"building":null,"check_date":null,"coffee":null,"contact:facebook":null,"contact:instagram":null,"description":null,"email":null,"fixme":null,"internet_access":null,"name":"Infinity Bicicleta","opening_hours":null,"operator":null,"payment:cash":null,"payment:contactless":null,"payment:credit_cards":null,"payment:debit_cards":null,"payment:maestro":null,"payment:mastercard":null,"payment:visa":null,"payment:visa_debit":null,"payment:visa_electron":null,"phone":null,"service":null,"service:bicycle:Bicycle_Sales_and_Service":null,"service:bicycle:bicycle":null,"service:bicycle:bike":null,"service:bicycle:cleaning":null,"service:bicycle:clothing":null,"service:bicycle:ebike":null,"service:bicycle:parts":null,"service:bicycle:pump":null,"service:bicycle:rental":null,"service:bicycle:repair":null,"service:bicycle:retail":null,"service:bicycle:sales":null,"service:bicycle:second_hand":null,"service:bicycle:service":null,"service:bicycle:showroom":null,"service:bicycle:spare_parts":null,"service:bicycle:tools":null,"service:bicycle:vending":null,"service:bicycle:wheel":null,"shop":null,"source":null,"stroller":null,"website":null,"wheelchair":null},"geometry":{"type":"Point","coordinates":[-74.0645604,4.6344881]}},
{"type":"Feature","properties":{"fid":22,"id":"node/4339916752","@id":"node/4339916752","addr:city":null,"addr:housenumber":"134D-35","addr:postcode":null,"addr:street":"Carrera 45","amenity":null,"brand":null,"building":null,"check_date":null,"coffee":null,"contact:facebook":null,"contact:instagram":null,"description":null,"email":null,"fixme":null,"internet_access":null,"name":"TodoBici","opening_hours":null,"operator":null,"payment:cash":null,"payment:contactless":null,"payment:credit_cards":null,"payment:debit_cards":null,"payment:maestro":null,"payment:mastercard":null,"payment:visa":null,"payment:visa_debit":null,"payment:visa_electron":null,"phone":null,"service":null,"service:bicycle:Bicycle_Sales_and_Service":null,"service:bicycle:bicycle":null,"service:bicycle:bike":null,"service:bicycle:cleaning":null,"service:bicycle:clothing":null,"service:bicycle:ebike":null,"service:bicycle:parts":null,"service:bicycle:pump":null,"service:bicycle:rental":null,"service:bicycle:repair":null,"service:bicycle:retail":null,"service:bicycle:sales":null,"service:bicycle:second_hand":null,"service:bicycle:service":null,"service:bicycle:showroom":null,"service:bicycle:spare_parts":null,"service:bicycle:tools":null,"service:bicycle:vending":null,"service:bicycle:wheel":null,"shop":"bicycle","source":null,"stroller":null,"website":null,"wheelchair":null},"geometry":{"type":"Point","coordinates":[-74.0521271,4.7200605]}},
{"type":"Feature","properties":{"fid":23,"id":"node/4339922251","@id":"node/4339922251","addr:city":null,"addr:housenumber":null,"addr:postcode":null,"addr:street":null,"amenity":null,"brand":null,"building":null,"check_date":null,"coffee":null,"contact:facebook":null,"contact:instagram":null,"description":null,"email":null,"fixme":null,"internet_access":null,"name":"Ciclo Benetton","opening_hours":null,"operator":null,"payment:cash":null,"payment:contactless":null,"payment:credit_cards":null,"payment:debit_cards":null,"payment:maestro":null,"payment:mastercard":null,"payment:visa":null,"payment:visa_debit":null,"payment:visa_electron":null,"phone":null,"service":null,"service:bicycle:Bicycle_Sales_and_Service":null,"service:bicycle:bicycle":null,"service:bicycle:bike":null,"service:bicycle:cleaning":null,"service:bicycle:clothing":null,"service:bicycle:ebike":null,"service:bicycle:parts":null,"service:bicycle:pump":null,"service:bicycle:rental":null,"service:bicycle:repair":null,"service:bicycle:retail":null,"service:bicycle:sales":null,"service:bicycle:second_hand":null,"service:bicycle:service":null,"service:bicycle:showroom":null,"service:bicycle:spare_parts":null,"service:bicycle:tools":null,"service:bicycle:vending":null,"service:bicycle:wheel":null,"shop":"bicycle","source":null,"stroller":null,"website":null,"wheelchair":null},"geometry":{"type":"Point","coordinates":[-74.0568504,4.7195127]}},
{"type":"Feature","properties":{"fid":24,"id":"node/4339922252","@id":"node/4339922252","addr:city":null,"addr:housenumber":"50-16","addr:postcode":null,"addr:street":null,"amenity":null,"brand":null,"building":null,"check_date":null,"coffee":null,"contact:facebook":null,"contact:instagram":null,"description":null,"email":null,"fixme":null,"internet_access":null,"name":null,"opening_hours":null,"operator":null,"payment:cash":null,"payment:contactless":null,"payment:credit_cards":null,"payment:debit_cards":null,"payment:maestro":null,"payment:mastercard":null,"payment:visa":null,"payment:visa_debit":null,"payment:visa_electron":null,"phone":null,"service":null,"service:bicycle:Bicycle_Sales_and_Service":null,"service:bicycle:bicycle":null,"service:bicycle:bike":null,"service:bicycle:cleaning":null,"service:bicycle:clothing":null,"service:bicycle:ebike":null,"service:bicycle:parts":null,"service:bicycle:pump":null,"service:bicycle:rental":null,"service:bicycle:repair":null,"service:bicycle:retail":null,"service:bicycle:sales":null,"service:bicycle:second_hand":null,"service:bicycle:service":null,"service:bicycle:showroom":null,"service:bicycle:spare_parts":null,"service:bicycle:tools":null,"service:bicycle:vending":null,"service:bicycle:wheel":null,"shop":"bicycle","source":null,"stroller":null,"website":null,"wheelchair":null},"geometry":{"type":"Point","coordinates":[-74.0563982,4.7194198]}},
{"type":"Feature","properties":{"fid":26,"id":"node/4348869882","@id":"node/4348869882","addr:city":null,"addr:housenumber":null,"addr:postcode":null,"addr:street":null,"amenity":null,"brand":null,"building":null,"check_date":null,"coffee":null,"contact:facebook":null,"contact:instagram":null,"description":null,"email":null,"fixme":null,"internet_access":null,"name":"El Tomacorriente","opening_hours":null,"operator":null,"payment:cash":null,"payment:contactless":null,"payment:credit_cards":null,"payment:debit_cards":null,"payment:maestro":null,"payment:mastercard":null,"payment:visa":null,"payment:visa_debit":null,"payment:visa_electron":null,"phone":null,"service":null,"service:bicycle:Bicycle_Sales_and_Service":null,"service:bicycle:bicycle":null,"service:bicycle:bike":null,"service:bicycle:cleaning":null,"service:bicycle:clothing":null,"service:bicycle:ebike":null,"service:bicycle:parts":null,"service:bicycle:pump":null,"service:bicycle:rental":null,"service:bicycle:repair":null,"service:bicycle:retail":null,"service:bicycle:sales":null,"service:bicycle:second_hand":null,"service:bicycle:service":null,"service:bicycle:showroom":null,"service:bicycle:spare_parts":null,"service:bicycle:tools":null,"service:bicycle:vending":null,"service:bicycle:wheel":null,"shop":"bicycle","source":null,"stroller":null,"website":null,"wheelchair":null},"geometry":{"type":"Point","coordinates":[-74.0471668,4.7182729]}},
{"type":"Feature","properties":{"fid":27,"id":"node/4351607651","@id":"node/4351607651","addr:city":null,"addr:housenumber":null,"addr:postcode":null,"addr:street":null,"amenity":null,"brand":null,"building":null,"check_date":null,"coffee":null,"contact:facebook":null,"contact:instagram":null,"description":null,"email":null,"fixme":null,"internet_access":null,"name":"Triatlhon","opening_hours":null,"operator":null,"payment:cash":null,"payment:contactless":null,"payment:credit_cards":null,"payment:debit_cards":null,"payment:maestro":null,"payment:mastercard":null,"payment:visa":null,"payment:visa_debit":null,"payment:visa_electron":null,"phone":null,"service":null,"service:bicycle:Bicycle_Sales_and_Service":null,"service:bicycle:bicycle":null,"service:bicycle:bike":null,"service:bicycle:cleaning":null,"service:bicycle:clothing":null,"service:bicycle:ebike":null,"service:bicycle:parts":null,"service:bicycle:pump":null,"service:bicycle:rental":null,"service:bicycle:repair":null,"service:bicycle:retail":null,"service:bicycle:sales":null,"service:bicycle:second_hand":null,"service:bicycle:service":null,"service:bicycle:showroom":null,"service:bicycle:spare_parts":null,"service:bicycle:tools":null,"service:bicycle:vending":null,"service:bicycle:wheel":null,"shop":"bicycle","source":null,"stroller":null,"website":null,"wheelchair":null},"geometry":{"type":"Point","coordinates":[-74.045863,4.7246037]}},
{"type":"Feature","properties":{"fid":31,"id":"node/4745778593","@id":"node/4745778593","addr:city":null,"addr:housenumber":null,"addr:postcode":null,"addr:street":null,"amenity":null,"brand":null,"building":null,"check_date":null,"coffee":null,"contact:facebook":null,"contact:instagram":null,"description":null,"email":null,"fixme":null,"internet_access":null,"name":"Tenis Store","opening_hours":null,"operator":null,"payment:cash":null,"payment:contactless":null,"payment:credit_cards":null,"payment:debit_cards":null,"payment:maestro":null,"payment:mastercard":null,"payment:visa":null,"payment:visa_debit":null,"payment:visa_electron":null,"phone":null,"service":null,"service:bicycle:Bicycle_Sales_and_Service":null,"service:bicycle:bicycle":null,"service:bicycle:bike":null,"service:bicycle:cleaning":null,"service:bicycle:clothing":null,"service:bicycle:ebike":null,"service:bicycle:parts":null,"service:bicycle:pump":null,"service:bicycle:rental":null,"service:bicycle:repair":null,"service:bicycle:retail":null,"service:bicycle:sales":null,"service:bicycle:second_hand":null,"service:bicycle:service":null,"service:bicycle:showroom":null,"service:bicycle:spare_parts":null,"service:bicycle:tools":null,"service:bicycle:vending":null,"service:bicycle:wheel":null,"shop":"bicycle","source":null,"stroller":null,"website":null,"wheelchair":null},"geometry":{"type":"Point","coordinates":[-74.0969338,4.6692913]}},
{"type":"Feature","properties":{"fid":32,"id":"node/4745778597","@id":"node/4745778597","addr:city":null,"addr:housenumber":null,"addr:postcode":null,"addr:street":null,"amenity":null,"brand":null,"building":null,"check_date":null,"coffee":null,"contact:facebook":null,"contact:instagram":null,"description":null,"email":null,"fixme":null,"internet_access":null,"name":null,"opening_hours":null,"operator":null,"payment:cash":null,"payment:contactless":null,"payment:credit_cards":null,"payment:debit_cards":null,"payment:maestro":null,"payment:mastercard":null,"payment:visa":null,"payment:visa_debit":null,"payment:visa_electron":null,"phone":null,"service":null,"service:bicycle:Bicycle_Sales_and_Service":null,"service:bicycle:bicycle":null,"service:bicycle:bike":null,"service:bicycle:cleaning":null,"service:bicycle:clothing":null,"service:bicycle:ebike":null,"service:bicycle:parts":null,"service:bicycle:pump":null,"service:bicycle:rental":null,"service:bicycle:repair":null,"service:bicycle:retail":null,"service:bicycle:sales":null,"service:bicycle:second_hand":null,"service:bicycle:service":null,"service:bicycle:showroom":null,"service:bicycle:spare_parts":null,"service:bicycle:tools":null,"service:bicycle:vending":null,"service:bicycle:wheel":null,"shop":"bicycle","source":null,"stroller":null,"website":null,"wheelchair":null},"geometry":{"type":"Point","coordinates":[-74.09721,4.6690988]}},
{"type":"Feature","properties":{"fid":33,"id":"node/4745810866","@id":"node/4745810866","addr:city":null,"addr:housenumber":null,"addr:postcode":null,"addr:street":null,"amenity":null,"brand":null,"building":null,"check_date":null,"coffee":null,"contact:facebook":null,"contact:instagram":null,"description":null,"email":null,"fixme":null,"internet_access":null,"name":null,"opening_hours":null,"operator":null,"payment:cash":null,"payment:contactless":null,"payment:credit_cards":null,"payment:debit_cards":null,"payment:maestro":null,"payment:mastercard":null,"payment:visa":null,"payment:visa_debit":null,"payment:visa_electron":null,"phone":null,"service":null,"service:bicycle:Bicycle_Sales_and_Service":null,"service:bicycle:bicycle":null,"service:bicycle:bike":null,"service:bicycle:cleaning":null,"service:bicycle:clothing":null,"service:bicycle:ebike":null,"service:bicycle:parts":null,"service:bicycle:pump":null,"service:bicycle:rental":null,"service:bicycle:repair":null,"service:bicycle:retail":null,"service:bicycle:sales":null,"service:bicycle:second_hand":null,"service:bicycle:service":null,"service:bicycle:showroom":null,"service:bicycle:spare_parts":null,"service:bicycle:tools":null,"service:bicycle:vending":null,"service:bicycle:wheel":null,"shop":"bicycle","source":null,"stroller":null,"website":null,"wheelchair":null},"geometry":{"type":"Point","coordinates":[-74.0970727,4.6690744]}},
{"type":"Feature","properties":{"fid":34,"id":"node/5125803452","@id":"node/5125803452","addr:city":"Bogotá D.C.","addr:housenumber":null,"addr:postcode":null,"addr:street":"Avenida Laureano Gomez - Carrera 9","amenity":null,"brand":null,"building":null,"check_date":null,"coffee":null,"contact:facebook":null,"contact:instagram":null,"description":null,"email":null,"fixme":null,"internet_access":null,"name":"Bicieletas Avatar","opening_hours":"Mo-Sa 08:00-18:00; Su,PH 08:00-14:00","operator":null,"payment:cash":null,"payment:contactless":null,"payment:credit_cards":null,"payment:debit_cards":null,"payment:maestro":null,"payment:mastercard":null,"payment:visa":null,"payment:visa_debit":null,"payment:visa_electron":null,"phone":null,"service":null,"service:bicycle:Bicycle_Sales_and_Service":null,"service:bicycle:bicycle":null,"service:bicycle:bike":null,"service:bicycle:cleaning":null,"service:bicycle:clothing":null,"service:bicycle:ebike":null,"service:bicycle:parts":null,"service:bicycle:pump":null,"service:bicycle:rental":null,"service:bicycle:repair":null,"service:bicycle:retail":null,"service:bicycle:sales":null,"service:bicycle:second_hand":null,"service:bicycle:service":null,"service:bicycle:showroom":null,"service:bicycle:spare_parts":null,"service:bicycle:tools":null,"service:bicycle:vending":null,"service:bicycle:wheel":null,"shop":"bicycle","source":"Kaart Ground Survey 2017","stroller":null,"website":null,"wheelchair":null},"geometry":{"type":"Point","coordinates":[-74.0317065,4.7400028]}},
{"type":"Feature","properties":{"fid":37,"id":"node/5131690607","@id":"node/5131690607","addr:city":null,"addr:housenumber":null,"addr:postcode":null,"addr:street":"Avenida Carrera 11","amenity":null,"brand":null,"building":null,"check_date":null,"coffee":null,"contact:facebook":null,"contact:instagram":null,"description":null,"email":null,"fixme":null,"internet_access":null,"name":"Labiela","opening_hours":null,"operator":null,"payment:cash":null,"payment:contactless":null,"payment:credit_cards":null,"payment:debit_cards":null,"payment:maestro":null,"payment:mastercard":null,"payment:visa":null,"payment:visa_debit":null,"payment:visa_electron":null,"phone":null,"service":null,"service:bicycle:Bicycle_Sales_and_Service":null,"service:bicycle:bicycle":null,"service:bicycle:bike":null,"service:bicycle:cleaning":null,"service:bicycle:clothing":null,"service:bicycle:ebike":null,"service:bicycle:parts":null,"service:bicycle:pump":null,"service:bicycle:rental":null,"service:bicycle:repair":null,"service:bicycle:retail":null,"service:bicycle:sales":null,"service:bicycle:second_hand":null,"service:bicycle:service":null,"service:bicycle:showroom":null,"service:bicycle:spare_parts":null,"service:bicycle:tools":null,"service:bicycle:vending":null,"service:bicycle:wheel":null,"shop":"bicycle","source":"Kaart Ground Survey 2017","stroller":null,"website":null,"wheelchair":null},"geometry":{"type":"Point","coordinates":[-74.0451335,4.678883]}},
{"type":"Feature","properties":{"fid":38,"id":"node/5131839484","@id":"node/5131839484","addr:city":null,"addr:housenumber":null,"addr:postcode":null,"addr:street":"Avenida Calle 161","amenity":null,"brand":null,"building":null,"check_date":null,"coffee":null,"contact:facebook":null,"contact:instagram":null,"description":null,"email":null,"fixme":null,"internet_access":null,"name":"Bícicleteria","opening_hours":null,"operator":null,"payment:cash":null,"payment:contactless":null,"payment:credit_cards":null,"payment:debit_cards":null,"payment:maestro":null,"payment:mastercard":null,"payment:visa":null,"payment:visa_debit":null,"payment:visa_electron":null,"phone":null,"service":null,"service:bicycle:Bicycle_Sales_and_Service":null,"service:bicycle:bicycle":null,"service:bicycle:bike":null,"service:bicycle:cleaning":null,"service:bicycle:clothing":null,"service:bicycle:ebike":null,"service:bicycle:parts":null,"service:bicycle:pump":null,"service:bicycle:rental":null,"service:bicycle:repair":null,"service:bicycle:retail":null,"service:bicycle:sales":null,"service:bicycle:second_hand":null,"service:bicycle:service":null,"service:bicycle:showroom":null,"service:bicycle:spare_parts":null,"service:bicycle:tools":null,"service:bicycle:vending":null,"service:bicycle:wheel":null,"shop":"bicycle","source":"Kaart Ground Survey 2017","stroller":null,"website":null,"wheelchair":null},"geometry":{"type":"Point","coordinates":[-74.0424704,4.7404508]}},
{"type":"Feature","properties":{"fid":39,"id":"node/5131910060","@id":"node/5131910060","addr:city":null,"addr:housenumber":null,"addr:postcode":null,"addr:street":"Avenida Calle 116","amenity":null,"brand":null,"building":null,"check_date":null,"coffee":null,"contact:facebook":null,"contact:instagram":null,"description":null,"email":null,"fixme":null,"internet_access":null,"name":"World Bikes Tour","opening_hours":null,"operator":null,"payment:cash":null,"payment:contactless":null,"payment:credit_cards":null,"payment:debit_cards":null,"payment:maestro":null,"payment:mastercard":null,"payment:visa":null,"payment:visa_debit":null,"payment:visa_electron":null,"phone":null,"service":null,"service:bicycle:Bicycle_Sales_and_Service":null,"service:bicycle:bicycle":null,"service:bicycle:bike":null,"service:bicycle:cleaning":null,"service:bicycle:clothing":null,"service:bicycle:ebike":null,"service:bicycle:parts":null,"service:bicycle:pump":null,"service:bicycle:rental":null,"service:bicycle:repair":null,"service:bicycle:retail":null,"service:bicycle:sales":null,"service:bicycle:second_hand":null,"service:bicycle:service":null,"service:bicycle:showroom":null,"service:bicycle:spare_parts":null,"service:bicycle:tools":null,"service:bicycle:vending":null,"service:bicycle:wheel":null,"shop":"bicycle","source":"Kaart Ground Survey 2017","stroller":null,"website":null,"wheelchair":null},"geometry":{"type":"Point","coordinates":[-74.0454418,4.6975445]}},
{"type":"Feature","properties":{"fid":40,"id":"node/5132124385","@id":"node/5132124385","addr:city":null,"addr:housenumber":null,"addr:postcode":null,"addr:street":"Avenida Carrera 11","amenity":null,"brand":null,"building":null,"check_date":null,"coffee":null,"contact:facebook":null,"contact:instagram":null,"description":null,"email":null,"fixme":null,"internet_access":null,"name":"14 Ochomiles","opening_hours":null,"operator":null,"payment:cash":null,"payment:contactless":null,"payment:credit_cards":null,"payment:debit_cards":null,"payment:maestro":null,"payment:mastercard":null,"payment:visa":null,"payment:visa_debit":null,"payment:visa_electron":null,"phone":null,"service":null,"service:bicycle:Bicycle_Sales_and_Service":null,"service:bicycle:bicycle":null,"service:bicycle:bike":null,"service:bicycle:cleaning":null,"service:bicycle:clothing":null,"service:bicycle:ebike":null,"service:bicycle:parts":null,"service:bicycle:pump":null,"service:bicycle:rental":null,"service:bicycle:repair":null,"service:bicycle:retail":null,"service:bicycle:sales":null,"service:bicycle:second_hand":null,"service:bicycle:service":null,"service:bicycle:showroom":null,"service:bicycle:spare_parts":null,"service:bicycle:tools":null,"service:bicycle:vending":null,"service:bicycle:wheel":null,"shop":"bicycle","source":"Kaart Ground Survey 2017","stroller":null,"website":null,"wheelchair":null},"geometry":{"type":"Point","coordinates":[-74.0544666,4.6637678]}},
{"type":"Feature","properties":{"fid":42,"id":"node/5135537810","@id":"node/5135537810","addr:city":null,"addr:housenumber":null,"addr:postcode":null,"addr:street":"Carrera 72","amenity":null,"brand":null,"building":null,"check_date":null,"coffee":null,"contact:facebook":null,"contact:instagram":null,"description":null,"email":null,"fixme":null,"internet_access":null,"name":"Mountain Bake","opening_hours":null,"operator":null,"payment:cash":null,"payment:contactless":null,"payment:credit_cards":null,"payment:debit_cards":null,"payment:maestro":null,"payment:mastercard":null,"payment:visa":null,"payment:visa_debit":null,"payment:visa_electron":null,"phone":null,"service":null,"service:bicycle:Bicycle_Sales_and_Service":null,"service:bicycle:bicycle":null,"service:bicycle:bike":null,"service:bicycle:cleaning":null,"service:bicycle:clothing":null,"service:bicycle:ebike":null,"service:bicycle:parts":null,"service:bicycle:pump":null,"service:bicycle:rental":null,"service:bicycle:repair":null,"service:bicycle:retail":null,"service:bicycle:sales":null,"service:bicycle:second_hand":null,"service:bicycle:service":null,"service:bicycle:showroom":null,"service:bicycle:spare_parts":null,"service:bicycle:tools":null,"service:bicycle:vending":null,"service:bicycle:wheel":null,"shop":"bicycle","source":"Kaart Ground Survey 2017","stroller":null,"website":null,"wheelchair":null},"geometry":{"type":"Point","coordinates":[-74.0975282,4.6841676]}},
{"type":"Feature","properties":{"fid":43,"id":"node/5135799873","@id":"node/5135799873","addr:city":null,"addr:housenumber":null,"addr:postcode":null,"addr:street":"Carrera 13","amenity":null,"brand":null,"building":null,"check_date":null,"coffee":null,"contact:facebook":null,"contact:instagram":null,"description":null,"email":null,"fixme":null,"internet_access":null,"name":"Juan Pablo Murilla","opening_hours":null,"operator":null,"payment:cash":null,"payment:contactless":null,"payment:credit_cards":null,"payment:debit_cards":null,"payment:maestro":null,"payment:mastercard":null,"payment:visa":null,"payment:visa_debit":null,"payment:visa_electron":null,"phone":null,"service":null,"service:bicycle:Bicycle_Sales_and_Service":null,"service:bicycle:bicycle":null,"service:bicycle:bike":null,"service:bicycle:cleaning":null,"service:bicycle:clothing":null,"service:bicycle:ebike":null,"service:bicycle:parts":null,"service:bicycle:pump":null,"service:bicycle:rental":null,"service:bicycle:repair":null,"service:bicycle:retail":null,"service:bicycle:sales":null,"service:bicycle:second_hand":null,"service:bicycle:service":null,"service:bicycle:showroom":null,"service:bicycle:spare_parts":null,"service:bicycle:tools":null,"service:bicycle:vending":null,"service:bicycle:wheel":null,"shop":"bicycle","source":"Kaart Ground Survey 2017","stroller":null,"website":null,"wheelchair":null},"geometry":{"type":"Point","coordinates":[-74.0558132,4.6654668]}},
{"type":"Feature","properties":{"fid":46,"id":"node/5146098157","@id":"node/5146098157","addr:city":null,"addr:housenumber":null,"addr:postcode":null,"addr:street":null,"amenity":null,"brand":null,"building":null,"check_date":null,"coffee":null,"contact:facebook":null,"contact:instagram":null,"description":null,"email":null,"fixme":null,"internet_access":null,"name":"Shalom","opening_hours":null,"operator":null,"payment:cash":null,"payment:contactless":null,"payment:credit_cards":null,"payment:debit_cards":null,"payment:maestro":null,"payment:mastercard":null,"payment:visa":null,"payment:visa_debit":null,"payment:visa_electron":null,"phone":null,"service":null,"service:bicycle:Bicycle_Sales_and_Service":null,"service:bicycle:bicycle":null,"service:bicycle:bike":null,"service:bicycle:cleaning":null,"service:bicycle:clothing":null,"service:bicycle:ebike":null,"service:bicycle:parts":null,"service:bicycle:pump":null,"service:bicycle:rental":null,"service:bicycle:repair":null,"service:bicycle:retail":null,"service:bicycle:sales":null,"service:bicycle:second_hand":null,"service:bicycle:service":null,"service:bicycle:showroom":null,"service:bicycle:spare_parts":null,"service:bicycle:tools":null,"service:bicycle:vending":null,"service:bicycle:wheel":null,"shop":"bicycle","source":null,"stroller":null,"website":null,"wheelchair":null},"geometry":{"type":"Point","coordinates":[-74.0719279,4.7089649]}},
{"type":"Feature","properties":{"fid":49,"id":"node/5148692819","@id":"node/5148692819","addr:city":null,"addr:housenumber":null,"addr:postcode":null,"addr:street":"Avenida Calle 80","amenity":null,"brand":null,"building":null,"check_date":null,"coffee":null,"contact:facebook":null,"contact:instagram":null,"description":null,"email":null,"fixme":null,"internet_access":null,"name":"Multimarcas El Edén","opening_hours":null,"operator":null,"payment:cash":null,"payment:contactless":null,"payment:credit_cards":null,"payment:debit_cards":null,"payment:maestro":null,"payment:mastercard":null,"payment:visa":null,"payment:visa_debit":null,"payment:visa_electron":null,"phone":null,"service":null,"service:bicycle:Bicycle_Sales_and_Service":null,"service:bicycle:bicycle":null,"service:bicycle:bike":null,"service:bicycle:cleaning":null,"service:bicycle:clothing":null,"service:bicycle:ebike":null,"service:bicycle:parts":null,"service:bicycle:pump":null,"service:bicycle:rental":null,"service:bicycle:repair":null,"service:bicycle:retail":null,"service:bicycle:sales":null,"service:bicycle:second_hand":null,"service:bicycle:service":null,"service:bicycle:showroom":null,"service:bicycle:spare_parts":null,"service:bicycle:tools":null,"service:bicycle:vending":null,"service:bicycle:wheel":null,"shop":"bicycle","source":"Kaart Ground Survey 2017","stroller":null,"website":null,"wheelchair":null},"geometry":{"type":"Point","coordinates":[-74.063435400000017,4.6683687]}},
{"type":"Feature","properties":{"fid":51,"id":"node/5150574705","@id":"node/5150574705","addr:city":null,"addr:housenumber":null,"addr:postcode":null,"addr:street":"Avenida Carrera 86","amenity":null,"brand":null,"building":null,"check_date":null,"coffee":null,"contact:facebook":null,"contact:instagram":null,"description":null,"email":null,"fixme":null,"internet_access":null,"name":"Ciclo Manaes","opening_hours":null,"operator":null,"payment:cash":null,"payment:contactless":null,"payment:credit_cards":null,"payment:debit_cards":null,"payment:maestro":null,"payment:mastercard":null,"payment:visa":null,"payment:visa_debit":null,"payment:visa_electron":null,"phone":null,"service":null,"service:bicycle:Bicycle_Sales_and_Service":null,"service:bicycle:bicycle":null,"service:bicycle:bike":null,"service:bicycle:cleaning":null,"service:bicycle:clothing":null,"service:bicycle:ebike":null,"service:bicycle:parts":null,"service:bicycle:pump":null,"service:bicycle:rental":null,"service:bicycle:repair":null,"service:bicycle:retail":null,"service:bicycle:sales":null,"service:bicycle:second_hand":null,"service:bicycle:service":null,"service:bicycle:showroom":null,"service:bicycle:spare_parts":null,"service:bicycle:tools":null,"service:bicycle:vending":null,"service:bicycle:wheel":null,"shop":"bicycle","source":"Kaart Ground Survey 2017","stroller":null,"website":null,"wheelchair":null},"geometry":{"type":"Point","coordinates":[-74.1076932,4.6923231]}},
{"type":"Feature","properties":{"fid":52,"id":"node/5150627090","@id":"node/5150627090","addr:city":null,"addr:housenumber":null,"addr:postcode":null,"addr:street":"Avenida Carrera 86","amenity":null,"brand":null,"building":null,"check_date":null,"coffee":null,"contact:facebook":null,"contact:instagram":null,"description":null,"email":null,"fixme":null,"internet_access":null,"name":"Ciclo Luz","opening_hours":null,"operator":null,"payment:cash":null,"payment:contactless":null,"payment:credit_cards":null,"payment:debit_cards":null,"payment:maestro":null,"payment:mastercard":null,"payment:visa":null,"payment:visa_debit":null,"payment:visa_electron":null,"phone":null,"service":null,"service:bicycle:Bicycle_Sales_and_Service":null,"service:bicycle:bicycle":null,"service:bicycle:bike":null,"service:bicycle:cleaning":null,"service:bicycle:clothing":null,"service:bicycle:ebike":null,"service:bicycle:parts":null,"service:bicycle:pump":null,"service:bicycle:rental":null,"service:bicycle:repair":null,"service:bicycle:retail":null,"service:bicycle:sales":null,"service:bicycle:second_hand":null,"service:bicycle:service":null,"service:bicycle:showroom":null,"service:bicycle:spare_parts":null,"service:bicycle:tools":null,"service:bicycle:vending":null,"service:bicycle:wheel":null,"shop":"bicycle","source":"Kaart Ground Survey 2017","stroller":null,"website":null,"wheelchair":null},"geometry":{"type":"Point","coordinates":[-74.1065647,4.6944484]}},
{"type":"Feature","properties":{"fid":53,"id":"node/5150627093","@id":"node/5150627093","addr:city":null,"addr:housenumber":null,"addr:postcode":null,"addr:street":"Avenida Carrera 86","amenity":"bicycle_repair_station","brand":null,"building":null,"check_date":null,"coffee":null,"contact:facebook":null,"contact:instagram":null,"description":null,"email":null,"fixme":null,"internet_access":null,"name":"Bicicletería y Taller DyC","opening_hours":null,"operator":null,"payment:cash":null,"payment:contactless":null,"payment:credit_cards":null,"payment:debit_cards":null,"payment:maestro":null,"payment:mastercard":null,"payment:visa":null,"payment:visa_debit":null,"payment:visa_electron":null,"phone":null,"service":null,"service:bicycle:Bicycle_Sales_and_Service":null,"service:bicycle:bicycle":null,"service:bicycle:bike":null,"service:bicycle:cleaning":null,"service:bicycle:clothing":null,"service:bicycle:ebike":null,"service:bicycle:parts":null,"service:bicycle:pump":null,"service:bicycle:rental":null,"service:bicycle:repair":null,"service:bicycle:retail":null,"service:bicycle:sales":null,"service:bicycle:second_hand":null,"service:bicycle:service":null,"service:bicycle:showroom":null,"service:bicycle:spare_parts":null,"service:bicycle:tools":null,"service:bicycle:vending":null,"service:bicycle:wheel":null,"shop":null,"source":"Kaart Ground Survey 2017","stroller":null,"website":null,"wheelchair":null},"geometry":{"type":"Point","coordinates":[-74.1065848,4.6944096]}},
{"type":"Feature","properties":{"fid":54,"id":"node/5151935353","@id":"node/5151935353","addr:city":null,"addr:housenumber":null,"addr:postcode":null,"addr:street":"Avenida Carrera 86","amenity":null,"brand":null,"building":null,"check_date":null,"coffee":null,"contact:facebook":null,"contact:instagram":null,"description":null,"email":null,"fixme":null,"internet_access":null,"name":"Bicicletas Power Fox","opening_hours":null,"operator":null,"payment:cash":null,"payment:contactless":null,"payment:credit_cards":null,"payment:debit_cards":null,"payment:maestro":null,"payment:mastercard":null,"payment:visa":null,"payment:visa_debit":null,"payment:visa_electron":null,"phone":null,"service":null,"service:bicycle:Bicycle_Sales_and_Service":null,"service:bicycle:bicycle":null,"service:bicycle:bike":null,"service:bicycle:cleaning":null,"service:bicycle:clothing":null,"service:bicycle:ebike":null,"service:bicycle:parts":null,"service:bicycle:pump":null,"service:bicycle:rental":null,"service:bicycle:repair":null,"service:bicycle:retail":null,"service:bicycle:sales":null,"service:bicycle:second_hand":null,"service:bicycle:service":null,"service:bicycle:showroom":null,"service:bicycle:spare_parts":null,"service:bicycle:tools":null,"service:bicycle:vending":null,"service:bicycle:wheel":null,"shop":"bicycle","source":"Kaart Ground Survey 2017","stroller":null,"website":null,"wheelchair":null},"geometry":{"type":"Point","coordinates":[-74.1050757,4.6971735]}},
{"type":"Feature","properties":{"fid":55,"id":"node/5151935359","@id":"node/5151935359","addr:city":null,"addr:housenumber":null,"addr:postcode":null,"addr:street":"Avenida Carrera 86","amenity":null,"brand":null,"building":null,"check_date":null,"coffee":null,"contact:facebook":null,"contact:instagram":null,"description":null,"email":null,"fixme":null,"internet_access":null,"name":"Ciclomotos y Bicicletas","opening_hours":null,"operator":null,"payment:cash":null,"payment:contactless":null,"payment:credit_cards":null,"payment:debit_cards":null,"payment:maestro":null,"payment:mastercard":null,"payment:visa":null,"payment:visa_debit":null,"payment:visa_electron":null,"phone":null,"service":null,"service:bicycle:Bicycle_Sales_and_Service":null,"service:bicycle:bicycle":null,"service:bicycle:bike":null,"service:bicycle:cleaning":null,"service:bicycle:clothing":null,"service:bicycle:ebike":null,"service:bicycle:parts":null,"service:bicycle:pump":null,"service:bicycle:rental":null,"service:bicycle:repair":null,"service:bicycle:retail":null,"service:bicycle:sales":null,"service:bicycle:second_hand":null,"service:bicycle:service":null,"service:bicycle:showroom":null,"service:bicycle:spare_parts":null,"service:bicycle:tools":null,"service:bicycle:vending":null,"service:bicycle:wheel":null,"shop":"bicycle","source":"Kaart Ground Survey 2017","stroller":null,"website":null,"wheelchair":null},"geometry":{"type":"Point","coordinates":[-74.1048889,4.6974282]}},
{"type":"Feature","properties":{"fid":56,"id":"node/5151935367","@id":"node/5151935367","addr:city":null,"addr:housenumber":null,"addr:postcode":null,"addr:street":"Avenida Carrera 86","amenity":null,"brand":null,"building":null,"check_date":null,"coffee":null,"contact:facebook":null,"contact:instagram":null,"description":null,"email":null,"fixme":null,"internet_access":null,"name":"Gio Bikes","opening_hours":null,"operator":null,"payment:cash":null,"payment:contactless":null,"payment:credit_cards":null,"payment:debit_cards":null,"payment:maestro":null,"payment:mastercard":null,"payment:visa":null,"payment:visa_debit":null,"payment:visa_electron":null,"phone":null,"service":null,"service:bicycle:Bicycle_Sales_and_Service":null,"service:bicycle:bicycle":null,"service:bicycle:bike":null,"service:bicycle:cleaning":null,"service:bicycle:clothing":null,"service:bicycle:ebike":null,"service:bicycle:parts":null,"service:bicycle:pump":null,"service:bicycle:rental":null,"service:bicycle:repair":null,"service:bicycle:retail":null,"service:bicycle:sales":null,"service:bicycle:second_hand":null,"service:bicycle:service":null,"service:bicycle:showroom":null,"service:bicycle:spare_parts":null,"service:bicycle:tools":null,"service:bicycle:vending":null,"service:bicycle:wheel":null,"shop":"bicycle","source":"Kaart Ground Survey 2017","stroller":null,"website":null,"wheelchair":null},"geometry":{"type":"Point","coordinates":[-74.1047625,4.6975775]}},
{"type":"Feature","properties":{"fid":57,"id":"node/5151983347","@id":"node/5151983347","addr:city":null,"addr:housenumber":null,"addr:postcode":null,"addr:street":"Avenida Carrera 86","amenity":null,"brand":null,"building":null,"check_date":null,"coffee":null,"contact:facebook":null,"contact:instagram":null,"description":null,"email":null,"fixme":null,"internet_access":null,"name":"Electric Bike Company","opening_hours":null,"operator":null,"payment:cash":null,"payment:contactless":null,"payment:credit_cards":null,"payment:debit_cards":null,"payment:maestro":null,"payment:mastercard":null,"payment:visa":null,"payment:visa_debit":null,"payment:visa_electron":null,"phone":null,"service":null,"service:bicycle:Bicycle_Sales_and_Service":null,"service:bicycle:bicycle":null,"service:bicycle:bike":null,"service:bicycle:cleaning":null,"service:bicycle:clothing":null,"service:bicycle:ebike":null,"service:bicycle:parts":null,"service:bicycle:pump":null,"service:bicycle:rental":null,"service:bicycle:repair":null,"service:bicycle:retail":null,"service:bicycle:sales":null,"service:bicycle:second_hand":null,"service:bicycle:service":null,"service:bicycle:showroom":null,"service:bicycle:spare_parts":null,"service:bicycle:tools":null,"service:bicycle:vending":null,"service:bicycle:wheel":null,"shop":"bicycle","source":"Kaart Ground Survey 2017","stroller":null,"website":null,"wheelchair":null},"geometry":{"type":"Point","coordinates":[-74.1032181,4.6999192]}},
{"type":"Feature","properties":{"fid":58,"id":"node/5152571508","@id":"node/5152571508","addr:city":null,"addr:housenumber":null,"addr:postcode":null,"addr:street":"Avenida Calle 80","amenity":null,"brand":null,"building":null,"check_date":null,"coffee":null,"contact:facebook":null,"contact:instagram":null,"description":null,"email":null,"fixme":null,"internet_access":null,"name":"Bicicletas Electrika's","opening_hours":null,"operator":null,"payment:cash":null,"payment:contactless":null,"payment:credit_cards":null,"payment:debit_cards":null,"payment:maestro":null,"payment:mastercard":null,"payment:visa":null,"payment:visa_debit":null,"payment:visa_electron":null,"phone":null,"service":null,"service:bicycle:Bicycle_Sales_and_Service":null,"service:bicycle:bicycle":null,"service:bicycle:bike":null,"service:bicycle:cleaning":null,"service:bicycle:clothing":null,"service:bicycle:ebike":null,"service:bicycle:parts":null,"service:bicycle:pump":null,"service:bicycle:rental":null,"service:bicycle:repair":null,"service:bicycle:retail":null,"service:bicycle:sales":null,"service:bicycle:second_hand":null,"service:bicycle:service":null,"service:bicycle:showroom":null,"service:bicycle:spare_parts":null,"service:bicycle:tools":null,"service:bicycle:vending":null,"service:bicycle:wheel":null,"shop":"bicycle","source":"Kaart Ground Survey 2017","stroller":null,"website":null,"wheelchair":null},"geometry":{"type":"Point","coordinates":[-74.0979989,4.7010436]}},
{"type":"Feature","properties":{"fid":59,"id":"node/5152571514","@id":"node/5152571514","addr:city":null,"addr:housenumber":null,"addr:postcode":null,"addr:street":"Avenida Calle 80","amenity":null,"brand":null,"building":null,"check_date":null,"coffee":null,"contact:facebook":null,"contact:instagram":null,"description":null,"email":null,"fixme":null,"internet_access":null,"name":"Bicicletas Electrika","opening_hours":null,"operator":null,"payment:cash":null,"payment:contactless":null,"payment:credit_cards":null,"payment:debit_cards":null,"payment:maestro":null,"payment:mastercard":null,"payment:visa":null,"payment:visa_debit":null,"payment:visa_electron":null,"phone":null,"service":null,"service:bicycle:Bicycle_Sales_and_Service":null,"service:bicycle:bicycle":null,"service:bicycle:bike":null,"service:bicycle:cleaning":null,"service:bicycle:clothing":null,"service:bicycle:ebike":null,"service:bicycle:parts":null,"service:bicycle:pump":null,"service:bicycle:rental":null,"service:bicycle:repair":null,"service:bicycle:retail":null,"service:bicycle:sales":null,"service:bicycle:second_hand":null,"service:bicycle:service":null,"service:bicycle:showroom":null,"service:bicycle:spare_parts":null,"service:bicycle:tools":null,"service:bicycle:vending":null,"service:bicycle:wheel":null,"shop":"bicycle","source":"Kaart Ground Survey 2017","stroller":null,"website":null,"wheelchair":null},"geometry":{"type":"Point","coordinates":[-74.0981989,4.7011917]}},
{"type":"Feature","properties":{"fid":60,"id":"node/5152585276","@id":"node/5152585276","addr:city":null,"addr:housenumber":null,"addr:postcode":null,"addr:street":"Avenida Calle 80","amenity":null,"brand":null,"building":null,"check_date":null,"coffee":null,"contact:facebook":null,"contact:instagram":null,"description":null,"email":null,"fixme":null,"internet_access":null,"name":"Bicicleteria","opening_hours":null,"operator":null,"payment:cash":null,"payment:contactless":null,"payment:credit_cards":null,"payment:debit_cards":null,"payment:maestro":null,"payment:mastercard":null,"payment:visa":null,"payment:visa_debit":null,"payment:visa_electron":null,"phone":null,"service":null,"service:bicycle:Bicycle_Sales_and_Service":null,"service:bicycle:bicycle":null,"service:bicycle:bike":null,"service:bicycle:cleaning":null,"service:bicycle:clothing":null,"service:bicycle:ebike":null,"service:bicycle:parts":null,"service:bicycle:pump":null,"service:bicycle:rental":null,"service:bicycle:repair":null,"service:bicycle:retail":null,"service:bicycle:sales":null,"service:bicycle:second_hand":null,"service:bicycle:service":null,"service:bicycle:showroom":null,"service:bicycle:spare_parts":null,"service:bicycle:tools":null,"service:bicycle:vending":null,"service:bicycle:wheel":null,"shop":"bicycle","source":"Kaart Ground Survey 2017","stroller":null,"website":null,"wheelchair":null},"geometry":{"type":"Point","coordinates":[-74.0997692,4.7025016]}},
{"type":"Feature","properties":{"fid":72,"id":"node/5159989991","@id":"node/5159989991","addr:city":"Bogotá D.C.","addr:housenumber":"97-57","addr:postcode":null,"addr:street":"Avenida Transversal 55","amenity":null,"brand":null,"building":null,"check_date":null,"coffee":null,"contact:facebook":null,"contact:instagram":null,"description":null,"email":null,"fixme":null,"internet_access":null,"name":"Bogocleta","opening_hours":null,"operator":null,"payment:cash":null,"payment:contactless":null,"payment:credit_cards":null,"payment:debit_cards":null,"payment:maestro":null,"payment:mastercard":null,"payment:visa":null,"payment:visa_debit":null,"payment:visa_electron":null,"phone":null,"service":null,"service:bicycle:Bicycle_Sales_and_Service":null,"service:bicycle:bicycle":null,"service:bicycle:bike":null,"service:bicycle:cleaning":null,"service:bicycle:clothing":null,"service:bicycle:ebike":null,"service:bicycle:parts":null,"service:bicycle:pump":null,"service:bicycle:rental":null,"service:bicycle:repair":null,"service:bicycle:retail":null,"service:bicycle:sales":null,"service:bicycle:second_hand":null,"service:bicycle:service":null,"service:bicycle:showroom":null,"service:bicycle:spare_parts":null,"service:bicycle:tools":null,"service:bicycle:vending":null,"service:bicycle:wheel":null,"shop":"bicycle","source":"Kaart Ground Survey 2017","stroller":null,"website":null,"wheelchair":null},"geometry":{"type":"Point","coordinates":[-74.0641394,4.6858659]}},
{"type":"Feature","properties":{"fid":73,"id":"node/5161322398","@id":"node/5161322398","addr:city":null,"addr:housenumber":null,"addr:postcode":null,"addr:street":"Avenida Suba","amenity":null,"brand":null,"building":null,"check_date":null,"coffee":null,"contact:facebook":null,"contact:instagram":null,"description":null,"email":null,"fixme":null,"internet_access":null,"name":"Bike Zone","opening_hours":null,"operator":null,"payment:cash":null,"payment:contactless":null,"payment:credit_cards":null,"payment:debit_cards":null,"payment:maestro":null,"payment:mastercard":null,"payment:visa":null,"payment:visa_debit":null,"payment:visa_electron":null,"phone":"+573217547525","service":null,"service:bicycle:Bicycle_Sales_and_Service":"yes","service:bicycle:bicycle":null,"service:bicycle:bike":null,"service:bicycle:cleaning":null,"service:bicycle:clothing":"yes","service:bicycle:ebike":null,"service:bicycle:parts":null,"service:bicycle:pump":"yes","service:bicycle:rental":null,"service:bicycle:repair":"yes","service:bicycle:retail":"yes","service:bicycle:sales":null,"service:bicycle:second_hand":null,"service:bicycle:service":null,"service:bicycle:showroom":null,"service:bicycle:spare_parts":null,"service:bicycle:tools":null,"service:bicycle:vending":null,"service:bicycle:wheel":null,"shop":"bicycle","source":"Kaart Ground Survey 2017","stroller":null,"website":null,"wheelchair":null},"geometry":{"type":"Point","coordinates":[-74.0668997,4.693508]}},
{"type":"Feature","properties":{"fid":74,"id":"node/5161354569","@id":"node/5161354569","addr:city":null,"addr:housenumber":null,"addr:postcode":null,"addr:street":"Avenida Calle 80","amenity":null,"brand":null,"building":null,"check_date":null,"coffee":null,"contact:facebook":null,"contact:instagram":null,"description":null,"email":null,"fixme":null,"internet_access":null,"name":"CJ Bikes","opening_hours":null,"operator":null,"payment:cash":null,"payment:contactless":null,"payment:credit_cards":null,"payment:debit_cards":null,"payment:maestro":null,"payment:mastercard":null,"payment:visa":null,"payment:visa_debit":null,"payment:visa_electron":null,"phone":null,"service":null,"service:bicycle:Bicycle_Sales_and_Service":null,"service:bicycle:bicycle":null,"service:bicycle:bike":null,"service:bicycle:cleaning":null,"service:bicycle:clothing":null,"service:bicycle:ebike":null,"service:bicycle:parts":null,"service:bicycle:pump":null,"service:bicycle:rental":null,"service:bicycle:repair":null,"service:bicycle:retail":null,"service:bicycle:sales":null,"service:bicycle:second_hand":null,"service:bicycle:service":null,"service:bicycle:showroom":null,"service:bicycle:spare_parts":null,"service:bicycle:tools":null,"service:bicycle:vending":null,"service:bicycle:wheel":null,"shop":"bicycle","source":"Kaart Ground Survey 2017","stroller":null,"website":null,"wheelchair":null},"geometry":{"type":"Point","coordinates":[-74.1022428,4.7039819]}},
{"type":"Feature","properties":{"fid":75,"id":"node/5161376111","@id":"node/5161376111","addr:city":null,"addr:housenumber":null,"addr:postcode":null,"addr:street":"Avenida Calle 80","amenity":null,"brand":null,"building":null,"check_date":null,"coffee":null,"contact:facebook":null,"contact:instagram":null,"description":null,"email":null,"fixme":null,"internet_access":null,"name":"Las Bicicletas","opening_hours":null,"operator":null,"payment:cash":null,"payment:contactless":null,"payment:credit_cards":null,"payment:debit_cards":null,"payment:maestro":null,"payment:mastercard":null,"payment:visa":null,"payment:visa_debit":null,"payment:visa_electron":null,"phone":null,"service":null,"service:bicycle:Bicycle_Sales_and_Service":null,"service:bicycle:bicycle":null,"service:bicycle:bike":null,"service:bicycle:cleaning":null,"service:bicycle:clothing":null,"service:bicycle:ebike":null,"service:bicycle:parts":null,"service:bicycle:pump":null,"service:bicycle:rental":null,"service:bicycle:repair":null,"service:bicycle:retail":null,"service:bicycle:sales":null,"service:bicycle:second_hand":null,"service:bicycle:service":null,"service:bicycle:showroom":null,"service:bicycle:spare_parts":null,"service:bicycle:tools":null,"service:bicycle:vending":null,"service:bicycle:wheel":null,"shop":"bicycle","source":"Kaart Ground Survey 2017","stroller":null,"website":null,"wheelchair":null},"geometry":{"type":"Point","coordinates":[-74.1045303,4.7049978]}},
{"type":"Feature","properties":{"fid":76,"id":"node/5161391345","@id":"node/5161391345","addr:city":null,"addr:housenumber":null,"addr:postcode":null,"addr:street":"Avenida Calle 80","amenity":null,"brand":null,"building":null,"check_date":null,"coffee":null,"contact:facebook":null,"contact:instagram":null,"description":null,"email":null,"fixme":null,"internet_access":null,"name":"Ride","opening_hours":null,"operator":null,"payment:cash":null,"payment:contactless":null,"payment:credit_cards":null,"payment:debit_cards":null,"payment:maestro":null,"payment:mastercard":null,"payment:visa":null,"payment:visa_debit":null,"payment:visa_electron":null,"phone":null,"service":null,"service:bicycle:Bicycle_Sales_and_Service":null,"service:bicycle:bicycle":null,"service:bicycle:bike":null,"service:bicycle:cleaning":null,"service:bicycle:clothing":null,"service:bicycle:ebike":null,"service:bicycle:parts":null,"service:bicycle:pump":null,"service:bicycle:rental":null,"service:bicycle:repair":null,"service:bicycle:retail":null,"service:bicycle:sales":null,"service:bicycle:second_hand":null,"service:bicycle:service":null,"service:bicycle:showroom":null,"service:bicycle:spare_parts":null,"service:bicycle:tools":null,"service:bicycle:vending":null,"service:bicycle:wheel":null,"shop":"bicycle","source":"Kaart Ground Survey 2017","stroller":null,"website":null,"wheelchair":null},"geometry":{"type":"Point","coordinates":[-74.1060276,4.7056521]}},
{"type":"Feature","properties":{"fid":77,"id":"node/5161407994","@id":"node/5161407994","addr:city":null,"addr:housenumber":null,"addr:postcode":null,"addr:street":"Avenida Calle 80","amenity":null,"brand":null,"building":null,"check_date":null,"coffee":null,"contact:facebook":null,"contact:instagram":null,"description":null,"email":null,"fixme":null,"internet_access":null,"name":"Gilmar","opening_hours":null,"operator":null,"payment:cash":null,"payment:contactless":null,"payment:credit_cards":null,"payment:debit_cards":null,"payment:maestro":null,"payment:mastercard":null,"payment:visa":null,"payment:visa_debit":null,"payment:visa_electron":null,"phone":null,"service":null,"service:bicycle:Bicycle_Sales_and_Service":null,"service:bicycle:bicycle":null,"service:bicycle:bike":null,"service:bicycle:cleaning":null,"service:bicycle:clothing":null,"service:bicycle:ebike":null,"service:bicycle:parts":null,"service:bicycle:pump":null,"service:bicycle:rental":null,"service:bicycle:repair":null,"service:bicycle:retail":null,"service:bicycle:sales":null,"service:bicycle:second_hand":null,"service:bicycle:service":null,"service:bicycle:showroom":null,"service:bicycle:spare_parts":null,"service:bicycle:tools":null,"service:bicycle:vending":null,"service:bicycle:wheel":null,"shop":"bicycle","source":"Kaart Ground Survey 2017","stroller":null,"website":null,"wheelchair":null},"geometry":{"type":"Point","coordinates":[-74.1066262,4.7059147]}},
{"type":"Feature","properties":{"fid":78,"id":"node/5161915940","@id":"node/5161915940","addr:city":null,"addr:housenumber":null,"addr:postcode":null,"addr:street":"Calle 82","amenity":null,"brand":null,"building":null,"check_date":null,"coffee":null,"contact:facebook":null,"contact:instagram":null,"description":null,"email":null,"fixme":null,"internet_access":null,"name":"AMQ Bike's","opening_hours":null,"operator":null,"payment:cash":null,"payment:contactless":null,"payment:credit_cards":null,"payment:debit_cards":null,"payment:maestro":null,"payment:mastercard":null,"payment:visa":null,"payment:visa_debit":null,"payment:visa_electron":null,"phone":null,"service":null,"service:bicycle:Bicycle_Sales_and_Service":null,"service:bicycle:bicycle":null,"service:bicycle:bike":null,"service:bicycle:cleaning":null,"service:bicycle:clothing":null,"service:bicycle:ebike":null,"service:bicycle:parts":null,"service:bicycle:pump":null,"service:bicycle:rental":null,"service:bicycle:repair":null,"service:bicycle:retail":null,"service:bicycle:sales":null,"service:bicycle:second_hand":null,"service:bicycle:service":null,"service:bicycle:showroom":null,"service:bicycle:spare_parts":null,"service:bicycle:tools":null,"service:bicycle:vending":null,"service:bicycle:wheel":null,"shop":"bicycle","source":"Kaart Ground Survey 2017","stroller":null,"website":null,"wheelchair":null},"geometry":{"type":"Point","coordinates":[-74.1033175,4.7067632]}},
{"type":"Feature","properties":{"fid":79,"id":"node/5161935928","@id":"node/5161935928","addr:city":null,"addr:housenumber":null,"addr:postcode":null,"addr:street":"Avenida Carrera 91","amenity":null,"brand":null,"building":null,"check_date":null,"coffee":null,"contact:facebook":null,"contact:instagram":null,"description":null,"email":null,"fixme":null,"internet_access":null,"name":"X-treme Bikes","opening_hours":null,"operator":null,"payment:cash":null,"payment:contactless":null,"payment:credit_cards":null,"payment:debit_cards":null,"payment:maestro":null,"payment:mastercard":null,"payment:visa":null,"payment:visa_debit":null,"payment:visa_electron":null,"phone":null,"service":null,"service:bicycle:Bicycle_Sales_and_Service":null,"service:bicycle:bicycle":null,"service:bicycle:bike":null,"service:bicycle:cleaning":null,"service:bicycle:clothing":null,"service:bicycle:ebike":null,"service:bicycle:parts":null,"service:bicycle:pump":null,"service:bicycle:rental":null,"service:bicycle:repair":null,"service:bicycle:retail":null,"service:bicycle:sales":null,"service:bicycle:second_hand":null,"service:bicycle:service":null,"service:bicycle:showroom":null,"service:bicycle:spare_parts":null,"service:bicycle:tools":null,"service:bicycle:vending":null,"service:bicycle:wheel":null,"shop":"bicycle","source":"Kaart Ground Survey 2017","stroller":null,"website":null,"wheelchair":null},"geometry":{"type":"Point","coordinates":[-74.0974527,4.7132407]}},
{"type":"Feature","properties":{"fid":84,"id":"node/5164024586","@id":"node/5164024586","addr:city":null,"addr:housenumber":null,"addr:postcode":null,"addr:street":"Carrera 94","amenity":null,"brand":null,"building":null,"check_date":null,"coffee":null,"contact:facebook":null,"contact:instagram":null,"description":null,"email":null,"fixme":null,"internet_access":null,"name":"Vital Bike","opening_hours":null,"operator":null,"payment:cash":null,"payment:contactless":null,"payment:credit_cards":null,"payment:debit_cards":null,"payment:maestro":null,"payment:mastercard":null,"payment:visa":null,"payment:visa_debit":null,"payment:visa_electron":null,"phone":null,"service":null,"service:bicycle:Bicycle_Sales_and_Service":null,"service:bicycle:bicycle":null,"service:bicycle:bike":null,"service:bicycle:cleaning":null,"service:bicycle:clothing":null,"service:bicycle:ebike":null,"service:bicycle:parts":null,"service:bicycle:pump":null,"service:bicycle:rental":null,"service:bicycle:repair":null,"service:bicycle:retail":null,"service:bicycle:sales":null,"service:bicycle:second_hand":null,"service:bicycle:service":null,"service:bicycle:showroom":null,"service:bicycle:spare_parts":null,"service:bicycle:tools":null,"service:bicycle:vending":null,"service:bicycle:wheel":null,"shop":"bicycle","source":"Kaart Ground Survey 2017","stroller":null,"website":null,"wheelchair":null},"geometry":{"type":"Point","coordinates":[-74.108103200000016,4.705828]}},
{"type":"Feature","properties":{"fid":87,"id":"node/5166071295","@id":"node/5166071295","addr:city":null,"addr:housenumber":null,"addr:postcode":null,"addr:street":"Autopista Norte","amenity":null,"brand":null,"building":null,"check_date":null,"coffee":null,"contact:facebook":null,"contact:instagram":null,"description":null,"email":null,"fixme":null,"internet_access":null,"name":"Bikerland","opening_hours":null,"operator":null,"payment:cash":null,"payment:contactless":null,"payment:credit_cards":null,"payment:debit_cards":null,"payment:maestro":null,"payment:mastercard":null,"payment:visa":null,"payment:visa_debit":null,"payment:visa_electron":null,"phone":null,"service":null,"service:bicycle:Bicycle_Sales_and_Service":null,"service:bicycle:bicycle":null,"service:bicycle:bike":null,"service:bicycle:cleaning":null,"service:bicycle:clothing":null,"service:bicycle:ebike":null,"service:bicycle:parts":null,"service:bicycle:pump":null,"service:bicycle:rental":null,"service:bicycle:repair":null,"service:bicycle:retail":null,"service:bicycle:sales":null,"service:bicycle:second_hand":null,"service:bicycle:service":null,"service:bicycle:showroom":null,"service:bicycle:spare_parts":null,"service:bicycle:tools":null,"service:bicycle:vending":null,"service:bicycle:wheel":null,"shop":"bicycle","source":"Kaart Ground Survey 2017","stroller":null,"website":null,"wheelchair":null},"geometry":{"type":"Point","coordinates":[-74.0535069,4.7120154]}},
{"type":"Feature","properties":{"fid":91,"id":"node/5176734860","@id":"node/5176734860","addr:city":null,"addr:housenumber":null,"addr:postcode":null,"addr:street":"Avenida Carrera 24","amenity":null,"brand":null,"building":null,"check_date":null,"coffee":null,"contact:facebook":null,"contact:instagram":null,"description":null,"email":null,"fixme":null,"internet_access":null,"name":"Aride","opening_hours":null,"operator":null,"payment:cash":null,"payment:contactless":null,"payment:credit_cards":null,"payment:debit_cards":null,"payment:maestro":null,"payment:mastercard":null,"payment:visa":null,"payment:visa_debit":null,"payment:visa_electron":null,"phone":null,"service":null,"service:bicycle:Bicycle_Sales_and_Service":null,"service:bicycle:bicycle":null,"service:bicycle:bike":null,"service:bicycle:cleaning":null,"service:bicycle:clothing":null,"service:bicycle:ebike":null,"service:bicycle:parts":null,"service:bicycle:pump":null,"service:bicycle:rental":null,"service:bicycle:repair":null,"service:bicycle:retail":null,"service:bicycle:sales":null,"service:bicycle:second_hand":null,"service:bicycle:service":null,"service:bicycle:showroom":null,"service:bicycle:spare_parts":null,"service:bicycle:tools":null,"service:bicycle:vending":null,"service:bicycle:wheel":null,"shop":"bicycle","source":"Kaart Ground Survey 2017","stroller":null,"website":null,"wheelchair":null},"geometry":{"type":"Point","coordinates":[-74.0749901,4.6353565]}},
{"type":"Feature","properties":{"fid":102,"id":"node/5202716659","@id":"node/5202716659","addr:city":null,"addr:housenumber":null,"addr:postcode":null,"addr:street":"Avenida Carrera 7","amenity":null,"brand":null,"building":null,"check_date":null,"coffee":null,"contact:facebook":null,"contact:instagram":null,"description":null,"email":null,"fixme":null,"internet_access":null,"name":"Pedalea","opening_hours":null,"operator":null,"payment:cash":null,"payment:contactless":null,"payment:credit_cards":null,"payment:debit_cards":null,"payment:maestro":null,"payment:mastercard":null,"payment:visa":null,"payment:visa_debit":null,"payment:visa_electron":null,"phone":null,"service":null,"service:bicycle:Bicycle_Sales_and_Service":null,"service:bicycle:bicycle":null,"service:bicycle:bike":null,"service:bicycle:cleaning":null,"service:bicycle:clothing":null,"service:bicycle:ebike":null,"service:bicycle:parts":null,"service:bicycle:pump":null,"service:bicycle:rental":null,"service:bicycle:repair":null,"service:bicycle:retail":null,"service:bicycle:sales":null,"service:bicycle:second_hand":null,"service:bicycle:service":null,"service:bicycle:showroom":null,"service:bicycle:spare_parts":null,"service:bicycle:tools":null,"service:bicycle:vending":null,"service:bicycle:wheel":null,"shop":"bicycle","source":"Kaart Ground Survey 2017","stroller":null,"website":null,"wheelchair":null},"geometry":{"type":"Point","coordinates":[-74.056222,4.6529464]}},
{"type":"Feature","properties":{"fid":103,"id":"node/5220064836","@id":"node/5220064836","addr:city":null,"addr:housenumber":"66-98","addr:postcode":null,"addr:street":"Avenida Carrera 11","amenity":null,"brand":null,"building":null,"check_date":null,"coffee":null,"contact:facebook":null,"contact:instagram":null,"description":null,"email":null,"fixme":null,"internet_access":null,"name":"Street Store","opening_hours":null,"operator":null,"payment:cash":null,"payment:contactless":null,"payment:credit_cards":null,"payment:debit_cards":null,"payment:maestro":null,"payment:mastercard":null,"payment:visa":null,"payment:visa_debit":null,"payment:visa_electron":null,"phone":null,"service":null,"service:bicycle:Bicycle_Sales_and_Service":null,"service:bicycle:bicycle":null,"service:bicycle:bike":null,"service:bicycle:cleaning":null,"service:bicycle:clothing":null,"service:bicycle:ebike":null,"service:bicycle:parts":null,"service:bicycle:pump":null,"service:bicycle:rental":null,"service:bicycle:repair":null,"service:bicycle:retail":null,"service:bicycle:sales":null,"service:bicycle:second_hand":null,"service:bicycle:service":null,"service:bicycle:showroom":null,"service:bicycle:spare_parts":null,"service:bicycle:tools":null,"service:bicycle:vending":null,"service:bicycle:wheel":null,"shop":"bicycle","source":"Kaart Ground Survey 2017","stroller":null,"website":null,"wheelchair":null},"geometry":{"type":"Point","coordinates":[-74.0616252,4.6521156]}},
{"type":"Feature","properties":{"fid":104,"id":"node/5229082129","@id":"node/5229082129","addr:city":"Bogotá D.C.","addr:housenumber":null,"addr:postcode":null,"addr:street":"Avenida Suba","amenity":null,"brand":null,"building":null,"check_date":null,"coffee":null,"contact:facebook":null,"contact:instagram":null,"description":null,"email":null,"fixme":null,"internet_access":null,"name":"Bicicletas Electricas","opening_hours":null,"operator":null,"payment:cash":null,"payment:contactless":null,"payment:credit_cards":null,"payment:debit_cards":null,"payment:maestro":null,"payment:mastercard":null,"payment:visa":null,"payment:visa_debit":null,"payment:visa_electron":null,"phone":null,"service":null,"service:bicycle:Bicycle_Sales_and_Service":null,"service:bicycle:bicycle":null,"service:bicycle:bike":null,"service:bicycle:cleaning":null,"service:bicycle:clothing":null,"service:bicycle:ebike":null,"service:bicycle:parts":null,"service:bicycle:pump":null,"service:bicycle:rental":null,"service:bicycle:repair":null,"service:bicycle:retail":null,"service:bicycle:sales":null,"service:bicycle:second_hand":null,"service:bicycle:service":null,"service:bicycle:showroom":null,"service:bicycle:spare_parts":null,"service:bicycle:tools":null,"service:bicycle:vending":null,"service:bicycle:wheel":null,"shop":"bicycle","source":"Kaart Ground Survey 2017","stroller":null,"website":null,"wheelchair":null},"geometry":{"type":"Point","coordinates":[-74.0643938,4.6863139]}},
{"type":"Feature","properties":{"fid":105,"id":"node/5764861991","@id":"node/5764861991","addr:city":null,"addr:housenumber":null,"addr:postcode":null,"addr:street":null,"amenity":null,"brand":null,"building":null,"check_date":null,"coffee":null,"contact:facebook":null,"contact:instagram":null,"description":null,"email":null,"fixme":null,"internet_access":null,"name":"MSH - Miguel Samacá Bicicletas","opening_hours":null,"operator":null,"payment:cash":null,"payment:contactless":null,"payment:credit_cards":null,"payment:debit_cards":null,"payment:maestro":null,"payment:mastercard":null,"payment:visa":null,"payment:visa_debit":null,"payment:visa_electron":null,"phone":"571 749 5479","service":null,"service:bicycle:Bicycle_Sales_and_Service":null,"service:bicycle:bicycle":null,"service:bicycle:bike":null,"service:bicycle:cleaning":null,"service:bicycle:clothing":null,"service:bicycle:ebike":null,"service:bicycle:parts":null,"service:bicycle:pump":null,"service:bicycle:rental":null,"service:bicycle:repair":"yes","service:bicycle:retail":"yes","service:bicycle:sales":null,"service:bicycle:second_hand":null,"service:bicycle:service":null,"service:bicycle:showroom":null,"service:bicycle:spare_parts":null,"service:bicycle:tools":null,"service:bicycle:vending":null,"service:bicycle:wheel":null,"shop":"bicycle","source":"survey","stroller":null,"website":null,"wheelchair":null},"geometry":{"type":"Point","coordinates":[-74.0495273,4.6998403]}},
{"type":"Feature","properties":{"fid":107,"id":"node/6040293989","@id":"node/6040293989","addr:city":null,"addr:housenumber":null,"addr:postcode":null,"addr:street":"Avenida Calle 80","amenity":null,"brand":null,"building":null,"check_date":null,"coffee":null,"contact:facebook":null,"contact:instagram":null,"description":null,"email":null,"fixme":null,"internet_access":null,"name":"Rodan Bikes","opening_hours":null,"operator":null,"payment:cash":null,"payment:contactless":null,"payment:credit_cards":null,"payment:debit_cards":null,"payment:maestro":null,"payment:mastercard":null,"payment:visa":null,"payment:visa_debit":null,"payment:visa_electron":null,"phone":null,"service":null,"service:bicycle:Bicycle_Sales_and_Service":null,"service:bicycle:bicycle":null,"service:bicycle:bike":null,"service:bicycle:cleaning":null,"service:bicycle:clothing":null,"service:bicycle:ebike":null,"service:bicycle:parts":null,"service:bicycle:pump":null,"service:bicycle:rental":null,"service:bicycle:repair":null,"service:bicycle:retail":null,"service:bicycle:sales":null,"service:bicycle:second_hand":null,"service:bicycle:service":null,"service:bicycle:showroom":null,"service:bicycle:spare_parts":null,"service:bicycle:tools":null,"service:bicycle:vending":null,"service:bicycle:wheel":null,"shop":"bicycle","source":null,"stroller":null,"website":null,"wheelchair":null},"geometry":{"type":"Point","coordinates":[-74.0924453,4.697503]}},
{"type":"Feature","properties":{"fid":108,"id":"node/6199562051","@id":"node/6199562051","addr:city":null,"addr:housenumber":null,"addr:postcode":null,"addr:street":null,"amenity":null,"brand":null,"building":null,"check_date":null,"coffee":null,"contact:facebook":null,"contact:instagram":null,"description":null,"email":null,"fixme":null,"internet_access":null,"name":"Somos Bici.com","opening_hours":null,"operator":null,"payment:cash":null,"payment:contactless":null,"payment:credit_cards":null,"payment:debit_cards":null,"payment:maestro":null,"payment:mastercard":null,"payment:visa":null,"payment:visa_debit":null,"payment:visa_electron":null,"phone":null,"service":null,"service:bicycle:Bicycle_Sales_and_Service":null,"service:bicycle:bicycle":null,"service:bicycle:bike":null,"service:bicycle:cleaning":null,"service:bicycle:clothing":null,"service:bicycle:ebike":null,"service:bicycle:parts":null,"service:bicycle:pump":null,"service:bicycle:rental":null,"service:bicycle:repair":null,"service:bicycle:retail":null,"service:bicycle:sales":null,"service:bicycle:second_hand":null,"service:bicycle:service":null,"service:bicycle:showroom":null,"service:bicycle:spare_parts":null,"service:bicycle:tools":null,"service:bicycle:vending":null,"service:bicycle:wheel":null,"shop":"bicycle","source":null,"stroller":null,"website":null,"wheelchair":null},"geometry":{"type":"Point","coordinates":[-74.0594011,4.6503275]}},
{"type":"Feature","properties":{"fid":110,"id":"node/6374956511","@id":"node/6374956511","addr:city":null,"addr:housenumber":null,"addr:postcode":null,"addr:street":null,"amenity":null,"brand":null,"building":null,"check_date":null,"coffee":null,"contact:facebook":null,"contact:instagram":null,"description":null,"email":null,"fixme":null,"internet_access":null,"name":"Bike house","opening_hours":null,"operator":null,"payment:cash":null,"payment:contactless":null,"payment:credit_cards":null,"payment:debit_cards":null,"payment:maestro":null,"payment:mastercard":null,"payment:visa":null,"payment:visa_debit":null,"payment:visa_electron":null,"phone":null,"service":null,"service:bicycle:Bicycle_Sales_and_Service":null,"service:bicycle:bicycle":null,"service:bicycle:bike":null,"service:bicycle:cleaning":null,"service:bicycle:clothing":null,"service:bicycle:ebike":null,"service:bicycle:parts":null,"service:bicycle:pump":null,"service:bicycle:rental":null,"service:bicycle:repair":null,"service:bicycle:retail":null,"service:bicycle:sales":null,"service:bicycle:second_hand":null,"service:bicycle:service":null,"service:bicycle:showroom":null,"service:bicycle:spare_parts":null,"service:bicycle:tools":null,"service:bicycle:vending":null,"service:bicycle:wheel":null,"shop":"bicycle","source":null,"stroller":null,"website":null,"wheelchair":null},"geometry":{"type":"Point","coordinates":[-74.0813688,4.6999727]}},
{"type":"Feature","properties":{"fid":111,"id":"node/6374956513","@id":"node/6374956513","addr:city":null,"addr:housenumber":"99-60","addr:postcode":null,"addr:street":"Avenida Carrera 72","amenity":null,"brand":null,"building":null,"check_date":null,"coffee":null,"contact:facebook":null,"contact:instagram":null,"description":null,"email":null,"fixme":null,"internet_access":null,"name":"Specialized","opening_hours":null,"operator":null,"payment:cash":null,"payment:contactless":null,"payment:credit_cards":null,"payment:debit_cards":null,"payment:maestro":null,"payment:mastercard":null,"payment:visa":null,"payment:visa_debit":null,"payment:visa_electron":null,"phone":null,"service":null,"service:bicycle:Bicycle_Sales_and_Service":null,"service:bicycle:bicycle":null,"service:bicycle:bike":null,"service:bicycle:cleaning":null,"service:bicycle:clothing":null,"service:bicycle:ebike":null,"service:bicycle:parts":null,"service:bicycle:pump":null,"service:bicycle:rental":null,"service:bicycle:repair":null,"service:bicycle:retail":null,"service:bicycle:sales":null,"service:bicycle:second_hand":null,"service:bicycle:service":null,"service:bicycle:showroom":null,"service:bicycle:spare_parts":null,"service:bicycle:tools":null,"service:bicycle:vending":null,"service:bicycle:wheel":null,"shop":"bicycle","source":null,"stroller":null,"website":null,"wheelchair":null},"geometry":{"type":"Point","coordinates":[-74.0813522,4.7002265]}},
{"type":"Feature","properties":{"fid":116,"id":"node/6765412285","@id":"node/6765412285","addr:city":null,"addr:housenumber":null,"addr:postcode":null,"addr:street":null,"amenity":null,"brand":null,"building":null,"check_date":null,"coffee":null,"contact:facebook":null,"contact:instagram":null,"description":null,"email":null,"fixme":null,"internet_access":null,"name":"Punto 84","opening_hours":null,"operator":null,"payment:cash":null,"payment:contactless":null,"payment:credit_cards":null,"payment:debit_cards":null,"payment:maestro":null,"payment:mastercard":null,"payment:visa":null,"payment:visa_debit":null,"payment:visa_electron":null,"phone":null,"service":null,"service:bicycle:Bicycle_Sales_and_Service":null,"service:bicycle:bicycle":null,"service:bicycle:bike":null,"service:bicycle:cleaning":null,"service:bicycle:clothing":null,"service:bicycle:ebike":null,"service:bicycle:parts":null,"service:bicycle:pump":null,"service:bicycle:rental":null,"service:bicycle:repair":null,"service:bicycle:retail":null,"service:bicycle:sales":null,"service:bicycle:second_hand":null,"service:bicycle:service":null,"service:bicycle:showroom":null,"service:bicycle:spare_parts":null,"service:bicycle:tools":null,"service:bicycle:vending":null,"service:bicycle:wheel":null,"shop":"bicycle","source":null,"stroller":null,"website":null,"wheelchair":null},"geometry":{"type":"Point","coordinates":[-74.0476876,4.6637864]}},
{"type":"Feature","properties":{"fid":118,"id":"node/6814591083","@id":"node/6814591083","addr:city":null,"addr:housenumber":null,"addr:postcode":null,"addr:street":null,"amenity":null,"brand":null,"building":null,"check_date":null,"coffee":null,"contact:facebook":null,"contact:instagram":null,"description":null,"email":null,"fixme":null,"internet_access":null,"name":"gogreen","opening_hours":null,"operator":null,"payment:cash":null,"payment:contactless":null,"payment:credit_cards":null,"payment:debit_cards":null,"payment:maestro":null,"payment:mastercard":null,"payment:visa":null,"payment:visa_debit":null,"payment:visa_electron":null,"phone":null,"service":null,"service:bicycle:Bicycle_Sales_and_Service":null,"service:bicycle:bicycle":null,"service:bicycle:bike":null,"service:bicycle:cleaning":null,"service:bicycle:clothing":null,"service:bicycle:ebike":null,"service:bicycle:parts":null,"service:bicycle:pump":null,"service:bicycle:rental":null,"service:bicycle:repair":null,"service:bicycle:retail":null,"service:bicycle:sales":null,"service:bicycle:second_hand":null,"service:bicycle:service":null,"service:bicycle:showroom":null,"service:bicycle:spare_parts":null,"service:bicycle:tools":null,"service:bicycle:vending":null,"service:bicycle:wheel":null,"shop":"bicycle","source":null,"stroller":null,"website":null,"wheelchair":null},"geometry":{"type":"Point","coordinates":[-74.055197,4.6705912]}},
{"type":"Feature","properties":{"fid":120,"id":"node/6879003334","@id":"node/6879003334","addr:city":null,"addr:housenumber":null,"addr:postcode":null,"addr:street":null,"amenity":null,"brand":null,"building":null,"check_date":null,"coffee":null,"contact:facebook":"https://www.facebook.com/cafelaBICIta/","contact:instagram":null,"description":null,"email":null,"fixme":null,"internet_access":null,"name":"Cafe La BICIta","opening_hours":"Mo-Su 09:00-18:00","operator":null,"payment:cash":null,"payment:contactless":null,"payment:credit_cards":null,"payment:debit_cards":null,"payment:maestro":null,"payment:mastercard":null,"payment:visa":null,"payment:visa_debit":null,"payment:visa_electron":null,"phone":null,"service":null,"service:bicycle:Bicycle_Sales_and_Service":null,"service:bicycle:bicycle":null,"service:bicycle:bike":null,"service:bicycle:cleaning":null,"service:bicycle:clothing":null,"service:bicycle:ebike":null,"service:bicycle:parts":null,"service:bicycle:pump":null,"service:bicycle:rental":null,"service:bicycle:repair":null,"service:bicycle:retail":null,"service:bicycle:sales":null,"service:bicycle:second_hand":null,"service:bicycle:service":null,"service:bicycle:showroom":null,"service:bicycle:spare_parts":null,"service:bicycle:tools":null,"service:bicycle:vending":null,"service:bicycle:wheel":null,"shop":"bicycle","source":null,"stroller":null,"website":null,"wheelchair":null},"geometry":{"type":"Point","coordinates":[-74.0799915,4.6333091]}},
{"type":"Feature","properties":{"fid":123,"id":"node/8827904017","@id":"node/8827904017","addr:city":null,"addr:housenumber":null,"addr:postcode":null,"addr:street":null,"amenity":null,"brand":null,"building":null,"check_date":null,"coffee":null,"contact:facebook":null,"contact:instagram":null,"description":null,"email":null,"fixme":null,"internet_access":null,"name":null,"opening_hours":null,"operator":null,"payment:cash":null,"payment:contactless":null,"payment:credit_cards":null,"payment:debit_cards":null,"payment:maestro":null,"payment:mastercard":null,"payment:visa":null,"payment:visa_debit":null,"payment:visa_electron":null,"phone":null,"service":null,"service:bicycle:Bicycle_Sales_and_Service":null,"service:bicycle:bicycle":null,"service:bicycle:bike":null,"service:bicycle:cleaning":null,"service:bicycle:clothing":null,"service:bicycle:ebike":null,"service:bicycle:parts":null,"service:bicycle:pump":null,"service:bicycle:rental":null,"service:bicycle:repair":null,"service:bicycle:retail":null,"service:bicycle:sales":null,"service:bicycle:second_hand":null,"service:bicycle:service":null,"service:bicycle:showroom":null,"service:bicycle:spare_parts":null,"service:bicycle:tools":null,"service:bicycle:vending":null,"service:bicycle:wheel":null,"shop":"bicycle","source":null,"stroller":null,"website":null,"wheelchair":null},"geometry":{"type":"Point","coordinates":[-74.0786701,4.7002279]}},
{"type":"Feature","properties":{"fid":124,"id":"node/9397232830","@id":"node/9397232830","addr:city":null,"addr:housenumber":null,"addr:postcode":null,"addr:street":null,"amenity":null,"brand":null,"building":null,"check_date":null,"coffee":null,"contact:facebook":null,"contact:instagram":null,"description":null,"email":null,"fixme":null,"internet_access":null,"name":null,"opening_hours":null,"operator":null,"payment:cash":null,"payment:contactless":null,"payment:credit_cards":null,"payment:debit_cards":null,"payment:maestro":null,"payment:mastercard":null,"payment:visa":null,"payment:visa_debit":null,"payment:visa_electron":null,"phone":null,"service":null,"service:bicycle:Bicycle_Sales_and_Service":null,"service:bicycle:bicycle":null,"service:bicycle:bike":null,"service:bicycle:cleaning":null,"service:bicycle:clothing":null,"service:bicycle:ebike":null,"service:bicycle:parts":null,"service:bicycle:pump":null,"service:bicycle:rental":null,"service:bicycle:repair":null,"service:bicycle:retail":null,"service:bicycle:sales":null,"service:bicycle:second_hand":null,"service:bicycle:service":null,"service:bicycle:showroom":null,"service:bicycle:spare_parts":null,"service:bicycle:tools":null,"service:bicycle:vending":null,"service:bicycle:wheel":null,"shop":"bicycle","source":null,"stroller":null,"website":null,"wheelchair":null},"geometry":{"type":"Point","coordinates":[-74.0521249,4.7061561]}},
{"type":"Feature","properties":{"fid":133,"id":"node/11809938956","@id":"node/11809938956","addr:city":null,"addr:housenumber":null,"addr:postcode":null,"addr:street":null,"amenity":null,"brand":null,"building":null,"check_date":null,"coffee":null,"contact:facebook":null,"contact:instagram":null,"description":null,"email":null,"fixme":null,"internet_access":null,"name":"Bici Tienda 127","opening_hours":null,"operator":null,"payment:cash":null,"payment:contactless":null,"payment:credit_cards":null,"payment:debit_cards":null,"payment:maestro":null,"payment:mastercard":null,"payment:visa":null,"payment:visa_debit":null,"payment:visa_electron":null,"phone":null,"service":null,"service:bicycle:Bicycle_Sales_and_Service":null,"service:bicycle:bicycle":null,"service:bicycle:bike":null,"service:bicycle:cleaning":null,"service:bicycle:clothing":null,"service:bicycle:ebike":null,"service:bicycle:parts":null,"service:bicycle:pump":null,"service:bicycle:rental":null,"service:bicycle:repair":null,"service:bicycle:retail":null,"service:bicycle:sales":null,"service:bicycle:second_hand":null,"service:bicycle:service":null,"service:bicycle:showroom":null,"service:bicycle:spare_parts":null,"service:bicycle:tools":null,"service:bicycle:vending":null,"service:bicycle:wheel":null,"shop":"bicycle","source":null,"stroller":null,"website":null,"wheelchair":null},"geometry":{"type":"Point","coordinates":[-74.0747591,4.7103575]}},
{"type":"Feature","properties":{"fid":134,"id":"node/11815282705","@id":"node/11815282705","addr:city":null,"addr:housenumber":null,"addr:postcode":null,"addr:street":null,"amenity":"bicycle_repair_station","brand":null,"building":null,"check_date":null,"coffee":null,"contact:facebook":null,"contact:instagram":null,"description":null,"email":null,"fixme":null,"internet_access":null,"name":null,"opening_hours":null,"operator":null,"payment:cash":null,"payment:contactless":null,"payment:credit_cards":null,"payment:debit_cards":null,"payment:maestro":null,"payment:mastercard":null,"payment:visa":null,"payment:visa_debit":null,"payment:visa_electron":null,"phone":null,"service":null,"service:bicycle:Bicycle_Sales_and_Service":null,"service:bicycle:bicycle":null,"service:bicycle:bike":null,"service:bicycle:cleaning":null,"service:bicycle:clothing":null,"service:bicycle:ebike":null,"service:bicycle:parts":null,"service:bicycle:pump":null,"service:bicycle:rental":null,"service:bicycle:repair":null,"service:bicycle:retail":null,"service:bicycle:sales":null,"service:bicycle:second_hand":null,"service:bicycle:service":null,"service:bicycle:showroom":null,"service:bicycle:spare_parts":null,"service:bicycle:tools":null,"service:bicycle:vending":null,"service:bicycle:wheel":null,"shop":null,"source":null,"stroller":null,"website":null,"wheelchair":null},"geometry":{"type":"Point","coordinates":[-74.1002357,4.6349958]}},
{"type":"Feature","properties":{"fid":135,"id":"node/12285944521","@id":"node/12285944521","addr:city":null,"addr:housenumber":"56-01","addr:postcode":null,"addr:street":"AC 80","amenity":null,"brand":null,"building":null,"check_date":null,"coffee":null,"contact:facebook":null,"contact:instagram":null,"description":null,"email":null,"fixme":null,"internet_access":null,"name":"CIMA Centro de Instrucción Mecánica Avanzada","opening_hours":"Mo-Fr 09:00-17:00; Sa 09:00-12:30","operator":null,"payment:cash":null,"payment:contactless":null,"payment:credit_cards":null,"payment:debit_cards":null,"payment:maestro":null,"payment:mastercard":null,"payment:visa":null,"payment:visa_debit":null,"payment:visa_electron":null,"phone":null,"service":null,"service:bicycle:Bicycle_Sales_and_Service":null,"service:bicycle:bicycle":null,"service:bicycle:bike":null,"service:bicycle:cleaning":null,"service:bicycle:clothing":null,"service:bicycle:ebike":null,"service:bicycle:parts":null,"service:bicycle:pump":null,"service:bicycle:rental":null,"service:bicycle:repair":null,"service:bicycle:retail":null,"service:bicycle:sales":null,"service:bicycle:second_hand":null,"service:bicycle:service":null,"service:bicycle:showroom":null,"service:bicycle:spare_parts":null,"service:bicycle:tools":null,"service:bicycle:vending":null,"service:bicycle:wheel":null,"shop":"bicycle","source":null,"stroller":null,"website":"https://colombiaenbicicleta.com/","wheelchair":null},"geometry":{"type":"Point","coordinates":[-74.0734698,4.67755]}},
{"type":"Feature","properties":{"fid":136,"id":"node/12563180243","@id":"node/12563180243","addr:city":null,"addr:housenumber":null,"addr:postcode":null,"addr:street":null,"amenity":null,"brand":null,"building":null,"check_date":"2025-02-05","coffee":"yes","contact:facebook":null,"contact:instagram":null,"description":null,"email":null,"fixme":null,"internet_access":null,"name":"Cíclico","opening_hours":"Mo-Fr 10:00-18:00; Sa 10:00-15:00","operator":null,"payment:cash":null,"payment:contactless":null,"payment:credit_cards":null,"payment:debit_cards":null,"payment:maestro":null,"payment:mastercard":null,"payment:visa":null,"payment:visa_debit":null,"payment:visa_electron":null,"phone":null,"service":null,"service:bicycle:Bicycle_Sales_and_Service":null,"service:bicycle:bicycle":null,"service:bicycle:bike":null,"service:bicycle:cleaning":null,"service:bicycle:clothing":null,"service:bicycle:ebike":null,"service:bicycle:parts":null,"service:bicycle:pump":null,"service:bicycle:rental":null,"service:bicycle:repair":null,"service:bicycle:retail":null,"service:bicycle:sales":null,"service:bicycle:second_hand":null,"service:bicycle:service":null,"service:bicycle:showroom":null,"service:bicycle:spare_parts":null,"service:bicycle:tools":null,"service:bicycle:vending":null,"service:bicycle:wheel":null,"shop":"bicycle","source":null,"stroller":null,"website":null,"wheelchair":"limited"},"geometry":{"type":"Point","coordinates":[-74.0583983,4.6501313]}},
{"type":"Feature","properties":{"fid":139,"id":"node/12713012564","@id":"node/12713012564","addr:city":null,"addr:housenumber":null,"addr:postcode":null,"addr:street":null,"amenity":"bicycle_repair_station","brand":null,"building":null,"check_date":null,"coffee":null,"contact:facebook":null,"contact:instagram":null,"description":null,"email":null,"fixme":null,"internet_access":null,"name":null,"opening_hours":null,"operator":null,"payment:cash":null,"payment:contactless":null,"payment:credit_cards":null,"payment:debit_cards":null,"payment:maestro":null,"payment:mastercard":null,"payment:visa":null,"payment:visa_debit":null,"payment:visa_electron":null,"phone":null,"service":null,"service:bicycle:Bicycle_Sales_and_Service":null,"service:bicycle:bicycle":null,"service:bicycle:bike":null,"service:bicycle:cleaning":null,"service:bicycle:clothing":null,"service:bicycle:ebike":null,"service:bicycle:parts":null,"service:bicycle:pump":null,"service:bicycle:rental":null,"service:bicycle:repair":"yes","service:bicycle:retail":null,"service:bicycle:sales":null,"service:bicycle:second_hand":null,"service:bicycle:service":null,"service:bicycle:showroom":null,"service:bicycle:spare_parts":null,"service:bicycle:tools":null,"service:bicycle:vending":null,"service:bicycle:wheel":null,"shop":null,"source":null,"stroller":null,"website":null,"wheelchair":null},"geometry":{"type":"Point","coordinates":[-74.0784141,4.6427416]}},
{"type":"Feature","properties":{"fid":140,"id":"node/12729645020","@id":"node/12729645020","addr:city":null,"addr:housenumber":null,"addr:postcode":null,"addr:street":null,"amenity":null,"brand":null,"building":null,"check_date":null,"coffee":null,"contact:facebook":null,"contact:instagram":null,"description":null,"email":null,"fixme":null,"internet_access":null,"name":"Bicicleteria","opening_hours":"Mo-Su 10:00-20:00","operator":null,"payment:cash":null,"payment:contactless":null,"payment:credit_cards":null,"payment:debit_cards":null,"payment:maestro":null,"payment:mastercard":null,"payment:visa":null,"payment:visa_debit":null,"payment:visa_electron":null,"phone":null,"service":null,"service:bicycle:Bicycle_Sales_and_Service":null,"service:bicycle:bicycle":null,"service:bicycle:bike":null,"service:bicycle:cleaning":null,"service:bicycle:clothing":null,"service:bicycle:ebike":null,"service:bicycle:parts":null,"service:bicycle:pump":null,"service:bicycle:rental":null,"service:bicycle:repair":null,"service:bicycle:retail":null,"service:bicycle:sales":"yes","service:bicycle:second_hand":null,"service:bicycle:service":null,"service:bicycle:showroom":null,"service:bicycle:spare_parts":null,"service:bicycle:tools":null,"service:bicycle:vending":null,"service:bicycle:wheel":null,"shop":"bicycle","source":null,"stroller":null,"website":null,"wheelchair":null},"geometry":{"type":"Point","coordinates":[-74.0595071,4.7425058]}}
]
}
