{"type": "FeatureCollection", "features": [{"type": "Feature", "geometry": {"type": "Point", "coordinates": [-74.0528436, 4.6658027]}, "properties": {"station_id": "1", "name": "001 - CL 82 con KR 11", "address": "Calle 82 entre Carrera 11 y Carrera 12", "capacity": 19, "charging": false}}, {"type": "Feature", "geometry": {"type": "Point", "coordinates": [-74.061453, 4.6507888]}, "properties": {"station_id": "2", "name": "002 - CL 65 con KR 10", "address": "Calle 65 entre Carrera 10 y Carrera 11", "capacity": 7, "charging": false}}, {"type": "Feature", "geometry": {"type": "Point", "coordinates": [-74.050483, 4.669821]}, "properties": {"station_id": "4", "name": "004 - Parque de Japón", "address": "Calle 86a entre Carrera 11 y Carrera 11a", "capacity": 11, "charging": false}}, {"type": "Feature", "geometry": {"type": "Point", "coordinates": [-74.055579, 4.670073]}, "properties": {"station_id": "5", "name": "005 - CL 85 con KR 15", "address": "Av. Calle 85 entre Carrera 15 y Carrera 16", "capacity": 39, "charging": false}}, {"type": "Feature", "geometry": {"type": "Point", "coordinates": [-74.0400604, 4.698706180415817]}, "properties": {"station_id": "6", "name": "006 - CL 119 con KR 13", "address": "Calle 119 entre Carrera 13 y Carrera 14", "capacity": 11, "charging": false}}, {"type": "Feature", "geometry": {"type": "Point", "coordinates": [-74.0578287, 4.67048]}, "properties": {"station_id": "7", "name": "007 - KR 19 con CL 85", "address": "Av. Carrera 19 entre Calle 84 y Calle 85", "capacity": 7, "charging": false}}, {"type": "Feature", "geometry": {"type": "Point", "coordinates": [-74.054406, 4.672635]}, "properties": {"station_id": "8", "name": "008 - Parque El Virrey", "address": "Calle 87 entre carrera 15 y carrera 16 ", "capacity": 11, "charging": false}}, {"type": "Feature", "geometry": {"type": "Point", "coordinates": [-74.05081, 4.673189]}, "properties": {"station_id": "9", "name": "009 - CL 90 con KR 13", "address": "Calle 90 entre Carrera 13 y Carrera 12", "capacity": 19, "charging": true}}, {"type": "Feature", "geometry": {"type": "Point", "coordinates": [-74.06011, 4.67444]}, "properties": {"station_id": "10", "name": "010 - CL 86A con KR 20", "address": "Calle 86a entre Carrera 20 y Carrera 21", "capacity": 11, "charging": false}}, {"type": "Feature", "geometry": {"type": "Point", "coordinates": [-74.054133, 4.670068]}, "properties": {"station_id": "11", "name": "011 - KR 14 con CL 85", "address": "Carrera 14 entre Calle 85 y Calle 86A", "capacity": 19, "charging": true}}, {"type": "Feature", "geometry": {"type": "Point", "coordinates": [-74.0578152, 4.6740827]}, "properties": {"station_id": "12", "name": "012 - KR 19C con CL 86A", "address": "Carrera 19c entre Calle 86a y Calle 87", "capacity": 11, "charging": false}}, {"type": "Feature", "geometry": {"type": "Point", "coordinates": [-74.058346, 4.67686]}, "properties": {"station_id": "13", "name": "013 - KR 20 con CL 90", "address": "Carrera 20 entre Calle 90 y Calle 88", "capacity": 15, "charging": true}}, {"type": "Feature", "geometry": {"type": "Point", "coordinates": [-74.06602, 4.626199]}, "properties": {"station_id": "14", "name": "014 - DG 40A con KR 7", "address": "Diagonal 40A entre Carrera 7 y Carrera 8", "capacity": 11, "charging": false}}, {"type": "Feature", "geometry": {"type": "Point", "coordinates": [-74.0429, 4.681245]}, "properties": {"station_id": "15", "name": "015 - CL 99 con KR 10", "address": "Calle 99 entre Carrera 10 y Carrera 9B", "capacity": 11, "charging": false}}, {"type": "Feature", "geometry": {"type": "Point", "coordinates": [-74.053266, 4.6756065]}, "properties": {"station_id": "16", "name": "016 - CL 91 con KR 15", "address": "Calle 91 entre Carrera 15 y Carrera 16", "capacity": 11, "charging": false}}, {"type": "Feature", "geometry": {"type": "Point", "coordinates": [-74.0477812, 4.67433377]}, "properties": {"station_id": "17", "name": "017 - CL 93 con KR 11", "address": "Calle 93 entre Carrera 11 y Carrera 12", "capacity": 11, "charging": false}}, {"type": "Feature", "geometry": {"type": "Point", "coordinates": [-74.0291095, 4.7161795]}, "properties": {"station_id": "19", "name": "019 - CL 140 con KR 7", "address": "Calle 140 entre Carrera 7 y Carrera 7Bis", "capacity": 15, "charging": false}}, {"type": "Feature", "geometry": {"type": "Point", "coordinates": [-74.032972, 4.707762]}, "properties": {"station_id": "20", "name": "020 - Parque El Recodo del Country", "address": "Av. Carrera 9 entre Calle 127C y Calle 129", "capacity": 11, "charging": true}}, {"type": "Feature", "geometry": {"type": "Point", "coordinates": [-74.032997, 4.712548]}, "properties": {"station_id": "22", "name": "022 - CL 134 con AK 9", "address": "Calle 134 entre Carrera 9 y Carrera 9A", "capacity": 7, "charging": false}}, {"type": "Feature", "geometry": {"type": "Point", "coordinates": [-74.039473, 4.703594]}, "properties": {"station_id": "23", "name": "023 - KR 13 con CL 127", "address": "Carrera 13 entre Calle 125 y Calle 127", "capacity": 11, "charging": false}}, {"type": "Feature", "geometry": {"type": "Point", "coordinates": [-74.056866, 4.679405]}, "properties": {"station_id": "24", "name": "024 - CL 93 con DG 92", "address": "Calle 93 entre Carrera 19b y Diagonal 92", "capacity": 19, "charging": false}}, {"type": "Feature", "geometry": {"type": "Point", "coordinates": [-74.054734, 4.673764]}, "properties": {"station_id": "25", "name": "025 - Parque El Virrey 2", "address": "Calle 88 entre Carrera 16 y Carrera 17", "capacity": 27, "charging": true}}, {"type": "Feature", "geometry": {"type": "Point", "coordinates": [-74.0546146, 4.6808476]}, "properties": {"station_id": "26", "name": "026 - DG 92 con KR 93B", "address": "Diagonal 92 entre Calle 94 y Calle 93 B", "capacity": 19, "charging": false}}, {"type": "Feature", "geometry": {"type": "Point", "coordinates": [-74.050414, 4.679583]}, "properties": {"station_id": "27", "name": "027 - KR 15 con CL 94", "address": "Carrera 15 entre Calle 94 y Calle 95", "capacity": 15, "charging": true}}, {"type": "Feature", "geometry": {"type": "Point", "coordinates": [-74.053265, 4.661638]}, "properties": {"station_id": "29", "name": "029 - KR 9 con CL 78", "address": "Carrera 9 entre Calle 78 y Calle 79", "capacity": 23, "charging": false}}, {"type": "Feature", "geometry": {"type": "Point", "coordinates": [-74.0473861, 4.6709283]}, "properties": {"station_id": "30", "name": "030 - KR 9a con CL 90", "address": "Carrera 9a entre Calle 88 y Calle 90", "capacity": 23, "charging": false}}, {"type": "Feature", "geometry": {"type": "Point", "coordinates": [-74.0551665, 4.6625158]}, "properties": {"station_id": "31", "name": "031 - KR 11 con CL 78", "address": "Carrera 11 entre Calle 78 y Calle  77", "capacity": 11, "charging": false}}, {"type": "Feature", "geometry": {"type": "Point", "coordinates": [-74.055533, 4.666354]}, "properties": {"station_id": "32", "name": "032 - CL 81 con KR 14", "address": "Calle 81 entre Carrera 13 y Carrera 14", "capacity": 15, "charging": true}}, {"type": "Feature", "geometry": {"type": "Point", "coordinates": [-74.053278, 4.663925]}, "properties": {"station_id": "33", "name": "033 - Parque Vecinal El Nogal", "address": "Calle 80 entre carrera 11 y Carrera 10", "capacity": 19, "charging": false}}, {"type": "Feature", "geometry": {"type": "Point", "coordinates": [-74.056324, 4.6638625]}, "properties": {"station_id": "34", "name": "034 - CL 78 con KR 12A", "address": "Calle 78 entre Carrera 12a y Carrera 13", "capacity": 11, "charging": false}}, {"type": "Feature", "geometry": {"type": "Point", "coordinates": [-74.0496194, 4.6681757]}, "properties": {"station_id": "35", "name": "035 - CL 86 con KR 10", "address": "Calle 86 entre Carrera 10 y Carrera 9", "capacity": 19, "charging": false}}, {"type": "Feature", "geometry": {"type": "Point", "coordinates": [-74.054562, 4.65807]}, "properties": {"station_id": "37", "name": "037 - CL 74C con KR 9", "address": "Calle 74C entre Carrera 9 y Carrera 8", "capacity": 11, "charging": true}}, {"type": "Feature", "geometry": {"type": "Point", "coordinates": [-74.0575464, 4.656435]}, "properties": {"station_id": "38", "name": "038 - KR 10 con CL 72", "address": "Carrera 10 entre Calle 72 y Calle 73", "capacity": 7, "charging": false}}, {"type": "Feature", "geometry": {"type": "Point", "coordinates": [-74.0578352, 4.6511745]}, "properties": {"station_id": "39", "name": "039 - KR 7 con CL 69", "address": "Carrera 7 entre Calle 68 y Calle 67", "capacity": 15, "charging": false}}, {"type": "Feature", "geometry": {"type": "Point", "coordinates": [-74.055228, 4.649413]}, "properties": {"station_id": "40", "name": "040 - KR 4 con CL 67", "address": "Carrera 4 entre Calle 67 y Calle 68", "capacity": 11, "charging": true}}, {"type": "Feature", "geometry": {"type": "Point", "coordinates": [-74.0336463, 4.6915496]}, "properties": {"station_id": "41", "name": "041 - KR 7 con CL 112", "address": "Av. Carrera 7 entre Calle 112 y Calle 113", "capacity": 55, "charging": false}}, {"type": "Feature", "geometry": {"type": "Point", "coordinates": [-74.0416709, 4.6779694]}, "properties": {"station_id": "42", "name": "042 - Parque Chicó Reservado", "address": "Carrera 8a entre Calle 96 y Calle 96 Bis", "capacity": 23, "charging": false}}, {"type": "Feature", "geometry": {"type": "Point", "coordinates": [-74.0518607, 4.6790558]}, "properties": {"station_id": "43", "name": "043 - CL 93B con KR 16", "address": "Calle 93B entre Carrera 17 y Carrera 16", "capacity": 11, "charging": false}}, {"type": "Feature", "geometry": {"type": "Point", "coordinates": [-74.0499776, 4.672883]}, "properties": {"station_id": "45", "name": "045 - CL 90 con KR 12", "address": "Calle 90 entre Carrera 12 y Carrera 11A", "capacity": 11, "charging": false}}, {"type": "Feature", "geometry": {"type": "Point", "coordinates": [-74.044498, 4.671132]}, "properties": {"station_id": "46", "name": "046 - KR 7A con CL 90", "address": "Carrera 7A entre Calle 90 y Calle 92", "capacity": 31, "charging": false}}, {"type": "Feature", "geometry": {"type": "Point", "coordinates": [-74.0443513, 4.6786504]}, "properties": {"station_id": "47", "name": "047 - Calle 96", "address": "Calle 96 entre Carrera 11 y Carrera 10", "capacity": 19, "charging": false}}, {"type": "Feature", "geometry": {"type": "Point", "coordinates": [-74.0440349, 4.6818898]}, "properties": {"station_id": "48", "name": "048 - CL 99 con KR 11", "address": "Calle 99 entre Carrera 11 y Carrera 11A", "capacity": 15, "charging": false}}, {"type": "Feature", "geometry": {"type": "Point", "coordinates": [-74.048861, 4.683171]}, "properties": {"station_id": "49", "name": "049 - CL 98 con KR 15", "address": "Calle 98 entre Carrera 15 y Carrera 16", "capacity": 11, "charging": false}}, {"type": "Feature", "geometry": {"type": "Point", "coordinates": [-74.075666, 4.642002]}, "properties": {"station_id": "50", "name": "050 - CL 53 con KR 26", "address": "Calle 53 entre Carrera 26 y Carrera 27", "capacity": 19, "charging": true}}, {"type": "Feature", "geometry": {"type": "Point", "coordinates": [-74.073237, 4.642604]}, "properties": {"station_id": "51", "name": "051 - KR 23 con CL 53", "address": "Carrera 23 entre calle 53 y calle 53 a bis", "capacity": 15, "charging": true}}, {"type": "Feature", "geometry": {"type": "Point", "coordinates": [-74.0788499, 4.6390787]}, "properties": {"station_id": "52", "name": "052 - AK 30 con CL 48", "address": "Carrera 30 entre Calle 48 y Calle 51", "capacity": 11, "charging": false}}, {"type": "Feature", "geometry": {"type": "Point", "coordinates": [-74.072509, 4.639318]}, "properties": {"station_id": "53", "name": "053 - Parque Alfonso Lopez", "address": "Calle 51 entre Carrera 21 y Carrera 22", "capacity": 11, "charging": true}}, {"type": "Feature", "geometry": {"type": "Point", "coordinates": [-74.070938, 4.641115]}, "properties": {"station_id": "54", "name": "054 - CL 53 con KR 19", "address": "Calle 53 entre Carrera 19 y carrera 20", "capacity": 11, "charging": true}}, {"type": "Feature", "geometry": {"type": "Point", "coordinates": [-74.0665439, 4.6403598]}, "properties": {"station_id": "55", "name": "055 - CL 53 con KR 15", "address": "Calle 53 entre Carrera 14 y Carrera 15", "capacity": 15, "charging": false}}, {"type": "Feature", "geometry": {"type": "Point", "coordinates": [-74.0673041, 4.6374446]}, "properties": {"station_id": "56", "name": "056 - CL 50 con KR 14", "address": " Calle 50 entre Carreras 14 y 15", "capacity": 19, "charging": false}}, {"type": "Feature", "geometry": {"type": "Point", "coordinates": [-74.0651798, 4.6392705]}, "properties": {"station_id": "57", "name": "057 - KR 13 con CL 52", "address": "Carrera 13 entre Calle 52 y Calle 52A", "capacity": 15, "charging": false}}, {"type": "Feature", "geometry": {"type": "Point", "coordinates": [-74.0658267, 4.6341953]}, "properties": {"station_id": "58", "name": "058 - CL 47 con KR 9", "address": "Calle 47 entre Carrera 9 y Carrera 13", "capacity": 19, "charging": true}}, {"type": "Feature", "geometry": {"type": "Point", "coordinates": [-74.064615, 4.631379]}, "properties": {"station_id": "59", "name": "059 - CL 45 con KR 7", "address": "Calle 45 entre Carrera 7 y Carrera 8", "capacity": 15, "charging": true}}, {"type": "Feature", "geometry": {"type": "Point", "coordinates": [-74.057045, 4.656153]}, "properties": {"station_id": "60", "name": "060 - CL 72 con KR 9", "address": "Calle 72 entre Carrera 10 y Carrera 9", "capacity": 18, "charging": false}}, {"type": "Feature", "geometry": {"type": "Point", "coordinates": [-74.031331, 4.706433]}, "properties": {"station_id": "61", "name": "061 - Parque Bella Suiza", "address": "Carrera 7D entre Calle 127C Bis y Calle 127D", "capacity": 11, "charging": false}}, {"type": "Feature", "geometry": {"type": "Point", "coordinates": [-74.0753895, 4.6343917]}, "properties": {"station_id": "62", "name": "062 - Canal Arzobispo", "address": "Carrera 24 entre Calle 45 y 45A ", "capacity": 11, "charging": false}}, {"type": "Feature", "geometry": {"type": "Point", "coordinates": [-74.062475, 4.6764505]}, "properties": {"station_id": "63", "name": "063 - Av. NQS con AK 24", "address": "Carrera 24 entre Av. Carrera 30 y Calle 87 (separador)", "capacity": 11, "charging": false}}, {"type": "Feature", "geometry": {"type": "Point", "coordinates": [-74.0701844, 4.6352339]}, "properties": {"station_id": "64", "name": "064 - Parque Guernika", "address": "Diagonal 46 entre Transversal 16a y Transversal 18", "capacity": 15, "charging": false}}, {"type": "Feature", "geometry": {"type": "Point", "coordinates": [-74.042547, 4.706308]}, "properties": {"station_id": "65", "name": "065 - KR 15 con CL 127A Bis", "address": "Carrera 15 entre Calle 127A Bis y Calle 127A Bis A", "capacity": 11, "charging": false}}, {"type": "Feature", "geometry": {"type": "Point", "coordinates": [-74.069169, 4.639858]}, "properties": {"station_id": "67", "name": "067 - CL 52 con KR 16", "address": "Calle 52 entre Carrera 16 y Carrera 17", "capacity": 11, "charging": true}}, {"type": "Feature", "geometry": {"type": "Point", "coordinates": [-74.053641, 4.678834]}, "properties": {"station_id": "68", "name": "068 - KR 18 con CL 93", "address": "Carrera 18 entre Calle 93 y Calle 93B", "capacity": 15, "charging": false}}, {"type": "Feature", "geometry": {"type": "Point", "coordinates": [-74.07911, 4.6364053]}, "properties": {"station_id": "69", "name": "069 - AK 30 con CL 47A", "address": "Avenida Carrera 30 entre Calle 47a y Calle 46", "capacity": 19, "charging": false}}, {"type": "Feature", "geometry": {"type": "Point", "coordinates": [-74.071973, 4.6242942]}, "properties": {"station_id": "71", "name": "071 - CL 35 con KR 17", "address": "Calle 35 entre Carrera 16 y Carrera 17 ", "capacity": 11, "charging": false}}, {"type": "Feature", "geometry": {"type": "Point", "coordinates": [-74.066275, 4.623541]}, "properties": {"station_id": "73", "name": "073 - Parque Nacional", "address": "Carrera 7 entre Calle 36 y Calle 39", "capacity": 23, "charging": false}}, {"type": "Feature", "geometry": {"type": "Point", "coordinates": [-74.0662841, 4.6305045]}, "properties": {"station_id": "74", "name": "074 - Parque Sucre", "address": "Calle 43 A entre Carrera 13 y Carrera 9", "capacity": 18, "charging": false}}, {"type": "Feature", "geometry": {"type": "Point", "coordinates": [-74.066018, 4.631978]}, "properties": {"station_id": "75", "name": "075 - CL 45 con KR 13", "address": "Calle 45 entre Carrera 8 y Carrera 13", "capacity": 15, "charging": false}}, {"type": "Feature", "geometry": {"type": "Point", "coordinates": [-74.071566, 4.62946]}, "properties": {"station_id": "76", "name": "076 - KR 18 con CL 40", "address": "Carrera 18 entre Calle 40 y Calle 39B", "capacity": 23, "charging": false}}, {"type": "Feature", "geometry": {"type": "Point", "coordinates": [-74.028015, 4.723436]}, "properties": {"station_id": "78", "name": "078 - CL 147 CON KR 7B", "address": "Calle 147 entre Carrera 7B y Carrera 7C", "capacity": 11, "charging": false}}, {"type": "Feature", "geometry": {"type": "Point", "coordinates": [-74.073443, 4.629114]}, "properties": {"station_id": "80", "name": "080 - KR 20 con CL 39B", "address": "Carrera 20 entre Calle 39a y Calle 39b", "capacity": 19, "charging": true}}, {"type": "Feature", "geometry": {"type": "Point", "coordinates": [-74.078604, 4.634216]}, "properties": {"station_id": "81", "name": "081 - KR 28 con CL 45", "address": "Carrera 28 entre Calle 43 y Calle 45", "capacity": 11, "charging": true}}, {"type": "Feature", "geometry": {"type": "Point", "coordinates": [-74.074924, 4.626239]}, "properties": {"station_id": "86", "name": "086 - Parkway CL 37", "address": "Calle 37 con Diagonal 36Bis", "capacity": 11, "charging": false}}, {"type": "Feature", "geometry": {"type": "Point", "coordinates": [-74.075102, 4.6325425]}, "properties": {"station_id": "89", "name": "089 - Parkway CL 42", "address": "Calle 42 con Carrera 24", "capacity": 15, "charging": true}}, {"type": "Feature", "geometry": {"type": "Point", "coordinates": [-74.059478, 4.67917]}, "properties": {"station_id": "90", "name": "090 - DG 92 con NQS", "address": "Av. Carrera 30 entre Carrera 45A y Calle 93", "capacity": 15, "charging": false}}, {"type": "Feature", "geometry": {"type": "Point", "coordinates": [-74.0625285, 4.6433691]}, "properties": {"station_id": "91", "name": "091 - CL 57 con KR 7", "address": "Calle 57 entre Carrera 7 y Carrera 8", "capacity": 23, "charging": false}}, {"type": "Feature", "geometry": {"type": "Point", "coordinates": [-74.0624731, 4.645593]}, "properties": {"station_id": "92", "name": "092 - Parque de Los Hippies", "address": "Calle 60 entre Carrera 7 y Carrera 9", "capacity": 23, "charging": false}}, {"type": "Feature", "geometry": {"type": "Point", "coordinates": [-74.054252, 4.6541215]}, "properties": {"station_id": "93", "name": "093 - VANTI", "address": "Calle 72 entre CArrera 7 y Carrera 5", "capacity": 7, "charging": false}}, {"type": "Feature", "geometry": {"type": "Point", "coordinates": [-74.0565811, 4.6737337]}, "properties": {"station_id": "94", "name": "094 - Parque El Virrey 3", "address": "Calle 87 entre Carrera 19 y Carrera 19A", "capacity": 15, "charging": false}}, {"type": "Feature", "geometry": {"type": "Point", "coordinates": [-74.049731, 4.714716]}, "properties": {"station_id": "95", "name": "095 - Parque Padua", "address": "Calle 128D entre Carrera 20 y Carrera 21", "capacity": 11, "charging": false}}, {"type": "Feature", "geometry": {"type": "Point", "coordinates": [-74.0647202, 4.641064]}, "properties": {"station_id": "96", "name": "096 - KR 13 con CL 54", "address": "Carrera 13 entre Calle 54 y Calle 54 Bis", "capacity": 15, "charging": false}}, {"type": "Feature", "geometry": {"type": "Point", "coordinates": [-74.06339, 4.649964]}, "properties": {"station_id": "98", "name": "098 - Plaza de Lourdes", "address": "Carrera 13 entre Calle 63 y Calle 63A", "capacity": 15, "charging": false}}, {"type": "Feature", "geometry": {"type": "Point", "coordinates": [-74.061457, 4.649251]}, "properties": {"station_id": "99", "name": "099 - Parque Lourdes", "address": "Carrera 9A entre Calle 63 y Calle 64", "capacity": 11, "charging": false}}, {"type": "Feature", "geometry": {"type": "Point", "coordinates": [-74.0748308, 4.5998072]}, "properties": {"station_id": "100", "name": "100 - CL 12A con KR 7", "address": "Calle 12A entre Carrera 7 y Carrera 8", "capacity": 27, "charging": false}}, {"type": "Feature", "geometry": {"type": "Point", "coordinates": [-74.065812, 4.603124]}, "properties": {"station_id": "101", "name": "101 - Sandra Catalina Vásquez Guzmán", "address": "Diagonal 20A entre Carrera 1 y Carrera 1E", "capacity": 15, "charging": false}}, {"type": "Feature", "geometry": {"type": "Point", "coordinates": [-74.064042, 4.668137]}, "properties": {"station_id": "102", "name": "102 - CL 78 con KR 24", "address": "Calle 78 entre Carrera 24 y Carrera 26", "capacity": 15, "charging": true}}, {"type": "Feature", "geometry": {"type": "Point", "coordinates": [-74.0695865, 4.6132276]}, "properties": {"station_id": "103", "name": "103 - KR 10 con CL 27", "address": "Carrera 10 entre Calle 27 y Calle 26A", "capacity": 11, "charging": false}}, {"type": "Feature", "geometry": {"type": "Point", "coordinates": [-74.068947, 4.616726]}, "properties": {"station_id": "104", "name": "104 - KR 7 con CL 28", "address": "Carrera 7 entre calle 28 y Av Calle 32", "capacity": 23, "charging": false}}, {"type": "Feature", "geometry": {"type": "Point", "coordinates": [-74.0745322, 4.5940889]}, "properties": {"station_id": "105", "name": "105 - CL 7 con KR 4", "address": "Calle 7 entre Carrera 4 y Carrera 5 ", "capacity": 23, "charging": false}}, {"type": "Feature", "geometry": {"type": "Point", "coordinates": [-74.0733875, 4.597083]}, "properties": {"station_id": "106", "name": "106 - CL 11 con KR 4", "address": "Calle 11 entre Carrera 4 y Carrera 5b", "capacity": 11, "charging": false}}, {"type": "Feature", "geometry": {"type": "Point", "coordinates": [-74.051409, 4.70647]}, "properties": {"station_id": "107", "name": "107 - CL 127 con KR 21", "address": "Calle 127 entre Carrera 20 y Carrera 21", "capacity": 10, "charging": false}}, {"type": "Feature", "geometry": {"type": "Point", "coordinates": [-74.066732, 4.622666]}, "properties": {"station_id": "108", "name": "108 - KR 7 con CL 35", "address": "Carrera 7 entre Calle 35 y Calle 36", "capacity": 35, "charging": false}}, {"type": "Feature", "geometry": {"type": "Point", "coordinates": [-74.0526254, 4.7060704]}, "properties": {"station_id": "110", "name": "110 - CL 127 con KR 21", "address": "Av. Calle 127 entre Carrera 21A Bis y Av. Carrera 45", "capacity": 11, "charging": false}}, {"type": "Feature", "geometry": {"type": "Point", "coordinates": [-74.069558, 4.60152]}, "properties": {"station_id": "111", "name": "111 - KR 4 con CL 17", "address": "Carrera 4 entre Calle 17 y Calle 16", "capacity": 23, "charging": false}}, {"type": "Feature", "geometry": {"type": "Point", "coordinates": [-74.0669382, 4.6294984]}, "properties": {"station_id": "112", "name": "112 - KR 13 con CL 42", "address": "Carrera 13 entre Calle 41 y Calle 42", "capacity": 7, "charging": false}}, {"type": "Feature", "geometry": {"type": "Point", "coordinates": [-74.06752, 4.606051]}, "properties": {"station_id": "113", "name": "113 - CL 22 con KR 4", "address": "Calle 22 entre Carrera 3 y Carrera 4", "capacity": 27, "charging": false}}, {"type": "Feature", "geometry": {"type": "Point", "coordinates": [-74.0683309, 4.60288]}, "properties": {"station_id": "116", "name": "116 - CL 19 con KR 3", "address": "Calle 19 entre Carrera 3 y Carrera 4", "capacity": 11, "charging": false}}, {"type": "Feature", "geometry": {"type": "Point", "coordinates": [-74.0488457, 4.6774713]}, "properties": {"station_id": "120", "name": "120 - Parque de la 93", "address": "Calle 93B entre Carrera 13 y Carrera 11A", "capacity": 23, "charging": false}}, {"type": "Feature", "geometry": {"type": "Point", "coordinates": [-74.044132, 4.7365]}, "properties": {"station_id": "126", "name": "126 - CL 153 con KR 19", "address": "Calle 153 entre Carrera 19 y Carrera 20", "capacity": 11, "charging": false}}, {"type": "Feature", "geometry": {"type": "Point", "coordinates": [-74.043733, 4.722194]}, "properties": {"station_id": "128", "name": "128 - KR 17 con CL 140", "address": "Carrera 17 entre Calle 140 y Calle 136", "capacity": 11, "charging": false}}, {"type": "Feature", "geometry": {"type": "Point", "coordinates": [-74.037225, 4.698477]}, "properties": {"station_id": "129", "name": "129 - CL 119 con KR 11D", "address": "Calle 119 entre Carrera 11B y Carrera 11D", "capacity": 19, "charging": false}}, {"type": "Feature", "geometry": {"type": "Point", "coordinates": [-74.043097, 4.700285]}, "properties": {"station_id": "130", "name": "130 - KR 15 con CL 122", "address": "Carrera 15 entre Calle 119 y Calle 122", "capacity": 7, "charging": false}}, {"type": "Feature", "geometry": {"type": "Point", "coordinates": [-74.0687274, 4.6140178]}, "properties": {"station_id": "132", "name": "132 - TV 6 con CL 27", "address": "Transversal 6 entre Calle 27 y Calle 27 Bis", "capacity": 15, "charging": false}}, {"type": "Feature", "geometry": {"type": "Point", "coordinates": [-74.0770867, 4.6576768]}, "properties": {"station_id": "134", "name": "134 - CL 63G con KR 28B", "address": " Calle 63G entre Carrera 28B y Carrera 30", "capacity": 11, "charging": false}}, {"type": "Feature", "geometry": {"type": "Point", "coordinates": [-74.034712, 4.714487]}, "properties": {"station_id": "135", "name": "135 - KR 10 con CL 134A", "address": "Carrera 10 entre Calle 134A y Calle 134B", "capacity": 11, "charging": false}}, {"type": "Feature", "geometry": {"type": "Point", "coordinates": [-74.049833, 4.666827]}, "properties": {"station_id": "138", "name": "138 - CL 85 con KR 10", "address": "Av. Calle 85 entre Carrera 9 y Carrera 10", "capacity": 11, "charging": false}}, {"type": "Feature", "geometry": {"type": "Point", "coordinates": [-74.069252, 4.619562]}, "properties": {"station_id": "139", "name": "139 - CL 32 BIS A con KR 13", "address": "Calle 32 Bis a entre Carrera 13 y Av Calle 32", "capacity": 19, "charging": true}}, {"type": "Feature", "geometry": {"type": "Point", "coordinates": [-74.041282, 4.718216]}, "properties": {"station_id": "140", "name": "140 - KR 13 con CL 135B", "address": "Carrera 13 entre Calle 135 y Calle 135B", "capacity": 11, "charging": false}}, {"type": "Feature", "geometry": {"type": "Point", "coordinates": [-74.035197, 4.7266398]}, "properties": {"station_id": "146", "name": "146 - CL 147 CON KR 12", "address": "Calle 147 entre Carrera 12 y Carrera 13", "capacity": 11, "charging": false}}, {"type": "Feature", "geometry": {"type": "Point", "coordinates": [-74.04677, 4.720819]}, "properties": {"station_id": "147", "name": "147 - Parque El Contador", "address": "Av. Carrera 19 entre Calle 136 y Calle 137", "capacity": 11, "charging": false}}, {"type": "Feature", "geometry": {"type": "Point", "coordinates": [-74.062664, 4.654364]}, "properties": {"station_id": "149", "name": "149 - Av. Caracas con CL 67", "address": "Av. Caracas entre Calle 67 y Calle 68", "capacity": 11, "charging": false}}, {"type": "Feature", "geometry": {"type": "Point", "coordinates": [-74.0596476, 4.6546408]}, "properties": {"station_id": "150", "name": "150 - Parque Quinta Camacho", "address": "Carrera 10a entre Calle 70 y Calle 70Bis", "capacity": 15, "charging": true}}, {"type": "Feature", "geometry": {"type": "Point", "coordinates": [-74.045418, 4.729922]}, "properties": {"station_id": "152", "name": "152 - AK 19 con CL 147", "address": "Av. Carrera 19 entre Calle 147 y Calle 148", "capacity": 7, "charging": false}}, {"type": "Feature", "geometry": {"type": "Point", "coordinates": [-74.029508, 4.711849]}, "properties": {"station_id": "153", "name": "153 - CL 134 con KR 7", "address": "Calle 134 entre Carrera 7 y Carrera 7A", "capacity": 11, "charging": false}}, {"type": "Feature", "geometry": {"type": "Point", "coordinates": [-74.053126, 4.665339]}, "properties": {"station_id": "154", "name": "154 - KR 11 con CL 82", "address": "Carrera 11 entre las calles 81 y 82", "capacity": 11, "charging": false}}, {"type": "Feature", "geometry": {"type": "Point", "coordinates": [-74.061778, 4.684181]}, "properties": {"station_id": "156", "name": "156 - CL 95 con KR 49A", "address": "Calle 95 entre Carrera 49A y Carrera 49", "capacity": 11, "charging": false}}, {"type": "Feature", "geometry": {"type": "Point", "coordinates": [-74.0605358, 4.649992]}, "properties": {"station_id": "159", "name": "159 - CL 65 con KR 9", "address": "Calle 65 entre Carrera 9 y Carrera 8", "capacity": 23, "charging": false}}, {"type": "Feature", "geometry": {"type": "Point", "coordinates": [-74.060226, 4.660844]}, "properties": {"station_id": "160", "name": "160 - CL 74 con AK 15", "address": "Calle 74 entre Carrera 15 y Carrera 13", "capacity": 11, "charging": true}}, {"type": "Feature", "geometry": {"type": "Point", "coordinates": [-74.0603188, 4.6665425]}, "properties": {"station_id": "161", "name": "161 - Auto Norte con CL 79", "address": "Autopista Norte entre Calle 79 y Calle 78", "capacity": 11, "charging": false}}, {"type": "Feature", "geometry": {"type": "Point", "coordinates": [-74.0594022, 4.6700008]}, "properties": {"station_id": "163", "name": "163 - KR 19B con CL 83", "address": "Carrera 19b entre Calle 83 y Calle 84", "capacity": 11, "charging": false}}, {"type": "Feature", "geometry": {"type": "Point", "coordinates": [-74.062087, 4.672378]}, "properties": {"station_id": "165", "name": "165 - CL 84 con KR 23", "address": "Calle 84 entre Carrera 22 y Carrera 24", "capacity": 11, "charging": false}}, {"type": "Feature", "geometry": {"type": "Point", "coordinates": [-74.063807, 4.6588447]}, "properties": {"station_id": "167", "name": "167 - CL 71 con KR 16", "address": "Calle 71 entre Carrera 16 y Carrera 17", "capacity": 11, "charging": false}}, {"type": "Feature", "geometry": {"type": "Point", "coordinates": [-74.0351804, 4.718926]}, "properties": {"station_id": "169", "name": "169 - KR 11 con CL 140", "address": "Carrera 11 entre Calle 140 y Calle 142", "capacity": 7, "charging": false}}, {"type": "Feature", "geometry": {"type": "Point", "coordinates": [-74.053379, 4.653318]}, "properties": {"station_id": "170", "name": "170 - CL 72 con KR 5", "address": "Calle 72 entre carrera 4 y carrera 5", "capacity": 15, "charging": true}}, {"type": "Feature", "geometry": {"type": "Point", "coordinates": [-74.05115, 4.67878]}, "properties": {"station_id": "171", "name": "171 - CL 93B con KR 15", "address": "Calle 93B entre Carrera 15 y Carrera 16", "capacity": 0, "charging": false}}, {"type": "Feature", "geometry": {"type": "Point", "coordinates": [-74.0667997, 4.6251293]}, "properties": {"station_id": "172", "name": "172 - CL 37 con KR 8", "address": "Calle 37 entre Carrera 8 y Carrera 13", "capacity": 27, "charging": false}}, {"type": "Feature", "geometry": {"type": "Point", "coordinates": [-74.0591002, 4.6532343]}, "properties": {"station_id": "173", "name": "173 - CL 69 con KR 9", "address": "Calle 69 entre carrera 10 y carrera 9", "capacity": 11, "charging": false}}, {"type": "Feature", "geometry": {"type": "Point", "coordinates": [-74.056251, 4.653482]}, "properties": {"station_id": "174", "name": "174 - KR 7 con CL 70A", "address": "Av. Carrera 7 entre Calle 70A y Calle 70", "capacity": 11, "charging": false}}, {"type": "Feature", "geometry": {"type": "Point", "coordinates": [-74.063153, 4.669656]}, "properties": {"station_id": "176", "name": "176 - KR 24 con CL 80", "address": "Av. Carrera 24 entre Calle 80 y Calle 82", "capacity": 11, "charging": false}}, {"type": "Feature", "geometry": {"type": "Point", "coordinates": [-74.0643636, 4.6753721]}, "properties": {"station_id": "178", "name": "178 - Av. NQS con CL 86A", "address": "Av. NQS entre Carrera 28 y Calle 86A", "capacity": 11, "charging": false}}, {"type": "Feature", "geometry": {"type": "Point", "coordinates": [-74.0669797, 4.6736378]}, "properties": {"station_id": "181", "name": "181 - Av. NQS con CL 80", "address": "Av. NQS entre Calle 79b y Calle 80", "capacity": 11, "charging": false}}, {"type": "Feature", "geometry": {"type": "Point", "coordinates": [-74.0704465, 4.6705673]}, "properties": {"station_id": "183", "name": "183 - Av. NQS con CL 75", "address": "Av. Carrera 30 entre Calle 76bis y Calle 75", "capacity": 11, "charging": false}}, {"type": "Feature", "geometry": {"type": "Point", "coordinates": [-74.0504258, 4.6762827]}, "properties": {"station_id": "184", "name": "184 - KR 13A con CL 93", "address": "Carrera 13a entre Calle 93 y Calle 93a", "capacity": 11, "charging": false}}, {"type": "Feature", "geometry": {"type": "Point", "coordinates": [-74.0680766, 4.6666107]}, "properties": {"station_id": "185", "name": "185 - KR 27B con CL 74", "address": "Carrera 27 b entre Calle 74 y Calle 74A", "capacity": 11, "charging": false}}, {"type": "Feature", "geometry": {"type": "Point", "coordinates": [-74.0646763, 4.67006]}, "properties": {"station_id": "186", "name": "186 - AC 80 con KR 27", "address": "Av. Calle 80 entre Carrera 27 y Carrera 27a", "capacity": 11, "charging": false}}, {"type": "Feature", "geometry": {"type": "Point", "coordinates": [-74.055798, 4.692926]}, "properties": {"station_id": "188", "name": "188 - KR 45 con CL 105", "address": "Av. Carrera 45 entre Calle 105 y Calle 106", "capacity": 11, "charging": false}}, {"type": "Feature", "geometry": {"type": "Point", "coordinates": [-74.058338, 4.662276]}, "properties": {"station_id": "190", "name": "190 - CL 76 con KR 13", "address": "Calle 76 entre Carrera 13 y Carrera 14", "capacity": 19, "charging": true}}, {"type": "Feature", "geometry": {"type": "Point", "coordinates": [-74.0609597, 4.6858951]}, "properties": {"station_id": "192", "name": "192 - Parque La Castellana 2", "address": "Carrera 49 entre Calle 98 y Calle 97", "capacity": 11, "charging": false}}, {"type": "Feature", "geometry": {"type": "Point", "coordinates": [-74.060305, 4.682137]}, "properties": {"station_id": "193", "name": "193 - Parque La Castellana", "address": "Calle 94 entre Carrera 47 y Carrera 47A", "capacity": 15, "charging": false}}, {"type": "Feature", "geometry": {"type": "Point", "coordinates": [-74.057875, 4.685971]}, "properties": {"station_id": "194", "name": "194 - Auto Norte con CL 100", "address": "Avenida Carrera 45 entre Calle 100 y Calle 97", "capacity": 31, "charging": true}}, {"type": "Feature", "geometry": {"type": "Point", "coordinates": [-74.0551491, 4.6843954]}, "properties": {"station_id": "195", "name": "195 - Parque Chicó Norte", "address": "Carrera 21 entre Calle 96 y Calle 97", "capacity": 11, "charging": false}}, {"type": "Feature", "geometry": {"type": "Point", "coordinates": [-74.0504141, 4.6846376]}, "properties": {"station_id": "196", "name": "196 - CL 98 con TV 17", "address": "Calle 98 entre Transversal 17 y Transversal 17A", "capacity": 11, "charging": false}}, {"type": "Feature", "geometry": {"type": "Point", "coordinates": [-74.055442, 4.68607]}, "properties": {"station_id": "197", "name": "197 - TV 22 con CL 98", "address": "Transversal 22 entre Calle 98 y Avenida Calle 100", "capacity": 11, "charging": false}}, {"type": "Feature", "geometry": {"type": "Point", "coordinates": [-74.055367, 4.68131]}, "properties": {"station_id": "198", "name": "198 - DG 92 con CL 94", "address": "Diagonal 92 entre Calle 93A y Calle 94", "capacity": 27, "charging": false}}, {"type": "Feature", "geometry": {"type": "Point", "coordinates": [-74.0469372, 4.6814437]}, "properties": {"station_id": "199", "name": "199 - Parque Chicó Reservado II", "address": "Carrera 12 entre Calle 97 y Calle 98", "capacity": 11, "charging": false}}, {"type": "Feature", "geometry": {"type": "Point", "coordinates": [-74.0325839, 4.7024074]}, "properties": {"station_id": "201", "name": "201 - CL 126A con KR 9", "address": "Calle 126A entre Carrera 7C y Carrera 9", "capacity": 11, "charging": false}}, {"type": "Feature", "geometry": {"type": "Point", "coordinates": [-74.0291616, 4.7014192]}, "properties": {"station_id": "202", "name": "202 - CL 126 con KR 7", "address": "Calle 126A entre Carrera 7 y Carrera 7A", "capacity": 15, "charging": false}}, {"type": "Feature", "geometry": {"type": "Point", "coordinates": [-74.032709, 4.699284]}, "properties": {"station_id": "203", "name": "203 - CL 123 con KR 9", "address": "Calle 123 entre Carrera 7C y Carrera 9", "capacity": 11, "charging": true}}, {"type": "Feature", "geometry": {"type": "Point", "coordinates": [-74.033145, 4.696392]}, "properties": {"station_id": "206", "name": "206 - CL 119 con KR 7", "address": "Calle 119 entre Carrera 7 y Carrera 9", "capacity": 11, "charging": false}}, {"type": "Feature", "geometry": {"type": "Point", "coordinates": [-74.0325, 4.694841]}, "properties": {"station_id": "207", "name": "207 - KR 7 con CL 118", "address": "Carrera 7 entre Calle 117 y Calle 118", "capacity": 23, "charging": false}}, {"type": "Feature", "geometry": {"type": "Point", "coordinates": [-74.031531, 4.6932304]}, "properties": {"station_id": "208", "name": "208 - CL 116 BIS con KR 6", "address": "Calle 116 Bis entre Carrera 6 y Carrera 6A", "capacity": 11, "charging": false}}, {"type": "Feature", "geometry": {"type": "Point", "coordinates": [-74.065863, 4.675632]}, "properties": {"station_id": "210", "name": "210 - KR 49A con CL 85A", "address": "Carrera 49A entre Calle 85A y Calle 86A", "capacity": 11, "charging": true}}, {"type": "Feature", "geometry": {"type": "Point", "coordinates": [-74.036207, 4.690523]}, "properties": {"station_id": "211", "name": "211 - KR 8 con CL 110A", "address": "Carrera 8 entre Calle 110A y Calle 111 ", "capacity": 11, "charging": false}}, {"type": "Feature", "geometry": {"type": "Point", "coordinates": [-74.0381428, 4.6862872]}, "properties": {"station_id": "212", "name": "212 - CL 106 con KR 7A", "address": "Calle 106 entre Carrera 7A y Carrera 8", "capacity": 19, "charging": false}}, {"type": "Feature", "geometry": {"type": "Point", "coordinates": [-74.040475, 4.687904]}, "properties": {"station_id": "213", "name": "213 - CL 106 con KR 11", "address": "Calle 106 entre Carrera 11 y Carrera 8B", "capacity": 19, "charging": true}}, {"type": "Feature", "geometry": {"type": "Point", "coordinates": [-74.055023, 4.665188]}, "properties": {"station_id": "214", "name": "214 - CL 80 con KR 12", "address": "Calle 80 entre Carrera 12 y Carrera 12A", "capacity": 23, "charging": false}}, {"type": "Feature", "geometry": {"type": "Point", "coordinates": [-74.0442931, 4.6893726]}, "properties": {"station_id": "215", "name": "215 - Parque Chico Alto", "address": "Calle 105a Bis entre Carrera 13A y Carrera 14", "capacity": 11, "charging": false}}, {"type": "Feature", "geometry": {"type": "Point", "coordinates": [-74.0720234, 4.6040917]}, "properties": {"station_id": "216", "name": "216 - KR 7 con CL 18", "address": "Carrera 7 entre Calle 17 y Calle 18", "capacity": 11, "charging": false}}, {"type": "Feature", "geometry": {"type": "Point", "coordinates": [-74.0413531, 4.6793824]}, "properties": {"station_id": "217", "name": "217 - KR 8A con CL 97A", "address": "Carrera 8A entre Calle 97A y Calle 98", "capacity": 27, "charging": false}}, {"type": "Feature", "geometry": {"type": "Point", "coordinates": [-74.061315, 4.648333]}, "properties": {"station_id": "218", "name": "218 - Parque Chapinero Central", "address": "Calle 62 entre Carrera 9 y Carrera 9Bis", "capacity": 15, "charging": false}}, {"type": "Feature", "geometry": {"type": "Point", "coordinates": [-74.0381229, 4.6910006]}, "properties": {"station_id": "219", "name": "219 - Parque Santa Barbara City Hall", "address": "Calle 110 entre Carrera 9 y Carrera 11", "capacity": 19, "charging": false}}, {"type": "Feature", "geometry": {"type": "Point", "coordinates": [-74.036818, 4.692468]}, "properties": {"station_id": "220", "name": "220 - Parque Molinos Norte", "address": "Calle 113 entre Carrera 9A y Carrera 9B", "capacity": 11, "charging": false}}, {"type": "Feature", "geometry": {"type": "Point", "coordinates": [-74.0347505, 4.694347]}, "properties": {"station_id": "221", "name": "221 - KR 9 con CL 116", "address": "Carrera 9 entre Calle 116 y Calle 117A", "capacity": 11, "charging": false}}, {"type": "Feature", "geometry": {"type": "Point", "coordinates": [-74.0409009, 4.6931719]}, "properties": {"station_id": "222", "name": "222 - Parque Carrera 13A", "address": "Carrera 13 A entre Calle 111 y Calle 112", "capacity": 11, "charging": false}}, {"type": "Feature", "geometry": {"type": "Point", "coordinates": [-74.0426191, 4.6933963]}, "properties": {"station_id": "223", "name": "223 - Parque Santa Paula", "address": "Calle 111 entre Carrera 14 y Carrera 14B", "capacity": 15, "charging": false}}, {"type": "Feature", "geometry": {"type": "Point", "coordinates": [-74.042596, 4.690471]}, "properties": {"station_id": "224", "name": "224 - KR 13A con CL 107A", "address": "Carrera 13A entre Calle 107A y Calle 108", "capacity": 23, "charging": false}}, {"type": "Feature", "geometry": {"type": "Point", "coordinates": [-74.0334598, 4.6978819]}, "properties": {"station_id": "228", "name": "228 - CL 120 con KR 9A", "address": "Calle 120 entre Carrera 9A y Carrera 9", "capacity": 11, "charging": false}}, {"type": "Feature", "geometry": {"type": "Point", "coordinates": [-74.034622, 4.6994515]}, "properties": {"station_id": "229", "name": "229 - Santa Barbara Central", "address": "Calle 121 entre Carrera 10A y Carrera 11", "capacity": 11, "charging": false}}, {"type": "Feature", "geometry": {"type": "Point", "coordinates": [-74.0363633, 4.7019339]}, "properties": {"station_id": "230", "name": "230 - Parque Multicentro", "address": "Calle 124 entre Carrera 11B Bis y Carrera 11C", "capacity": 11, "charging": false}}, {"type": "Feature", "geometry": {"type": "Point", "coordinates": [-74.0339, 4.70286]}, "properties": {"station_id": "231", "name": "231 - CL 126 con KR 11", "address": "Calle 126 entre Carrera 11 Bis y Carrera 11B Bis", "capacity": 15, "charging": false}}, {"type": "Feature", "geometry": {"type": "Point", "coordinates": [-74.0453909, 4.6971484]}, "properties": {"station_id": "232", "name": "232 - AC 116 con KR 16", "address": "Av. Calle 116 entre Carrera 16 y Carrera 15B", "capacity": 15, "charging": false}}, {"type": "Feature", "geometry": {"type": "Point", "coordinates": [-74.0364843, 4.7006378]}, "properties": {"station_id": "233", "name": "233 - Parque Santa Barbara Central", "address": "Calle 122 entre entre Carrera 11B y carrera 11C", "capacity": 11, "charging": false}}, {"type": "Feature", "geometry": {"type": "Point", "coordinates": [-74.039678, 4.702071]}, "properties": {"station_id": "234", "name": "234 - KR 13 con CL 125A", "address": "Carrera 13 entre Calle 125A y Calle 123", "capacity": 23, "charging": false}}, {"type": "Feature", "geometry": {"type": "Point", "coordinates": [-74.051135, 4.664758]}, "properties": {"station_id": "235", "name": "235 - KR 9 con CL 82", "address": "Carrera 9 entre Calle 82 y Calle 84A", "capacity": 11, "charging": false}}, {"type": "Feature", "geometry": {"type": "Point", "coordinates": [-74.0412342, 4.6978969]}, "properties": {"station_id": "237", "name": "237 - Parque Santa Barbara 1", "address": "Carrera 14A entre Calle 118 y Calle 118A", "capacity": 11, "charging": false}}, {"type": "Feature", "geometry": {"type": "Point", "coordinates": [-74.038118, 4.699656]}, "properties": {"station_id": "238", "name": "238 - CL 120 con KR 11D", "address": "Calle 120 entre Carrera 11D y Carrera 11B", "capacity": 7, "charging": false}}, {"type": "Feature", "geometry": {"type": "Point", "coordinates": [-74.0398761, 4.6963743]}, "properties": {"station_id": "239", "name": "239 - KR 13 con CL 116", "address": "Carrera 13 entre Calle 117 y Calle 116", "capacity": 7, "charging": false}}, {"type": "Feature", "geometry": {"type": "Point", "coordinates": [-74.0431429, 4.6969328]}, "properties": {"station_id": "240", "name": "240 - KR 15 con CL 116", "address": "Carrera 15 entre Calle 118 y Calle 116", "capacity": 19, "charging": false}}, {"type": "Feature", "geometry": {"type": "Point", "coordinates": [-74.042931, 4.703531]}, "properties": {"station_id": "241", "name": "241 - KR 15 con CL 127", "address": "Carrera 15 entre Calle 127 y Calle 124", "capacity": 15, "charging": true}}, {"type": "Feature", "geometry": {"type": "Point", "coordinates": [-74.042895, 4.699645]}, "properties": {"station_id": "242", "name": "242 - KR 15 con CL 121", "address": "Carrera 15 entre Calle 119 y Calle 121", "capacity": 23, "charging": true}}, {"type": "Feature", "geometry": {"type": "Point", "coordinates": [-74.044622, 4.701074]}, "properties": {"station_id": "243", "name": "243 - CL 122 con KR 16", "address": "Calle 122 entre Carrera 16 y Carrera 15A", "capacity": 15, "charging": true}}, {"type": "Feature", "geometry": {"type": "Point", "coordinates": [-74.048355, 4.721728]}, "properties": {"station_id": "244", "name": "244 - KR 20 con CL 137", "address": "Carrera 20 entre Calle 136 y Calle 137", "capacity": 11, "charging": false}}, {"type": "Feature", "geometry": {"type": "Point", "coordinates": [-74.048503, 4.701588]}, "properties": {"station_id": "245", "name": "245 - CL 122 con KR 18C", "address": "Calle 122 entre Carrera 18 y Carrera 18C", "capacity": 19, "charging": false}}, {"type": "Feature", "geometry": {"type": "Point", "coordinates": [-74.04922, 4.703866]}, "properties": {"station_id": "246", "name": "246 - KR 19 con CL 123", "address": "Carrera 19 entre Calle 123 y Calle 125", "capacity": 11, "charging": true}}, {"type": "Feature", "geometry": {"type": "Point", "coordinates": [-74.050521, 4.705665]}, "properties": {"station_id": "247", "name": "247 - KR 20 con CL 127", "address": "Carrera 20 entre Av. Calle 127 y Calle 125 Bis", "capacity": 11, "charging": true}}, {"type": "Feature", "geometry": {"type": "Point", "coordinates": [-74.0496633, 4.6993848]}, "properties": {"station_id": "250", "name": "250 - KR 19 con CL 118", "address": "Carrera 19 entre Calle 116 y Calle 118", "capacity": 11, "charging": false}}, {"type": "Feature", "geometry": {"type": "Point", "coordinates": [-74.039099, 4.728676]}, "properties": {"station_id": "252", "name": "252 - KR 14 con CL 147", "address": "Carrera 14 entre Calle 147 y Calle 148", "capacity": 11, "charging": false}}, {"type": "Feature", "geometry": {"type": "Point", "coordinates": [-74.0465419, 4.7014317]}, "properties": {"station_id": "253", "name": "253 - CL 122 con KR 17A", "address": "Calle 122 entre Carrera 18 y Carrera 17A", "capacity": 11, "charging": false}}, {"type": "Feature", "geometry": {"type": "Point", "coordinates": [-74.045908, 4.704193]}, "properties": {"station_id": "254", "name": "254 - KR 17A con CL 127", "address": "Carrera 17A entre Calle 127 y Calle 125", "capacity": 15, "charging": true}}, {"type": "Feature", "geometry": {"type": "Point", "coordinates": [-74.0468347, 4.697889]}, "properties": {"station_id": "255", "name": "255 - KR 17A con CL 116", "address": "Carrera 17A entre Calle 116 y Calle 119A", "capacity": 11, "charging": false}}, {"type": "Feature", "geometry": {"type": "Point", "coordinates": [-74.0503805, 4.6960365]}, "properties": {"station_id": "257", "name": "257 - AK 19 con CL 109A", "address": "Carrera 19 entre Calle 112 y Calle 109A", "capacity": 7, "charging": false}}, {"type": "Feature", "geometry": {"type": "Point", "coordinates": [-74.049705, 4.698725]}, "properties": {"station_id": "258", "name": "258 - AC 116 con AK 19", "address": "Av. Calle 116 entre Av. Carrera 19 y Carrera 18", "capacity": 11, "charging": false}}, {"type": "Feature", "geometry": {"type": "Point", "coordinates": [-74.044912, 4.732426]}, "properties": {"station_id": "259", "name": "259 - AK 19 con CL 150", "address": "Av. Carrera 19 entre Calle 150 y Calle 151", "capacity": 11, "charging": false}}, {"type": "Feature", "geometry": {"type": "Point", "coordinates": [-74.0585797, 4.6672121]}, "properties": {"station_id": "260", "name": "260 - CL 80 con KR 18", "address": "Calle 80 entre Carrera 18 y Carrera 19 ", "capacity": 11, "charging": false}}, {"type": "Feature", "geometry": {"type": "Point", "coordinates": [-74.048684, 4.681697]}, "properties": {"station_id": "261", "name": "261 - KR 14 con CL 96", "address": "Calle 97 entre Carrera 15 y Carrera 16", "capacity": 19, "charging": false}}, {"type": "Feature", "geometry": {"type": "Point", "coordinates": [-74.05425, 4.665489]}, "properties": {"station_id": "262", "name": "262 - CL 81 con KR 11", "address": "Calle 81 entre Carrera 13 y Carrera 11", "capacity": 11, "charging": false}}, {"type": "Feature", "geometry": {"type": "Point", "coordinates": [-74.0783931, 4.6467647]}, "properties": {"station_id": "263", "name": "263 - AK 30 con CL 57A", "address": "Av. Carrera 30 entre calle 57 A y calle 57", "capacity": 15, "charging": false}}, {"type": "Feature", "geometry": {"type": "Point", "coordinates": [-74.075891, 4.645479]}, "properties": {"station_id": "265", "name": "265 - TV 28 con DG 53C", "address": "Transversal 28 entre Diagonal 53 C y Carrera 28", "capacity": 23, "charging": true}}, {"type": "Feature", "geometry": {"type": "Point", "coordinates": [-74.077953, 4.6505]}, "properties": {"station_id": "266", "name": "266 - AK 30 con CL 62", "address": "Av. Carrera 30 entre Calle 62 y Calle 60", "capacity": 11, "charging": false}}, {"type": "Feature", "geometry": {"type": "Point", "coordinates": [-74.075317, 4.644111]}, "properties": {"station_id": "267", "name": "267 - TV 27 con CL 53B", "address": "Transversal 27 entre Calle 53B y Calle 53B Bis", "capacity": 23, "charging": true}}, {"type": "Feature", "geometry": {"type": "Point", "coordinates": [-74.0722825, 4.646077]}, "properties": {"station_id": "270", "name": "270 - DG 59 con TV 24", "address": "Diagonal 59 entre transversal 24 y transversal 23", "capacity": 19, "charging": false}}, {"type": "Feature", "geometry": {"type": "Point", "coordinates": [-74.073466, 4.643608]}, "properties": {"station_id": "271", "name": "271 - TV 24 con DG 53C", "address": "Transversal 24 entre Diagonal 53C y Diagonal 53D", "capacity": 15, "charging": true}}, {"type": "Feature", "geometry": {"type": "Point", "coordinates": [-74.070359, 4.642546]}, "properties": {"station_id": "272", "name": "272 - CL 53B con KR 18", "address": "Calle 53B entre Carrera 18 y Carrera 19", "capacity": 15, "charging": false}}, {"type": "Feature", "geometry": {"type": "Point", "coordinates": [-74.0716823, 4.6451854]}, "properties": {"station_id": "276", "name": "276 - CL 57 con KR 21", "address": "Calle 57 entre Carrera 21 y Carrera 23", "capacity": 15, "charging": false}}, {"type": "Feature", "geometry": {"type": "Point", "coordinates": [-74.0695905, 4.648324]}, "properties": {"station_id": "277", "name": "277 - KR 20 con CL 60", "address": "Carrera 20 entre Calle 60 y Calle 61", "capacity": 15, "charging": false}}, {"type": "Feature", "geometry": {"type": "Point", "coordinates": [-74.0539714, 4.6983713]}, "properties": {"station_id": "278", "name": "278 - KR 23 con CL 114A", "address": "Carrera 23 entre calle 114a y calle 116", "capacity": 11, "charging": false}}, {"type": "Feature", "geometry": {"type": "Point", "coordinates": [-74.050013, 4.704796]}, "properties": {"station_id": "281", "name": "281 - CL 125 con KR 19A", "address": "Calle 125 entre Carrera 19A y Carrera 20", "capacity": 15, "charging": true}}, {"type": "Feature", "geometry": {"type": "Point", "coordinates": [-74.05505, 4.697406]}, "properties": {"station_id": "282", "name": "282 - Parque San Patricio", "address": "Av. Carrera 45 entre Calle 114 y Calle 111", "capacity": 22, "charging": false}}, {"type": "Feature", "geometry": {"type": "Point", "coordinates": [-74.0444343, 4.6749718]}, "properties": {"station_id": "283", "name": "283 - KR 9 con CL 93A", "address": "Carrera 9 entre Calle 93a y Calle 93b", "capacity": 15, "charging": false}}, {"type": "Feature", "geometry": {"type": "Point", "coordinates": [-74.053504, 4.693165]}, "properties": {"station_id": "284", "name": "284 - CL 106 con KR 21", "address": "Calle 106 entre Carrera 21 y Carrera 22", "capacity": 19, "charging": true}}, {"type": "Feature", "geometry": {"type": "Point", "coordinates": [-74.051212, 4.692878]}, "properties": {"station_id": "285", "name": "285 - CL 106 con KR 19", "address": "Calle 106 entre Carrera 19 y Carrera 19A", "capacity": 11, "charging": true}}, {"type": "Feature", "geometry": {"type": "Point", "coordinates": [-74.0515615, 4.6935583]}, "properties": {"station_id": "286", "name": "286 - KR 19A con CL106A", "address": "Carrera 19A entre Calle 106A y Calle 106", "capacity": 11, "charging": false}}, {"type": "Feature", "geometry": {"type": "Point", "coordinates": [-74.047992, 4.691367]}, "properties": {"station_id": "287", "name": "287 - Parque Calle 106 - 1", "address": "Calle 106 entre Carrera 16 y Carrera 17", "capacity": 23, "charging": true}}, {"type": "Feature", "geometry": {"type": "Point", "coordinates": [-74.0465754, 4.6906213]}, "properties": {"station_id": "288", "name": "288 - Parque Calle 106 - 2", "address": "Calle 106 entre Carrera 15 y Carrera 15A", "capacity": 15, "charging": false}}, {"type": "Feature", "geometry": {"type": "Point", "coordinates": [-74.0449201, 4.6925274]}, "properties": {"station_id": "289", "name": "289 - KR 15 con CL 109", "address": "Carrera 15 entre Calle 109 y Calle 108", "capacity": 23, "charging": false}}, {"type": "Feature", "geometry": {"type": "Point", "coordinates": [-74.0465, 4.6934]}, "properties": {"station_id": "290", "name": "290 - CL 109 con KR 16", "address": "Calle 109 entre Carrera 16 y Carrera 17", "capacity": 15, "charging": true}}, {"type": "Feature", "geometry": {"type": "Point", "coordinates": [-74.048004, 4.6959133]}, "properties": {"station_id": "291", "name": "291 - Parque Los Molinos", "address": "Calle 112 entre Carrera 18 y Carrera 18A", "capacity": 15, "charging": false}}, {"type": "Feature", "geometry": {"type": "Point", "coordinates": [-74.049738, 4.690316]}, "properties": {"station_id": "292", "name": "292 - Parque Navarra", "address": "Carrera 17A entre Calle 104 y Calle 105", "capacity": 15, "charging": true}}, {"type": "Feature", "geometry": {"type": "Point", "coordinates": [-74.047448, 4.688112]}, "properties": {"station_id": "293", "name": "293 - KR 15 con CL 103", "address": "Carrera 15 entre Calle 103 y Calle 104", "capacity": 11, "charging": true}}, {"type": "Feature", "geometry": {"type": "Point", "coordinates": [-74.048847, 4.685576]}, "properties": {"station_id": "294", "name": "294 - KR 16 con CL 100", "address": "Carrera 16 entre Calle 100 y Calle 101", "capacity": 23, "charging": false}}, {"type": "Feature", "geometry": {"type": "Point", "coordinates": [-74.051005, 4.721452]}, "properties": {"station_id": "295", "name": "295 - AK 45 con CL 136", "address": "Av. Carrera 45 entre Calle 136 y Calle 137", "capacity": 19, "charging": false}}, {"type": "Feature", "geometry": {"type": "Point", "coordinates": [-74.0529515, 4.6866725]}, "properties": {"station_id": "296", "name": "296 - KR 19A con CL 100", "address": "Carrera 19A entre Calle 100 y Calle 101", "capacity": 11, "charging": false}}, {"type": "Feature", "geometry": {"type": "Point", "coordinates": [-74.0551551, 4.6916792]}, "properties": {"station_id": "298", "name": "298 - KR 23 con CL 104A", "address": "Carrera 23 entre Calle 104A y Calle 104", "capacity": 15, "charging": false}}, {"type": "Feature", "geometry": {"type": "Point", "coordinates": [-74.076978, 4.599279]}, "properties": {"station_id": "299", "name": "299 - CL 11 con KR 8", "address": "Calle 11 entre Carrera 8 y Carrera 9", "capacity": 11, "charging": false}}, {"type": "Feature", "geometry": {"type": "Point", "coordinates": [-74.050715, 4.68782]}, "properties": {"station_id": "300", "name": "300 - KR 18A con CL 102", "address": "Carrera 18A entre Calle 102 y Calle 103", "capacity": 23, "charging": false}}, {"type": "Feature", "geometry": {"type": "Point", "coordinates": [-46.3972181, -23.4008649]}, "properties": {"station_id": "316", "name": "Calle 13 - 316", "address": "PBSC test - 316", "capacity": 1, "charging": false}}, {"type": "Feature", "geometry": {"type": "Point", "coordinates": [-74.1197321, 4.636536]}, "properties": {"station_id": "320", "name": "Calle 13 - 320", "address": "Calle 13 - 320", "capacity": 1, "charging": false}}]}