{
"type": "FeatureCollection",
"name": "roda_banos_principales",
"crs": { "type": "name", "properties": { "name": "urn:ogc:def:crs:OGC:1.3:CRS84" } },
"features": [
{"type":"Feature","properties":{"fid":2,"id":"node/1661102692","@id":"node/1661102692","access":null,"addr:floor":null,"amenity":"toilets","building":null,"changing_table":null,"check_date":null,"fee":null,"female":null,"level":null,"male":null,"operator":null,"payment:cash":null,"payment:coins":null,"payment:credit_cards":null,"payment:visa":null,"toilets:disposal":null,"toilets:handwashing":null,"unisex":null,"wheelchair":null},"geometry":{"type":"Point","coordinates":[-74.0363141,4.6912081]}},
{"type":"Feature","properties":{"fid":4,"id":"node/3520237061","@id":"node/3520237061","access":"customers","addr:floor":null,"amenity":"toilets","building":null,"changing_table":null,"check_date":null,"fee":null,"female":null,"level":null,"male":null,"operator":null,"payment:cash":null,"payment:coins":null,"payment:credit_cards":null,"payment:visa":null,"toilets:disposal":null,"toilets:handwashing":null,"unisex":null,"wheelchair":null},"geometry":{"type":"Point","coordinates":[-74.0975552,4.6621816]}},
{"type":"Feature","properties":{"fid":6,"id":"node/3757479378","@id":"node/3757479378","access":null,"addr:floor":null,"amenity":"toilets","building":null,"changing_table":null,"check_date":null,"fee":"no","female":null,"level":null,"male":null,"operator":null,"payment:cash":null,"payment:coins":null,"payment:credit_cards":null,"payment:visa":null,"toilets:disposal":null,"toilets:handwashing":null,"unisex":null,"wheelchair":null},"geometry":{"type":"Point","coordinates":[-74.1096087,4.6527479]}},
{"type":"Feature","properties":{"fid":8,"id":"node/4689646867","@id":"node/4689646867","access":"yes","addr:floor":null,"amenity":"toilets","building":null,"changing_table":null,"check_date":null,"fee":"no","female":null,"level":null,"male":null,"operator":null,"payment:cash":null,"payment:coins":null,"payment:credit_cards":null,"payment:visa":null,"toilets:disposal":"flush","toilets:handwashing":null,"unisex":"yes","wheelchair":null},"geometry":{"type":"Point","coordinates":[-74.0915898,4.6622748]}},
{"type":"Feature","properties":{"fid":10,"id":"node/5235177125","@id":"node/5235177125","access":null,"addr:floor":null,"amenity":"toilets","building":null,"changing_table":null,"check_date":null,"fee":null,"female":null,"level":null,"male":null,"operator":"Carulla","payment:cash":null,"payment:coins":null,"payment:credit_cards":null,"payment:visa":null,"toilets:disposal":null,"toilets:handwashing":null,"unisex":null,"wheelchair":null},"geometry":{"type":"Point","coordinates":[-74.0506763,4.7053214]}},
{"type":"Feature","properties":{"fid":12,"id":"node/6734070886","@id":"node/6734070886","access":null,"addr:floor":null,"amenity":"toilets","building":null,"changing_table":null,"check_date":null,"fee":null,"female":null,"level":null,"male":null,"operator":null,"payment:cash":null,"payment:coins":null,"payment:credit_cards":null,"payment:visa":null,"toilets:disposal":null,"toilets:handwashing":null,"unisex":null,"wheelchair":null},"geometry":{"type":"Point","coordinates":[-74.1177862,4.6786198]}},
{"type":"Feature","properties":{"fid":14,"id":"node/7125008096","@id":"node/7125008096","access":null,"addr:floor":null,"amenity":"toilets","building":null,"changing_table":null,"check_date":null,"fee":null,"female":null,"level":null,"male":null,"operator":null,"payment:cash":null,"payment:coins":null,"payment:credit_cards":null,"payment:visa":null,"toilets:disposal":null,"toilets:handwashing":null,"unisex":null,"wheelchair":null},"geometry":{"type":"Point","coordinates":[-74.1000911,4.6706674]}},
{"type":"Feature","properties":{"fid":15,"id":"node/7125014968","@id":"node/7125014968","access":null,"addr:floor":null,"amenity":"toilets","building":null,"changing_table":null,"check_date":null,"fee":null,"female":null,"level":null,"male":null,"operator":null,"payment:cash":null,"payment:coins":null,"payment:credit_cards":null,"payment:visa":null,"toilets:disposal":null,"toilets:handwashing":null,"unisex":null,"wheelchair":null},"geometry":{"type":"Point","coordinates":[-74.0985488,4.6686184]}},
{"type":"Feature","properties":{"fid":16,"id":"node/7195711221","@id":"node/7195711221","access":null,"addr:floor":null,"amenity":"toilets","building":null,"changing_table":null,"check_date":null,"fee":"no","female":null,"level":null,"male":null,"operator":null,"payment:cash":null,"payment:coins":null,"payment:credit_cards":null,"payment:visa":null,"toilets:disposal":"flush","toilets:handwashing":null,"unisex":null,"wheelchair":"yes"},"geometry":{"type":"Point","coordinates":[-74.0529514,4.6670368]}},
{"type":"Feature","properties":{"fid":17,"id":"node/7633062485","@id":"node/7633062485","access":null,"addr:floor":null,"amenity":"toilets","building":null,"changing_table":null,"check_date":null,"fee":null,"female":null,"level":null,"male":null,"operator":"Francisco_gps5saz","payment:cash":null,"payment:coins":null,"payment:credit_cards":null,"payment:visa":null,"toilets:disposal":null,"toilets:handwashing":null,"unisex":null,"wheelchair":null},"geometry":{"type":"Point","coordinates":[-74.032551,4.7095875]}},
{"type":"Feature","properties":{"fid":18,"id":"node/7633062486","@id":"node/7633062486","access":null,"addr:floor":null,"amenity":"toilets","building":null,"changing_table":null,"check_date":null,"fee":null,"female":null,"level":null,"male":null,"operator":"monica","payment:cash":null,"payment:coins":null,"payment:credit_cards":null,"payment:visa":null,"toilets:disposal":null,"toilets:handwashing":null,"unisex":null,"wheelchair":null},"geometry":{"type":"Point","coordinates":[-74.0324591,4.7114196]}},
{"type":"Feature","properties":{"fid":19,"id":"node/7633112185","@id":"node/7633112185","access":null,"addr:floor":null,"amenity":"toilets","building":null,"changing_table":null,"check_date":null,"fee":null,"female":null,"level":null,"male":null,"operator":"Monica","payment:cash":null,"payment:coins":null,"payment:credit_cards":null,"payment:visa":null,"toilets:disposal":null,"toilets:handwashing":null,"unisex":null,"wheelchair":null},"geometry":{"type":"Point","coordinates":[-74.032312,4.7174891]}},
{"type":"Feature","properties":{"fid":20,"id":"node/7633293085","@id":"node/7633293085","access":null,"addr:floor":null,"amenity":"toilets","building":null,"changing_table":null,"check_date":null,"fee":null,"female":null,"level":null,"male":null,"operator":"Francisco","payment:cash":null,"payment:coins":null,"payment:credit_cards":null,"payment:visa":null,"toilets:disposal":null,"toilets:handwashing":null,"unisex":null,"wheelchair":null},"geometry":{"type":"Point","coordinates":[-74.0322009,4.7234737]}},
{"type":"Feature","properties":{"fid":21,"id":"node/7633925386","@id":"node/7633925386","access":null,"addr:floor":null,"amenity":"toilets","building":null,"changing_table":null,"check_date":null,"fee":null,"female":null,"level":null,"male":null,"operator":"Francisco -D5-8","payment:cash":null,"payment:coins":null,"payment:credit_cards":null,"payment:visa":null,"toilets:disposal":null,"toilets:handwashing":null,"unisex":null,"wheelchair":null},"geometry":{"type":"Point","coordinates":[-74.0319781,4.7283502]}},
{"type":"Feature","properties":{"fid":22,"id":"node/7636360485","@id":"node/7636360485","access":null,"addr:floor":null,"amenity":"toilets","building":null,"changing_table":null,"check_date":null,"fee":null,"female":null,"level":null,"male":null,"operator":"Francisco-gps2","payment:cash":null,"payment:coins":null,"payment:credit_cards":null,"payment:visa":null,"toilets:disposal":null,"toilets:handwashing":null,"unisex":null,"wheelchair":null},"geometry":{"type":"Point","coordinates":[-74.0860373,4.6553782]}},
{"type":"Feature","properties":{"fid":23,"id":"node/7636388085","@id":"node/7636388085","access":null,"addr:floor":null,"amenity":"toilets","building":null,"changing_table":null,"check_date":null,"fee":null,"female":null,"level":null,"male":null,"operator":"Orlando-gps2saz","payment:cash":null,"payment:coins":null,"payment:credit_cards":null,"payment:visa":null,"toilets:disposal":null,"toilets:handwashing":null,"unisex":null,"wheelchair":null},"geometry":{"type":"Point","coordinates":[-74.0849303,4.6557314]}},
{"type":"Feature","properties":{"fid":25,"id":"node/10170715728","@id":"node/10170715728","access":null,"addr:floor":null,"amenity":"toilets","building":null,"changing_table":null,"check_date":null,"fee":null,"female":null,"level":null,"male":null,"operator":null,"payment:cash":null,"payment:coins":null,"payment:credit_cards":null,"payment:visa":null,"toilets:disposal":null,"toilets:handwashing":null,"unisex":null,"wheelchair":null},"geometry":{"type":"Point","coordinates":[-74.1061267,4.6512249]}},
{"type":"Feature","properties":{"fid":26,"id":"node/10233473122","@id":"node/10233473122","access":null,"addr:floor":null,"amenity":"toilets","building":null,"changing_table":null,"check_date":null,"fee":null,"female":null,"level":null,"male":null,"operator":null,"payment:cash":null,"payment:coins":null,"payment:credit_cards":null,"payment:visa":null,"toilets:disposal":null,"toilets:handwashing":null,"unisex":null,"wheelchair":null},"geometry":{"type":"Point","coordinates":[-74.0976428,4.6568875]}},
{"type":"Feature","properties":{"fid":29,"id":"node/12544240501","@id":"node/12544240501","access":null,"addr:floor":null,"amenity":"toilets","building":null,"changing_table":null,"check_date":null,"fee":null,"female":null,"level":null,"male":null,"operator":null,"payment:cash":null,"payment:coins":null,"payment:credit_cards":null,"payment:visa":null,"toilets:disposal":null,"toilets:handwashing":null,"unisex":null,"wheelchair":null},"geometry":{"type":"Point","coordinates":[-74.1005706,4.6697816]}},
{"type":"Feature","properties":{"fid":31,"id":"node/13585712801","@id":"node/13585712801","access":null,"addr:floor":null,"amenity":"toilets","building":null,"changing_table":null,"check_date":"2026-02-20","fee":null,"female":null,"level":"0","male":null,"operator":null,"payment:cash":null,"payment:coins":null,"payment:credit_cards":null,"payment:visa":null,"toilets:disposal":null,"toilets:handwashing":null,"unisex":null,"wheelchair":null},"geometry":{"type":"Point","coordinates":[-74.0820942,4.6801406]}},
{"type":"Feature","properties":{"fid":33,"id":"node/13711383418","@id":"node/13711383418","access":"customers","addr:floor":null,"amenity":"toilets","building":null,"changing_table":null,"check_date":null,"fee":null,"female":null,"level":"-1","male":null,"operator":null,"payment:cash":null,"payment:coins":null,"payment:credit_cards":null,"payment:visa":null,"toilets:disposal":null,"toilets:handwashing":null,"unisex":null,"wheelchair":null},"geometry":{"type":"Point","coordinates":[-74.079937,4.6633422]}},
{"type":"Feature","properties":{"fid":34,"id":"node/13711383635","@id":"node/13711383635","access":"customers","addr:floor":null,"amenity":"toilets","building":null,"changing_table":null,"check_date":null,"fee":null,"female":null,"level":"0","male":null,"operator":null,"payment:cash":null,"payment:coins":null,"payment:credit_cards":null,"payment:visa":null,"toilets:disposal":null,"toilets:handwashing":null,"unisex":null,"wheelchair":null},"geometry":{"type":"Point","coordinates":[-74.0803565,4.6637689]}},
{"type":"Feature","properties":{"fid":35,"id":"node/13711383636","@id":"node/13711383636","access":"customers","addr:floor":null,"amenity":"toilets","building":null,"changing_table":null,"check_date":null,"fee":null,"female":"yes","level":"0","male":null,"operator":null,"payment:cash":null,"payment:coins":null,"payment:credit_cards":null,"payment:visa":null,"toilets:disposal":null,"toilets:handwashing":null,"unisex":null,"wheelchair":null},"geometry":{"type":"Point","coordinates":[-74.0801912,4.663848]}},
{"type":"Feature","properties":{"fid":36,"id":"node/13711383637","@id":"node/13711383637","access":"customers","addr:floor":null,"amenity":"toilets","building":null,"changing_table":null,"check_date":null,"fee":null,"female":null,"level":"0","male":"yes","operator":null,"payment:cash":null,"payment:coins":null,"payment:credit_cards":null,"payment:visa":null,"toilets:disposal":null,"toilets:handwashing":null,"unisex":null,"wheelchair":null},"geometry":{"type":"Point","coordinates":[-74.0801837,4.6639833]}},
{"type":"Feature","properties":{"fid":37,"id":"node/13738901802","@id":"node/13738901802","access":null,"addr:floor":null,"amenity":"toilets","building":null,"changing_table":null,"check_date":null,"fee":null,"female":null,"level":null,"male":null,"operator":null,"payment:cash":null,"payment:coins":null,"payment:credit_cards":null,"payment:visa":null,"toilets:disposal":null,"toilets:handwashing":null,"unisex":null,"wheelchair":null},"geometry":{"type":"Point","coordinates":[-74.062268800000012,4.7234193]}}
]
}
