{
"type": "FeatureCollection",
"name": "roda_cicloparqueaderos_principales",
"crs": { "type": "name", "properties": { "name": "urn:ogc:def:crs:OGC:1.3:CRS84" } },
"features": [
{"type":"Feature","properties":{"fid":2,"OBJECTID":2,"ID_CICLOPARQUEDERO":1001,"CIV":19002092,"CLASECICLOP":"F","NOMBRECICLOP":"Centro de salud candelaria","SECTORCICLOP":"2","TIPOUSUARIOCICLOP":"2","LOCALIDAD":"6","DIRECCIONCICLOP":"KR 51 59C SUR 40","HORARIOCICLOP":"L-V 07:00 - 20:00","TIPOLOGIACICLOP":"8","CUPOCICLOP":48,"SELLOCICLOP":"1","ANOCICLOP":2023,"GLOBALID":"{10C4AEE1-AC03-4E39-B341-DFA828AC2B84}"},"geometry":{"type":"Point","coordinates":[-74.155887235000023,4.580252085849562]}},
{"type":"Feature","properties":{"fid":5,"OBJECTID":5,"ID_CICLOPARQUEDERO":1004,"CIV":19014419,"CLASECICLOP":"F","NOMBRECICLOP":"Makro Villa del rio","SECTORCICLOP":"2","TIPOUSUARIOCICLOP":"1","LOCALIDAD":"8","DIRECCIONCICLOP":"KR 63 57G 47","HORARIOCICLOP":"L-D 08:00 - 20:00","TIPOLOGIACICLOP":"8","CUPOCICLOP":46,"SELLOCICLOP":"2","ANOCICLOP":2023,"GLOBALID":"{58AF8A4E-1217-4D38-BB2B-6F8637018886}"},"geometry":{"type":"Point","coordinates":[-74.152782693,4.596582901849082]}},
{"type":"Feature","properties":{"fid":7,"OBJECTID":7,"ID_CICLOPARQUEDERO":1006,"CIV":1006852,"CLASECICLOP":"F","NOMBRECICLOP":"GIZ","SECTORCICLOP":"2","TIPOUSUARIOCICLOP":"2","LOCALIDAD":"1","DIRECCIONCICLOP":"CL 125 19 24","HORARIOCICLOP":"L-V 07:00 - 15:00","TIPOLOGIACICLOP":"8","CUPOCICLOP":52,"SELLOCICLOP":"1","ANOCICLOP":2023,"GLOBALID":"{C78CA34C-E9E2-4C18-AC15-EB1CE60F6888}"},"geometry":{"type":"Point","coordinates":[-74.049204364,4.704419270845553]}},
{"type":"Feature","properties":{"fid":8,"OBJECTID":8,"ID_CICLOPARQUEDERO":1007,"CIV":8014521,"CLASECICLOP":"F","NOMBRECICLOP":"Centro comercial El Edén","SECTORCICLOP":"2","TIPOUSUARIOCICLOP":"1","LOCALIDAD":"8","DIRECCIONCICLOP":"AV BOYACA 12B 18","HORARIOCICLOP":"L-D 08:00 - 22:00","TIPOLOGIACICLOP":"8","CUPOCICLOP":709,"SELLOCICLOP":"1","ANOCICLOP":2023,"GLOBALID":"{4D853BD3-A344-460D-A0A8-E3F8D48B0D37}"},"geometry":{"type":"Point","coordinates":[-74.128958222,4.646597290847407]}},
{"type":"Feature","properties":{"fid":9,"OBJECTID":9,"ID_CICLOPARQUEDERO":1008,"CIV":9003584,"CLASECICLOP":"F","NOMBRECICLOP":"Carvajal","SECTORCICLOP":"2","TIPOUSUARIOCICLOP":"2","LOCALIDAD":"10","DIRECCIONCICLOP":"AV CL 26 90 10","HORARIOCICLOP":"L-D 06:00 - 19:00","TIPOLOGIACICLOP":"8","CUPOCICLOP":300,"SELLOCICLOP":"1","ANOCICLOP":2023,"GLOBALID":"{1F1D6596-A062-49F8-A929-AD5253F477EC}"},"geometry":{"type":"Point","coordinates":[-74.10915202000001,4.661616313846952]}},
{"type":"Feature","properties":{"fid":10,"OBJECTID":10,"ID_CICLOPARQUEDERO":1009,"CIV":19015232,"CLASECICLOP":"F","NOMBRECICLOP":"Alcaldia Local Ciudad Bolivar","SECTORCICLOP":"1","TIPOUSUARIOCICLOP":"1","LOCALIDAD":"19","DIRECCIONCICLOP":"DG 62 SUR 20F 20","HORARIOCICLOP":"L-V 08:00 - 16:30","TIPOLOGIACICLOP":"8","CUPOCICLOP":74,"SELLOCICLOP":"1","ANOCICLOP":2023,"GLOBALID":"{B892A446-EE5D-4A12-B4C1-B94224C36240}"},"geometry":{"type":"Point","coordinates":[-74.143498580000028,4.566180306850064]}},
{"type":"Feature","properties":{"fid":13,"OBJECTID":13,"ID_CICLOPARQUEDERO":1012,"CIV":8013589,"CLASECICLOP":"I","NOMBRECICLOP":"Portal Américas","SECTORCICLOP":"1","TIPOUSUARIOCICLOP":"1","LOCALIDAD":"8","DIRECCIONCICLOP":"Troncal Americas","HORARIOCICLOP":"L-D 05:00 - 24:00","TIPOLOGIACICLOP":"3","CUPOCICLOP":785,"SELLOCICLOP":"1","ANOCICLOP":2018,"GLOBALID":"{0D86BC54-EB44-40B3-B77F-9AAB5E6E55EB}"},"geometry":{"type":"Point","coordinates":[-74.172942,4.629053999847997]}},
{"type":"Feature","properties":{"fid":14,"OBJECTID":14,"ID_CICLOPARQUEDERO":1013,"CIV":8003671,"CLASECICLOP":"I","NOMBRECICLOP":"Estación Transversal 86","SECTORCICLOP":"1","TIPOUSUARIOCICLOP":"1","LOCALIDAD":"8","DIRECCIONCICLOP":"Troncal Americas","HORARIOCICLOP":"L-D 05:00 - 24:00","TIPOLOGIACICLOP":"3","CUPOCICLOP":84,"SELLOCICLOP":"1","ANOCICLOP":2018,"GLOBALID":"{40BED75C-F3B4-48BF-806C-FF75219EBF46}"},"geometry":{"type":"Point","coordinates":[-74.152953,4.635052999847838]}},
{"type":"Feature","properties":{"fid":15,"OBJECTID":15,"ID_CICLOPARQUEDERO":1014,"CIV":8004360,"CLASECICLOP":"I","NOMBRECICLOP":"Estación Banderas","SECTORCICLOP":"1","TIPOUSUARIOCICLOP":"1","LOCALIDAD":"8","DIRECCIONCICLOP":"Troncal Americas","HORARIOCICLOP":"L-D 05:00 - 24:00","TIPOLOGIACICLOP":"3","CUPOCICLOP":164,"SELLOCICLOP":"1","ANOCICLOP":2018,"GLOBALID":"{38127E6B-EE07-40B8-8D80-2E28BAF02936}"},"geometry":{"type":"Point","coordinates":[-74.145546,4.631255999847942]}},
{"type":"Feature","properties":{"fid":16,"OBJECTID":16,"ID_CICLOPARQUEDERO":1015,"CIV":8013741,"CLASECICLOP":"I","NOMBRECICLOP":"Estación Mundo Aventura","SECTORCICLOP":"1","TIPOUSUARIOCICLOP":"1","LOCALIDAD":"8","DIRECCIONCICLOP":"Troncal Americas","HORARIOCICLOP":"L-D 05:00 - 24:00","TIPOLOGIACICLOP":"1","CUPOCICLOP":32,"SELLOCICLOP":"1","ANOCICLOP":2018,"GLOBALID":"{AE7118D9-45BA-4387-8166-95CDA960A9AA}"},"geometry":{"type":"Point","coordinates":[-74.135224,4.630139998847965]}},
{"type":"Feature","properties":{"fid":17,"OBJECTID":17,"ID_CICLOPARQUEDERO":1016,"CIV":8004666,"CLASECICLOP":"I","NOMBRECICLOP":"Estación Marsella","SECTORCICLOP":"1","TIPOUSUARIOCICLOP":"1","LOCALIDAD":"8","DIRECCIONCICLOP":"Troncal Americas","HORARIOCICLOP":"L-D 05:00 - 24:00","TIPOLOGIACICLOP":"1","CUPOCICLOP":32,"SELLOCICLOP":"1","ANOCICLOP":2018,"GLOBALID":"{0C5697A7-0397-4BB3-B187-DED83F76D824}"},"geometry":{"type":"Point","coordinates":[-74.128603,4.62948799984797]}},
{"type":"Feature","properties":{"fid":18,"OBJECTID":18,"ID_CICLOPARQUEDERO":1017,"CIV":16000291,"CLASECICLOP":"I","NOMBRECICLOP":"Estación Pradera","SECTORCICLOP":"1","TIPOUSUARIOCICLOP":"1","LOCALIDAD":"16","DIRECCIONCICLOP":"Troncal Americas","HORARIOCICLOP":"L-D 05:00 - 24:00","TIPOLOGIACICLOP":"1","CUPOCICLOP":32,"SELLOCICLOP":"1","ANOCICLOP":2018,"GLOBALID":"{478A72EA-B2C5-4863-93C6-F5CEE3DC4313}"},"geometry":{"type":"Point","coordinates":[-74.119685,4.628608999848]}},
{"type":"Feature","properties":{"fid":19,"OBJECTID":19,"ID_CICLOPARQUEDERO":1018,"CIV":7009012,"CLASECICLOP":"I","NOMBRECICLOP":"Portal del Sur","SECTORCICLOP":"1","TIPOUSUARIOCICLOP":"1","LOCALIDAD":"19","DIRECCIONCICLOP":"Troncal NQS Sur","HORARIOCICLOP":"L-D 05:00 - 24:00","TIPOLOGIACICLOP":"3","CUPOCICLOP":961,"SELLOCICLOP":"1","ANOCICLOP":2018,"GLOBALID":"{4AE4B9F2-B7A8-42E5-BE8A-A045342E32DF}"},"geometry":{"type":"Point","coordinates":[-74.169351,4.596726999849035]}},
{"type":"Feature","properties":{"fid":20,"OBJECTID":20,"ID_CICLOPARQUEDERO":1019,"CIV":16005114,"CLASECICLOP":"I","NOMBRECICLOP":"Estación General Santander","SECTORCICLOP":"1","TIPOUSUARIOCICLOP":"1","LOCALIDAD":"16","DIRECCIONCICLOP":"Troncal NQS Sur","HORARIOCICLOP":"L-D 05:00 - 24:00","TIPOLOGIACICLOP":"3","CUPOCICLOP":48,"SELLOCICLOP":"1","ANOCICLOP":2018,"GLOBALID":"{8ED31880-C301-43E5-B911-3C2B353B6067}"},"geometry":{"type":"Point","coordinates":[-74.128297,4.593475998849179]}},
{"type":"Feature","properties":{"fid":21,"OBJECTID":21,"ID_CICLOPARQUEDERO":1020,"CIV":14000289,"CLASECICLOP":"I","NOMBRECICLOP":"Estación Ricaurte","SECTORCICLOP":"1","TIPOUSUARIOCICLOP":"1","LOCALIDAD":"14","DIRECCIONCICLOP":"Troncal NQS Central","HORARIOCICLOP":"L-D 05:00 - 24:00","TIPOLOGIACICLOP":"2","CUPOCICLOP":185,"SELLOCICLOP":"1","ANOCICLOP":2018,"GLOBALID":"{73AB642B-AACE-4FE5-A244-08BC978C1E6C}"},"geometry":{"type":"Point","coordinates":[-74.090292,4.61280899984855]}},
{"type":"Feature","properties":{"fid":22,"OBJECTID":22,"ID_CICLOPARQUEDERO":1021,"CIV":3000873,"CLASECICLOP":"I","NOMBRECICLOP":"Estación Bicentenario","SECTORCICLOP":"1","TIPOUSUARIOCICLOP":"1","LOCALIDAD":"3","DIRECCIONCICLOP":"Troncal AV 10","HORARIOCICLOP":"L-D 05:00 - 24:00","TIPOLOGIACICLOP":"3","CUPOCICLOP":116,"SELLOCICLOP":"1","ANOCICLOP":2018,"GLOBALID":"{B0B09510-E05A-487D-9DB0-1949A38D3887}"},"geometry":{"type":"Point","coordinates":[-74.082115,4.593584999849178]}},
{"type":"Feature","properties":{"fid":23,"OBJECTID":23,"ID_CICLOPARQUEDERO":1022,"CIV":4008127,"CLASECICLOP":"I","NOMBRECICLOP":"Portal 20 de Julio","SECTORCICLOP":"1","TIPOUSUARIOCICLOP":"1","LOCALIDAD":"4","DIRECCIONCICLOP":"Troncal AV 10","HORARIOCICLOP":"L-D 05:00 - 24:00","TIPOLOGIACICLOP":"3","CUPOCICLOP":216,"SELLOCICLOP":"1","ANOCICLOP":2018,"GLOBALID":"{B6B985A3-8728-45A2-B2B9-256F487B0414}"},"geometry":{"type":"Point","coordinates":[-74.097222,4.565472998850074]}},
{"type":"Feature","properties":{"fid":24,"OBJECTID":24,"ID_CICLOPARQUEDERO":1023,"CIV":9001736,"CLASECICLOP":"I","NOMBRECICLOP":"Portal El Dorado","SECTORCICLOP":"1","TIPOUSUARIOCICLOP":"1","LOCALIDAD":"6","DIRECCIONCICLOP":"Troncal Calle 26","HORARIOCICLOP":"L-D 05:00 - 24:00","TIPOLOGIACICLOP":"3","CUPOCICLOP":532,"SELLOCICLOP":"1","ANOCICLOP":2018,"GLOBALID":"{EC9EC764-427E-4738-B1F3-C3A274B95AA2}"},"geometry":{"type":"Point","coordinates":[-74.120627,4.680425999846343]}},
{"type":"Feature","properties":{"fid":25,"OBJECTID":25,"ID_CICLOPARQUEDERO":1024,"CIV":9004511,"CLASECICLOP":"I","NOMBRECICLOP":"Estación Av. Rojas","SECTORCICLOP":"1","TIPOUSUARIOCICLOP":"1","LOCALIDAD":"10","DIRECCIONCICLOP":"Troncal Calle 26","HORARIOCICLOP":"L-D 05:00 - 24:00","TIPOLOGIACICLOP":"1","CUPOCICLOP":104,"SELLOCICLOP":"1","ANOCICLOP":2018,"GLOBALID":"{2FA961A3-1FDB-48A7-8842-C67916F27E98}"},"geometry":{"type":"Point","coordinates":[-74.108907,4.66215099984692]}},
{"type":"Feature","properties":{"fid":26,"OBJECTID":26,"ID_CICLOPARQUEDERO":1025,"CIV":13002752,"CLASECICLOP":"I","NOMBRECICLOP":"Estación Quinta Paredes","SECTORCICLOP":"1","TIPOUSUARIOCICLOP":"1","LOCALIDAD":"13","DIRECCIONCICLOP":"Troncal Calle 26","HORARIOCICLOP":"L-D 05:00 - 24:00","TIPOLOGIACICLOP":"1","CUPOCICLOP":48,"SELLOCICLOP":"1","ANOCICLOP":2018,"GLOBALID":"{35121EB2-B606-412B-AC02-B7D9F7EF3EDD}"},"geometry":{"type":"Point","coordinates":[-74.092526,4.636561999847781]}},
{"type":"Feature","properties":{"fid":27,"OBJECTID":27,"ID_CICLOPARQUEDERO":1026,"CIV":0,"CLASECICLOP":"I","NOMBRECICLOP":"Portal 80","SECTORCICLOP":"1","TIPOUSUARIOCICLOP":"1","LOCALIDAD":"10","DIRECCIONCICLOP":"Troncal Calle 80","HORARIOCICLOP":"L-D 05:00 - 24:00","TIPOLOGIACICLOP":"3","CUPOCICLOP":333,"SELLOCICLOP":"1","ANOCICLOP":2018,"GLOBALID":"{CA73DC9B-4FA5-4B24-8CCC-2EB502A371AB}"},"geometry":{"type":"Point","coordinates":[-74.110413,4.709574999845358]}},
{"type":"Feature","properties":{"fid":28,"OBJECTID":28,"ID_CICLOPARQUEDERO":1027,"CIV":6002051,"CLASECICLOP":"I","NOMBRECICLOP":"Portal Tunal","SECTORCICLOP":"1","TIPOUSUARIOCICLOP":"1","LOCALIDAD":"19","DIRECCIONCICLOP":"Cable","HORARIOCICLOP":"L-D 05:00 - 24:00","TIPOLOGIACICLOP":"3","CUPOCICLOP":437,"SELLOCICLOP":"1","ANOCICLOP":2019,"GLOBALID":"{3A736772-2747-458E-B11F-F3FA28896EDD}"},"geometry":{"type":"Point","coordinates":[-74.139671,4.571801999849852]}},
{"type":"Feature","properties":{"fid":29,"OBJECTID":29,"ID_CICLOPARQUEDERO":1028,"CIV":15001414,"CLASECICLOP":"I","NOMBRECICLOP":"Estación Intermedia Av. Primero de Mayo","SECTORCICLOP":"1","TIPOUSUARIOCICLOP":"1","LOCALIDAD":"4","DIRECCIONCICLOP":"Troncal AV 10","HORARIOCICLOP":"L-D 05:00 - 24:00","TIPOLOGIACICLOP":"2","CUPOCICLOP":228,"SELLOCICLOP":"1","ANOCICLOP":2019,"GLOBALID":"{FC1657D8-2266-4A63-90A7-F631D07EDA61}"},"geometry":{"type":"Point","coordinates":[-74.093165563000014,4.577385345849707]}},
{"type":"Feature","properties":{"fid":33,"OBJECTID":33,"ID_CICLOPARQUEDERO":1032,"CIV":2000148,"CLASECICLOP":"F","NOMBRECICLOP":"City Parking Edificio Pijao","SECTORCICLOP":"2","TIPOUSUARIOCICLOP":"1","LOCALIDAD":"2","DIRECCIONCICLOP":"AK 11 # 98 07","HORARIOCICLOP":"L-D 24h","TIPOLOGIACICLOP":"8","CUPOCICLOP":90,"SELLOCICLOP":"1","ANOCICLOP":2016,"GLOBALID":"{4457AC33-A1CC-47E6-9F3E-A31A1A7E4C13}"},"geometry":{"type":"Point","coordinates":[-74.044284,4.681123999846318]}},
{"type":"Feature","properties":{"fid":34,"OBJECTID":34,"ID_CICLOPARQUEDERO":1033,"CIV":1006461,"CLASECICLOP":"F","NOMBRECICLOP":"City Parking Capital Tower","SECTORCICLOP":"2","TIPOUSUARIOCICLOP":"1","LOCALIDAD":"2","DIRECCIONCICLOP":"AC 100 #7 33","HORARIOCICLOP":"L-V 05:30 - 22:00  S 06:00 - 14:00","TIPOLOGIACICLOP":"8","CUPOCICLOP":80,"SELLOCICLOP":"1","ANOCICLOP":2016,"GLOBALID":"{6668C19D-10C6-45A5-892B-272F909898B4}"},"geometry":{"type":"Point","coordinates":[-74.039336,4.680179998846356]}},
{"type":"Feature","properties":{"fid":35,"OBJECTID":35,"ID_CICLOPARQUEDERO":1034,"CIV":1005818,"CLASECICLOP":"F","NOMBRECICLOP":"City Parking MegaTower","SECTORCICLOP":"2","TIPOUSUARIOCICLOP":"1","LOCALIDAD":"2","DIRECCIONCICLOP":"AC 100 # 13 21","HORARIOCICLOP":"L-S 06:00 - 21:00","TIPOLOGIACICLOP":"8","CUPOCICLOP":126,"SELLOCICLOP":"1","ANOCICLOP":2016,"GLOBALID":"{6CDA6D18-4DC2-411A-87F8-6EBA79739231}"},"geometry":{"type":"Point","coordinates":[-74.046241,4.683735999846234]}},
{"type":"Feature","properties":{"fid":36,"OBJECTID":36,"ID_CICLOPARQUEDERO":1035,"CIV":1008117,"CLASECICLOP":"F","NOMBRECICLOP":"City Parking 125","SECTORCICLOP":"2","TIPOUSUARIOCICLOP":"1","LOCALIDAD":"1","DIRECCIONCICLOP":"AK 19 # 125 17","HORARIOCICLOP":"L-V 06:00 - 22:30   S 07:00 - 23:00   D-F 07:00 -*","TIPOLOGIACICLOP":"8","CUPOCICLOP":50,"SELLOCICLOP":"1","ANOCICLOP":2016,"GLOBALID":"{2BB74C0B-5ED7-46AB-A4AA-595CA94CC4EA}"},"geometry":{"type":"Point","coordinates":[-74.049065,4.704795999845524]}},
{"type":"Feature","properties":{"fid":37,"OBJECTID":37,"ID_CICLOPARQUEDERO":1036,"CIV":1004594,"CLASECICLOP":"F","NOMBRECICLOP":"Centro Comercial Santa Barbara Drive","SECTORCICLOP":"2","TIPOUSUARIOCICLOP":"1","LOCALIDAD":"1","DIRECCIONCICLOP":"AK 19 # 122 49","HORARIOCICLOP":"L-D 06:00 - 22:00","TIPOLOGIACICLOP":"8","CUPOCICLOP":40,"SELLOCICLOP":"1","ANOCICLOP":2016,"GLOBALID":"{64FD53FC-C1D7-476C-9F9E-6E2311C92681}"},"geometry":{"type":"Point","coordinates":[-74.049459,4.702419999845632]}},
{"type":"Feature","properties":{"fid":39,"OBJECTID":39,"ID_CICLOPARQUEDERO":1038,"CIV":1005061,"CLASECICLOP":"F","NOMBRECICLOP":"City Parking Medical Center","SECTORCICLOP":"2","TIPOUSUARIOCICLOP":"1","LOCALIDAD":"1","DIRECCIONCICLOP":"CL 119 # 7 14","HORARIOCICLOP":"L-D 24h","TIPOLOGIACICLOP":"8","CUPOCICLOP":21,"SELLOCICLOP":"1","ANOCICLOP":2016,"GLOBALID":"{0629422C-DB6C-48E6-B1DD-31B4092974E6}"},"geometry":{"type":"Point","coordinates":[-74.032186,4.696117999845827]}},
{"type":"Feature","properties":{"fid":40,"OBJECTID":40,"ID_CICLOPARQUEDERO":1039,"CIV":2000589,"CLASECICLOP":"F","NOMBRECICLOP":"Terminal de Transporte Country 85","SECTORCICLOP":"2","TIPOUSUARIOCICLOP":"1","LOCALIDAD":"2","DIRECCIONCICLOP":"CL 85 # 16 07","HORARIOCICLOP":"L-D 24h","TIPOLOGIACICLOP":"8","CUPOCICLOP":60,"SELLOCICLOP":"1","ANOCICLOP":2016,"GLOBALID":"{F9163DE2-8BE9-4FC0-A8FB-8781D87B1541}"},"geometry":{"type":"Point","coordinates":[-74.056267,4.670048999846673]}},
{"type":"Feature","properties":{"fid":42,"OBJECTID":42,"ID_CICLOPARQUEDERO":1041,"CIV":1005619,"CLASECICLOP":"F","NOMBRECICLOP":"City Parking BodyTech Plaza","SECTORCICLOP":"2","TIPOUSUARIOCICLOP":"1","LOCALIDAD":"1","DIRECCIONCICLOP":"AK 19 # 102 31","HORARIOCICLOP":"L-V 04:00 - 22:00   S 05:30 - 21:00","TIPOLOGIACICLOP":"8","CUPOCICLOP":22,"SELLOCICLOP":"1","ANOCICLOP":2016,"GLOBALID":"{FC11A5DA-9307-41EB-8603-AC9D63E2E0B8}"},"geometry":{"type":"Point","coordinates":[-74.051902,4.687893999846056]}},
{"type":"Feature","properties":{"fid":43,"OBJECTID":43,"ID_CICLOPARQUEDERO":3358,"CIV":10011692,"CLASECICLOP":"F","NOMBRECICLOP":"City Parking World Business Center","SECTORCICLOP":"2","TIPOUSUARIOCICLOP":"1","LOCALIDAD":"10","DIRECCIONCICLOP":"AK 85A 46A-45","HORARIOCICLOP":"L-V 06:00 - 20:00   S-D 06:00 - 14:00","TIPOLOGIACICLOP":"4","CUPOCICLOP":24,"SELLOCICLOP":"1","ANOCICLOP":2024,"GLOBALID":"{2F17DB15-24AC-4E0F-BDE2-C369392A966F}"},"geometry":{"type":"Point","coordinates":[-74.116915466000023,4.680273637846348]}},
{"type":"Feature","properties":{"fid":46,"OBJECTID":46,"ID_CICLOPARQUEDERO":1045,"CIV":2000429,"CLASECICLOP":"F","NOMBRECICLOP":"Microsoft","SECTORCICLOP":"2","TIPOUSUARIOCICLOP":"2","LOCALIDAD":"2","DIRECCIONCICLOP":"CL 92 # 11 51","HORARIOCICLOP":"L-V 07:00 - 20:00","TIPOLOGIACICLOP":"8","CUPOCICLOP":25,"SELLOCICLOP":"1","ANOCICLOP":2016,"GLOBALID":"{92983286-7566-4D73-9F69-3DE2092B23D5}"},"geometry":{"type":"Point","coordinates":[-74.048377,4.673599999846575]}},
{"type":"Feature","properties":{"fid":47,"OBJECTID":47,"ID_CICLOPARQUEDERO":1046,"CIV":17000059,"CLASECICLOP":"F","NOMBRECICLOP":"Universidad del Rosario","SECTORCICLOP":"2","TIPOUSUARIOCICLOP":"2","LOCALIDAD":"17","DIRECCIONCICLOP":"CL 12C # 6 25","HORARIOCICLOP":"L-V 07:00 - 20:00","TIPOLOGIACICLOP":"8","CUPOCICLOP":185,"SELLOCICLOP":"1","ANOCICLOP":2016,"GLOBALID":"{1F25404D-A4F6-40F4-8EBA-D7D3ABBC1314}"},"geometry":{"type":"Point","coordinates":[-74.073113,4.600435999848932]}},
{"type":"Feature","properties":{"fid":48,"OBJECTID":48,"ID_CICLOPARQUEDERO":1047,"CIV":11014197,"CLASECICLOP":"F","NOMBRECICLOP":"Bavaria","SECTORCICLOP":"2","TIPOUSUARIOCICLOP":"2","LOCALIDAD":"11","DIRECCIONCICLOP":"KR 53A # 127 35","HORARIOCICLOP":"L-V 07:00 - 22:00","TIPOLOGIACICLOP":"8","CUPOCICLOP":99,"SELLOCICLOP":"1","ANOCICLOP":2016,"GLOBALID":"{9071431D-CCD8-4B83-8965-C0D658D82EFA}"},"geometry":{"type":"Point","coordinates":[-74.061703,4.708857999845422]}},
{"type":"Feature","properties":{"fid":50,"OBJECTID":50,"ID_CICLOPARQUEDERO":1049,"CIV":2002187,"CLASECICLOP":"F","NOMBRECICLOP":"Parking International Hotel Atton","SECTORCICLOP":"2","TIPOUSUARIOCICLOP":"1","LOCALIDAD":"2","DIRECCIONCICLOP":"CL 93 # 12 41","HORARIOCICLOP":"L-J 08:00 - 17:00  V-S 09:00 - 21:00","TIPOLOGIACICLOP":"8","CUPOCICLOP":16,"SELLOCICLOP":"1","ANOCICLOP":2016,"GLOBALID":"{87F9D00B-0C29-43D1-9007-660F6D357304}"},"geometry":{"type":"Point","coordinates":[-74.049286,4.675159999846508]}},
{"type":"Feature","properties":{"fid":51,"OBJECTID":51,"ID_CICLOPARQUEDERO":1050,"CIV":2001837,"CLASECICLOP":"F","NOMBRECICLOP":"City Parking Universidad Catolica de Colombia","SECTORCICLOP":"2","TIPOUSUARIOCICLOP":"1","LOCALIDAD":"2","DIRECCIONCICLOP":"AK 13 # CL 47 30","HORARIOCICLOP":"L-V 05:30 - 21:23  S 06:00 - 18:00","TIPOLOGIACICLOP":"8","CUPOCICLOP":40,"SELLOCICLOP":"1","ANOCICLOP":2016,"GLOBALID":"{206FD93D-554D-4A4F-94B8-34F1D236D6A8}"},"geometry":{"type":"Point","coordinates":[-74.065942,4.634479999847826]}},
{"type":"Feature","properties":{"fid":53,"OBJECTID":53,"ID_CICLOPARQUEDERO":1052,"CIV":3002336,"CLASECICLOP":"F","NOMBRECICLOP":"Torre Colpatria","SECTORCICLOP":"2","TIPOUSUARIOCICLOP":"2","LOCALIDAD":"3","DIRECCIONCICLOP":"KR 7 24 89","HORARIOCICLOP":"L-V 05:30 - 22:00  S 06:00 - 14:00","TIPOLOGIACICLOP":"8","CUPOCICLOP":265,"SELLOCICLOP":"1","ANOCICLOP":2016,"GLOBALID":"{A2D6927E-9D7D-4894-B147-37608F28AEB4}"},"geometry":{"type":"Point","coordinates":[-74.070063,4.610985999848615]}},
{"type":"Feature","properties":{"fid":54,"OBJECTID":54,"ID_CICLOPARQUEDERO":1053,"CIV":1006271,"CLASECICLOP":"F","NOMBRECICLOP":"Universidad Escuela Colombiana de Ingenieria","SECTORCICLOP":"2","TIPOUSUARIOCICLOP":"2","LOCALIDAD":"11","DIRECCIONCICLOP":"AK 45 205 59","HORARIOCICLOP":"L-D 08:00 - 20:00","TIPOLOGIACICLOP":"8","CUPOCICLOP":200,"SELLOCICLOP":"1","ANOCICLOP":2016,"GLOBALID":"{4A199B7F-145F-4155-9A03-BE1F1D1F8157}"},"geometry":{"type":"Point","coordinates":[-74.041619,4.78341799984296]}},
{"type":"Feature","properties":{"fid":55,"OBJECTID":55,"ID_CICLOPARQUEDERO":1054,"CIV":13002758,"CLASECICLOP":"F","NOMBRECICLOP":"Instituto Nacional de Salud","SECTORCICLOP":"1","TIPOUSUARIOCICLOP":"1","LOCALIDAD":"13","DIRECCIONCICLOP":"CL 26 51 20","HORARIOCICLOP":"L-V 07:00 - 20:00","TIPOLOGIACICLOP":"8","CUPOCICLOP":45,"SELLOCICLOP":"1","ANOCICLOP":2017,"GLOBALID":"{62FAE4C7-8EA1-418E-8ABD-B555500C2AA5}"},"geometry":{"type":"Point","coordinates":[-74.094948,4.641434999847596]}},
{"type":"Feature","properties":{"fid":56,"OBJECTID":56,"ID_CICLOPARQUEDERO":1055,"CIV":1006377,"CLASECICLOP":"F","NOMBRECICLOP":"Centro Comercial Santafé","SECTORCICLOP":"2","TIPOUSUARIOCICLOP":"1","LOCALIDAD":"11","DIRECCIONCICLOP":"AK 45 183 49","HORARIOCICLOP":"L-D 06:00 - 11:00","TIPOLOGIACICLOP":"8","CUPOCICLOP":370,"SELLOCICLOP":"1","ANOCICLOP":2017,"GLOBALID":"{D996AA4C-9FF0-483F-B1ED-704DEC87B010}"},"geometry":{"type":"Point","coordinates":[-74.045163,4.76188599984368]}},
{"type":"Feature","properties":{"fid":57,"OBJECTID":57,"ID_CICLOPARQUEDERO":1056,"CIV":2002073,"CLASECICLOP":"F","NOMBRECICLOP":"Universidad Pontificia Universidad Javeriana","SECTORCICLOP":"2","TIPOUSUARIOCICLOP":"2","LOCALIDAD":"2","DIRECCIONCICLOP":"KR 7 40 62","HORARIOCICLOP":"L-V 06.00 - 22:00   S-D 06:00 - 12:00","TIPOLOGIACICLOP":"8","CUPOCICLOP":382,"SELLOCICLOP":"1","ANOCICLOP":2017,"GLOBALID":"{159F6C1F-6E52-42E3-8F80-2C09C5C22E3A}"},"geometry":{"type":"Point","coordinates":[-74.063135,4.629054999847992]}},
{"type":"Feature","properties":{"fid":59,"OBJECTID":59,"ID_CICLOPARQUEDERO":1058,"CIV":11008720,"CLASECICLOP":"F","NOMBRECICLOP":"Centro Comercial Paseo San Rafael","SECTORCICLOP":"2","TIPOUSUARIOCICLOP":"1","LOCALIDAD":"11","DIRECCIONCICLOP":"CL 134 55 30","HORARIOCICLOP":"L-D 06:00 - 22:00","TIPOLOGIACICLOP":"8","CUPOCICLOP":110,"SELLOCICLOP":"1","ANOCICLOP":2017,"GLOBALID":"{A2D3DBAF-5DFE-4BD7-AF44-9FAA714F52F1}"},"geometry":{"type":"Point","coordinates":[-74.062508,4.722874999844937]}},
{"type":"Feature","properties":{"fid":61,"OBJECTID":61,"ID_CICLOPARQUEDERO":1060,"CIV":11014520,"CLASECICLOP":"F","NOMBRECICLOP":"Centro Comercial Plaza Imperial","SECTORCICLOP":"2","TIPOUSUARIOCICLOP":"1","LOCALIDAD":"11","DIRECCIONCICLOP":"AK 104 148 07","HORARIOCICLOP":"L-D 07:00 - 22:00","TIPOLOGIACICLOP":"8","CUPOCICLOP":180,"SELLOCICLOP":"1","ANOCICLOP":2017,"GLOBALID":"{DF7185E7-C2AD-4013-9733-367A3654753A}"},"geometry":{"type":"Point","coordinates":[-74.095371,4.74859199884409]}},
{"type":"Feature","properties":{"fid":63,"OBJECTID":63,"ID_CICLOPARQUEDERO":1062,"CIV":8002084,"CLASECICLOP":"F","NOMBRECICLOP":"Centro Comercial Tintal","SECTORCICLOP":"2","TIPOUSUARIOCICLOP":"1","LOCALIDAD":"8","DIRECCIONCICLOP":"AK 86 6 37","HORARIOCICLOP":"L-D 6:00 - 23:00","TIPOLOGIACICLOP":"8","CUPOCICLOP":100,"SELLOCICLOP":"1","ANOCICLOP":2017,"GLOBALID":"{E2402822-0784-4107-BF6A-C5BCA1D25372}"},"geometry":{"type":"Point","coordinates":[-74.155412,4.641768999847598]}},
{"type":"Feature","properties":{"fid":64,"OBJECTID":64,"ID_CICLOPARQUEDERO":1063,"CIV":8007379,"CLASECICLOP":"F","NOMBRECICLOP":"Centro Comercial Plaza de las Americas","SECTORCICLOP":"2","TIPOUSUARIOCICLOP":"1","LOCALIDAD":"8","DIRECCIONCICLOP":"KR 71 D 6 94 SUR","HORARIOCICLOP":"L-D 05:00 - 23:00","TIPOLOGIACICLOP":"8","CUPOCICLOP":562,"SELLOCICLOP":"1","ANOCICLOP":2017,"GLOBALID":"{1B6EDDD3-D949-4100-B577-6D1584DB3820}"},"geometry":{"type":"Point","coordinates":[-74.137206,4.61844299984836]}},
{"type":"Feature","properties":{"fid":67,"OBJECTID":67,"ID_CICLOPARQUEDERO":1066,"CIV":3000600,"CLASECICLOP":"F","NOMBRECICLOP":"Universidad Central (Sede Centro)","SECTORCICLOP":"2","TIPOUSUARIOCICLOP":"2","LOCALIDAD":"3","DIRECCIONCICLOP":"CL 21 4 40","HORARIOCICLOP":"L-S 06.00 - 22:30   D 06:00 - 16:00","TIPOLOGIACICLOP":"8","CUPOCICLOP":126,"SELLOCICLOP":"1","ANOCICLOP":2017,"GLOBALID":"{E63D9EC3-08F9-4C82-89B9-34D893329694}"},"geometry":{"type":"Point","coordinates":[-74.068657,4.60560899984878]}},
{"type":"Feature","properties":{"fid":69,"OBJECTID":69,"ID_CICLOPARQUEDERO":1068,"CIV":13002870,"CLASECICLOP":"F","NOMBRECICLOP":"Tribunales - Cundinamarca","SECTORCICLOP":"1","TIPOUSUARIOCICLOP":"1","LOCALIDAD":"13","DIRECCIONCICLOP":"AC 24 53 28","HORARIOCICLOP":"L-V 07:00 - 20:00","TIPOLOGIACICLOP":"8","CUPOCICLOP":93,"SELLOCICLOP":"1","ANOCICLOP":2018,"GLOBALID":"{97801623-1CF0-4708-99D0-583ED7260346}"},"geometry":{"type":"Point","coordinates":[-74.099127,4.640289999847622]}},
{"type":"Feature","properties":{"fid":70,"OBJECTID":70,"ID_CICLOPARQUEDERO":1069,"CIV":11013349,"CLASECICLOP":"F","NOMBRECICLOP":"Centro Comercial Parque La Colina","SECTORCICLOP":"2","TIPOUSUARIOCICLOP":"1","LOCALIDAD":"11","DIRECCIONCICLOP":"KR 72 145 2","HORARIOCICLOP":"L-D 06:30 - 22:30","TIPOLOGIACICLOP":"8","CUPOCICLOP":356,"SELLOCICLOP":"1","ANOCICLOP":2018,"GLOBALID":"{531B7885-32D2-48DD-96EF-ED8BD86A705F}"},"geometry":{"type":"Point","coordinates":[-74.066834,4.73426599984457]}},
{"type":"Feature","properties":{"fid":71,"OBJECTID":71,"ID_CICLOPARQUEDERO":1070,"CIV":9004084,"CLASECICLOP":"F","NOMBRECICLOP":"Corporación de la Industria Aeronautica Colombiana","SECTORCICLOP":"2","TIPOUSUARIOCICLOP":"2","LOCALIDAD":"9","DIRECCIONCICLOP":"AC 26 103 08","HORARIOCICLOP":"L-V 07:00 - 20:00","TIPOLOGIACICLOP":"8","CUPOCICLOP":48,"SELLOCICLOP":"1","ANOCICLOP":2018,"GLOBALID":"{54969658-7F4F-4DBC-9A2E-EDB53A5432B9}"},"geometry":{"type":"Point","coordinates":[-74.131094,4.689224999846068]}},
{"type":"Feature","properties":{"fid":74,"OBJECTID":74,"ID_CICLOPARQUEDERO":1073,"CIV":2001473,"CLASECICLOP":"F","NOMBRECICLOP":"Idipron","SECTORCICLOP":"1","TIPOUSUARIOCICLOP":"1","LOCALIDAD":"2","DIRECCIONCICLOP":"CL 61 7 78","HORARIOCICLOP":"L-V 07:00 - 20:00","TIPOLOGIACICLOP":"8","CUPOCICLOP":24,"SELLOCICLOP":"1","ANOCICLOP":2018,"GLOBALID":"{6592C13E-B23C-4BDD-AE4A-062290264295}"},"geometry":{"type":"Point","coordinates":[-74.061073,4.646479999847426]}},
{"type":"Feature","properties":{"fid":80,"OBJECTID":80,"ID_CICLOPARQUEDERO":1079,"CIV":2001330,"CLASECICLOP":"F","NOMBRECICLOP":"City Parking Calle 64","SECTORCICLOP":"2","TIPOUSUARIOCICLOP":"1","LOCALIDAD":"2","DIRECCIONCICLOP":"CL 64 10 64","HORARIOCICLOP":"L-D 24h","TIPOLOGIACICLOP":"8","CUPOCICLOP":20,"SELLOCICLOP":"1","ANOCICLOP":2019,"GLOBALID":"{5D4DFD99-8E96-408D-8929-DC82FFA7604F}"},"geometry":{"type":"Point","coordinates":[-74.062277,4.650178999847296]}},
{"type":"Feature","properties":{"fid":83,"OBJECTID":83,"ID_CICLOPARQUEDERO":1082,"CIV":2000185,"CLASECICLOP":"F","NOMBRECICLOP":"City Parking Bogotá Trade Center","SECTORCICLOP":"2","TIPOUSUARIOCICLOP":"1","LOCALIDAD":"2","DIRECCIONCICLOP":"KR 10 97 A 13","HORARIOCICLOP":"L-S 07:00 - 16:30","TIPOLOGIACICLOP":"8","CUPOCICLOP":12,"SELLOCICLOP":"1","ANOCICLOP":2019,"GLOBALID":"{3E0BF9C6-7CEC-40CB-B9FE-A296F17FF1D8}"},"geometry":{"type":"Point","coordinates":[-74.043533,4.680323999846321]}},
{"type":"Feature","properties":{"fid":84,"OBJECTID":84,"ID_CICLOPARQUEDERO":1083,"CIV":17000210,"CLASECICLOP":"F","NOMBRECICLOP":"Universidad Externado","SECTORCICLOP":"2","TIPOUSUARIOCICLOP":"2","LOCALIDAD":"17","DIRECCIONCICLOP":"CL 12 1 17 Este","HORARIOCICLOP":"L-V 05:30 - 22:00   S 06:00 - 18:00","TIPOLOGIACICLOP":"8","CUPOCICLOP":104,"SELLOCICLOP":"1","ANOCICLOP":2019,"GLOBALID":"{09CD5205-B8B1-4035-9294-B41FFFA32F38}"},"geometry":{"type":"Point","coordinates":[-74.068907,4.595615999849093]}},
{"type":"Feature","properties":{"fid":85,"OBJECTID":85,"ID_CICLOPARQUEDERO":1084,"CIV":2001875,"CLASECICLOP":"F","NOMBRECICLOP":"Universidad Católica","SECTORCICLOP":"2","TIPOUSUARIOCICLOP":"2","LOCALIDAD":"2","DIRECCIONCICLOP":"KR 13 46 55","HORARIOCICLOP":"L-V: 5:30 - 22:00","TIPOLOGIACICLOP":"8","CUPOCICLOP":38,"SELLOCICLOP":"1","ANOCICLOP":2019,"GLOBALID":"{6E39D752-9EC6-4150-A8F9-4FCC7603DAB2}"},"geometry":{"type":"Point","coordinates":[-74.066162,4.633744999847825]}},
{"type":"Feature","properties":{"fid":86,"OBJECTID":86,"ID_CICLOPARQUEDERO":1085,"CIV":1002897,"CLASECICLOP":"F","NOMBRECICLOP":"City Parking Centro Empresarial North Point","SECTORCICLOP":"2","TIPOUSUARIOCICLOP":"1","LOCALIDAD":"1","DIRECCIONCICLOP":"KR 7 156 80","HORARIOCICLOP":"L-S 05:30 - 22:00  D-F 06:00 - 21:00","TIPOLOGIACICLOP":"8","CUPOCICLOP":36,"SELLOCICLOP":"1","ANOCICLOP":2019,"GLOBALID":"{30BE9C94-6E40-4E2C-93A2-EBE6C1638C43}"},"geometry":{"type":"Point","coordinates":[-74.024128,4.732700999844647]}},
{"type":"Feature","properties":{"fid":87,"OBJECTID":87,"ID_CICLOPARQUEDERO":1086,"CIV":1003846,"CLASECICLOP":"F","NOMBRECICLOP":"City Parking BIOS","SECTORCICLOP":"2","TIPOUSUARIOCICLOP":"1","LOCALIDAD":"1","DIRECCIONCICLOP":"KR 23 134A 21","HORARIOCICLOP":"L-J 05:00 - 23:00  V 05:00 - 21:00  S 07:00 - 18:*","TIPOLOGIACICLOP":"8","CUPOCICLOP":18,"SELLOCICLOP":"1","ANOCICLOP":2019,"GLOBALID":"{A3C01AB1-0ED9-4917-BA91-E8D40CE87D41}"},"geometry":{"type":"Point","coordinates":[-74.050551,4.720140999845049]}},
{"type":"Feature","properties":{"fid":88,"OBJECTID":88,"ID_CICLOPARQUEDERO":1087,"CIV":1007808,"CLASECICLOP":"F","NOMBRECICLOP":"City Parking Cruz Verde 123","SECTORCICLOP":"2","TIPOUSUARIOCICLOP":"1","LOCALIDAD":"1","DIRECCIONCICLOP":"KR 45 123 14","HORARIOCICLOP":"L-V 5:30 - 21:00 S 6:00-21:00D-F 07:00 - 17:00","TIPOLOGIACICLOP":"8","CUPOCICLOP":24,"SELLOCICLOP":"1","ANOCICLOP":2022,"GLOBALID":"{881851FC-2024-403D-9E9B-B5C9E69F52AC}"},"geometry":{"type":"Point","coordinates":[-74.053982,4.704155999845566]}},
{"type":"Feature","properties":{"fid":89,"OBJECTID":89,"ID_CICLOPARQUEDERO":1088,"CIV":1004363,"CLASECICLOP":"F","NOMBRECICLOP":"City Parking Pluss 127","SECTORCICLOP":"2","TIPOUSUARIOCICLOP":"1","LOCALIDAD":"1","DIRECCIONCICLOP":"CL 127 20 16","HORARIOCICLOP":"L-V 06:00 - 21:00  S 06:00 - 16:00","TIPOLOGIACICLOP":"8","CUPOCICLOP":111,"SELLOCICLOP":"1","ANOCICLOP":2019,"GLOBALID":"{E978A236-14DF-4998-8AC9-A5D84DC59EA6}"},"geometry":{"type":"Point","coordinates":[-74.050655,4.70590799984552]}},
{"type":"Feature","properties":{"fid":90,"OBJECTID":90,"ID_CICLOPARQUEDERO":1089,"CIV":1008087,"CLASECICLOP":"F","NOMBRECICLOP":"City Parking Imagen 127","SECTORCICLOP":"2","TIPOUSUARIOCICLOP":"1","LOCALIDAD":"1","DIRECCIONCICLOP":"CL 127 Bis 19 25","HORARIOCICLOP":"L-V 06:00 - 21:00  S 06:00 - 14:00","TIPOLOGIACICLOP":"8","CUPOCICLOP":57,"SELLOCICLOP":"1","ANOCICLOP":2019,"GLOBALID":"{26F82F4E-418C-4F5A-8A3D-135A4CA248F9}"},"geometry":{"type":"Point","coordinates":[-74.048956,4.706641999845465]}},
{"type":"Feature","properties":{"fid":91,"OBJECTID":91,"ID_CICLOPARQUEDERO":1090,"CIV":1008088,"CLASECICLOP":"F","NOMBRECICLOP":"City Parking AK 19 con 105","SECTORCICLOP":"2","TIPOUSUARIOCICLOP":"1","LOCALIDAD":"1","DIRECCIONCICLOP":"KR 19 105 52","HORARIOCICLOP":"L-S 06:00 - 22:00","TIPOLOGIACICLOP":"8","CUPOCICLOP":20,"SELLOCICLOP":"1","ANOCICLOP":2019,"GLOBALID":"{308242D4-1DFC-4A0D-ADB4-E2C951BA80C8}"},"geometry":{"type":"Point","coordinates":[-74.050923,4.692760999845945]}},
{"type":"Feature","properties":{"fid":92,"OBJECTID":92,"ID_CICLOPARQUEDERO":1091,"CIV":2000150,"CLASECICLOP":"F","NOMBRECICLOP":"Edificio Citibank","SECTORCICLOP":"2","TIPOUSUARIOCICLOP":"2","LOCALIDAD":"2","DIRECCIONCICLOP":"KR 9A 99 02","HORARIOCICLOP":"L-D 24h","TIPOLOGIACICLOP":"8","CUPOCICLOP":120,"SELLOCICLOP":"1","ANOCICLOP":2019,"GLOBALID":"{60FEF59E-59DC-4F91-AFF8-21A01518BB7E}"},"geometry":{"type":"Point","coordinates":[-74.042083,4.680964999846325]}},
{"type":"Feature","properties":{"fid":93,"OBJECTID":93,"ID_CICLOPARQUEDERO":1092,"CIV":2001696,"CLASECICLOP":"F","NOMBRECICLOP":"Unidad Administrativa Especial de Servicios Públi*","SECTORCICLOP":"1","TIPOUSUARIOCICLOP":"1","LOCALIDAD":"2","DIRECCIONCICLOP":"AV. CARACAS 53 80","HORARIOCICLOP":"L-V 07:00 - 20:00","TIPOLOGIACICLOP":"8","CUPOCICLOP":33,"SELLOCICLOP":"1","ANOCICLOP":2019,"GLOBALID":"{035B9C6C-9801-4286-B713-9F4DD8A83E34}"},"geometry":{"type":"Point","coordinates":[-74.066123,4.640658999847649]}},
{"type":"Feature","properties":{"fid":94,"OBJECTID":94,"ID_CICLOPARQUEDERO":1093,"CIV":12003236,"CLASECICLOP":"F","NOMBRECICLOP":"Secretaría de Desarrollo Económico - Plaza de los*","SECTORCICLOP":"1","TIPOUSUARIOCICLOP":"1","LOCALIDAD":"12","DIRECCIONCICLOP":"KR 60 63A 52","HORARIOCICLOP":"L-V 07:00 - 20:00","TIPOLOGIACICLOP":"8","CUPOCICLOP":70,"SELLOCICLOP":"1","ANOCICLOP":2019,"GLOBALID":"{0A9106C1-F160-43D9-9F15-351464E6B3C1}"},"geometry":{"type":"Point","coordinates":[-74.087331,4.662700999846935]}},
{"type":"Feature","properties":{"fid":95,"OBJECTID":95,"ID_CICLOPARQUEDERO":1094,"CIV":1006463,"CLASECICLOP":"F","NOMBRECICLOP":"Capital Tower Administracion","SECTORCICLOP":"2","TIPOUSUARIOCICLOP":"2","LOCALIDAD":"2","DIRECCIONCICLOP":"AC 100 7 33","HORARIOCICLOP":"L-V 05:30 - 22:00  S 06:00 - 14:00","TIPOLOGIACICLOP":"8","CUPOCICLOP":77,"SELLOCICLOP":"1","ANOCICLOP":2019,"GLOBALID":"{512429B6-AC82-476A-A52E-2311DDA5EA0D}"},"geometry":{"type":"Point","coordinates":[-74.0386,4.679661999846365]}},
{"type":"Feature","properties":{"fid":96,"OBJECTID":96,"ID_CICLOPARQUEDERO":1095,"CIV":16001596,"CLASECICLOP":"F","NOMBRECICLOP":"Secretaría Distrital de Salud","SECTORCICLOP":"1","TIPOUSUARIOCICLOP":"1","LOCALIDAD":"16","DIRECCIONCICLOP":"KR 32 12 81","HORARIOCICLOP":"L-D 24h","TIPOLOGIACICLOP":"8","CUPOCICLOP":80,"SELLOCICLOP":"1","ANOCICLOP":2019,"GLOBALID":"{93150E34-6A7E-4727-BC91-2306D081F126}"},"geometry":{"type":"Point","coordinates":[-74.093421,4.61564599984847]}},
{"type":"Feature","properties":{"fid":97,"OBJECTID":97,"ID_CICLOPARQUEDERO":1096,"CIV":2001739,"CLASECICLOP":"F","NOMBRECICLOP":"Secretaría Distrital de Hábitat","SECTORCICLOP":"1","TIPOUSUARIOCICLOP":"1","LOCALIDAD":"2","DIRECCIONCICLOP":"KR 13 52 25","HORARIOCICLOP":"L-V 06:00 - 20:00","TIPOLOGIACICLOP":"8","CUPOCICLOP":68,"SELLOCICLOP":"1","ANOCICLOP":2019,"GLOBALID":"{3323FDAB-A403-4487-AC8C-5F14ADE8A5CB}"},"geometry":{"type":"Point","coordinates":[-74.06522,4.639296999847667]}},
{"type":"Feature","properties":{"fid":100,"OBJECTID":100,"ID_CICLOPARQUEDERO":1099,"CIV":16001083,"CLASECICLOP":"F","NOMBRECICLOP":"Secretaría Distrital de Movilidad","SECTORCICLOP":"1","TIPOUSUARIOCICLOP":"1","LOCALIDAD":"16","DIRECCIONCICLOP":"AC 13 37 35","HORARIOCICLOP":"L-S 5:30 - 22:00  D 08:00 - 16:00","TIPOLOGIACICLOP":"8","CUPOCICLOP":112,"SELLOCICLOP":"1","ANOCICLOP":2019,"GLOBALID":"{5BCD9176-56B4-4F56-BC86-6B57791C9D3A}"},"geometry":{"type":"Point","coordinates":[-74.097752,4.619584999848281]}},
{"type":"Feature","properties":{"fid":101,"OBJECTID":101,"ID_CICLOPARQUEDERO":1100,"CIV":1005023,"CLASECICLOP":"F","NOMBRECICLOP":"Edifico Old Mutual - Skandia","SECTORCICLOP":"2","TIPOUSUARIOCICLOP":"2","LOCALIDAD":"1","DIRECCIONCICLOP":"AV 19 109A 30","HORARIOCICLOP":"L-V 5:30 - 22:00  S 06:00 - 14:00","TIPOLOGIACICLOP":"8","CUPOCICLOP":90,"SELLOCICLOP":"1","ANOCICLOP":2019,"GLOBALID":"{E6E8C480-15AA-4D81-809D-455E050D89C4}"},"geometry":{"type":"Point","coordinates":[-74.050454,4.696174999845796]}},
{"type":"Feature","properties":{"fid":103,"OBJECTID":103,"ID_CICLOPARQUEDERO":1102,"CIV":2001097,"CLASECICLOP":"F","NOMBRECICLOP":"JW Marriot Hotel","SECTORCICLOP":"2","TIPOUSUARIOCICLOP":"2","LOCALIDAD":"2","DIRECCIONCICLOP":"CL 73 7 88","HORARIOCICLOP":"L-D 24h","TIPOLOGIACICLOP":"8","CUPOCICLOP":198,"SELLOCICLOP":"1","ANOCICLOP":2019,"GLOBALID":"{69ED0F64-0B70-4C8C-B6ED-E3743033A0ED}"},"geometry":{"type":"Point","coordinates":[-74.055498,4.656660998847101]}},
{"type":"Feature","properties":{"fid":104,"OBJECTID":104,"ID_CICLOPARQUEDERO":1103,"CIV":3002240,"CLASECICLOP":"F","NOMBRECICLOP":"Ecopetrol Dirección General\n","SECTORCICLOP":"2","TIPOUSUARIOCICLOP":"2","LOCALIDAD":"3","DIRECCIONCICLOP":"KR 13 36 24","HORARIOCICLOP":"L-D 24h","TIPOLOGIACICLOP":"8","CUPOCICLOP":128,"SELLOCICLOP":"1","ANOCICLOP":2022,"GLOBALID":"{94336758-D4D6-4EC5-95E5-53215A733C53}"},"geometry":{"type":"Point","coordinates":[-74.067708,4.62431499984818]}},
{"type":"Feature","properties":{"fid":105,"OBJECTID":105,"ID_CICLOPARQUEDERO":1104,"CIV":19000003,"CLASECICLOP":"F","NOMBRECICLOP":"Idipron UPI Bosa","SECTORCICLOP":"1","TIPOUSUARIOCICLOP":"1","LOCALIDAD":"7","DIRECCIONCICLOP":"KR 77G 63 35 SUR","HORARIOCICLOP":"L-V 07:00 - 20:00","TIPOLOGIACICLOP":"8","CUPOCICLOP":24,"SELLOCICLOP":"1","ANOCICLOP":2019,"GLOBALID":"{07EA40F8-EFF2-43C3-9BCE-53A738268A3C}"},"geometry":{"type":"Point","coordinates":[-74.179824,4.59705699984905]}},
{"type":"Feature","properties":{"fid":108,"OBJECTID":108,"ID_CICLOPARQUEDERO":1107,"CIV":2002519,"CLASECICLOP":"F","NOMBRECICLOP":"City Parking Corpbanca","SECTORCICLOP":"2","TIPOUSUARIOCICLOP":"1","LOCALIDAD":"2","DIRECCIONCICLOP":"CL 99 7A 44","HORARIOCICLOP":"L-V 5:30 - 22:00  S 06:00 - 14:00","TIPOLOGIACICLOP":"8","CUPOCICLOP":110,"SELLOCICLOP":"1","ANOCICLOP":2019,"GLOBALID":"{CED092B1-A8E6-4A39-BC63-67539F0CDD7C}"},"geometry":{"type":"Point","coordinates":[-74.038774,4.679326999846366]}},
{"type":"Feature","properties":{"fid":109,"OBJECTID":109,"ID_CICLOPARQUEDERO":1108,"CIV":3000043,"CLASECICLOP":"F","NOMBRECICLOP":"Banco de Bogota","SECTORCICLOP":"2","TIPOUSUARIOCICLOP":"2","LOCALIDAD":"2","DIRECCIONCICLOP":"CL 36 7 47","HORARIOCICLOP":"L-V 06:00 - 20:00","TIPOLOGIACICLOP":"8","CUPOCICLOP":85,"SELLOCICLOP":"1","ANOCICLOP":2019,"GLOBALID":"{8B92E09E-5D75-4B50-A8B6-87FE52B3F093}"},"geometry":{"type":"Point","coordinates":[-74.066648,4.622597999848193]}},
{"type":"Feature","properties":{"fid":110,"OBJECTID":110,"ID_CICLOPARQUEDERO":1109,"CIV":9003860,"CLASECICLOP":"F","NOMBRECICLOP":"Terminal de Transportes Salitre","SECTORCICLOP":"1","TIPOUSUARIOCICLOP":"1","LOCALIDAD":"9","DIRECCIONCICLOP":"DG 23 69A 55","HORARIOCICLOP":"L-V 5:30 - 22:00  S 06:00 - 14:00","TIPOLOGIACICLOP":"8","CUPOCICLOP":100,"SELLOCICLOP":"1","ANOCICLOP":2019,"GLOBALID":"{E5849DB8-4FA6-41EC-9D40-4B90BAEC8E89}"},"geometry":{"type":"Point","coordinates":[-74.114653,4.654065999847186]}},
{"type":"Feature","properties":{"fid":113,"OBJECTID":113,"ID_CICLOPARQUEDERO":1112,"CIV":1004478,"CLASECICLOP":"F","NOMBRECICLOP":"Centro Comercial Metro 127","SECTORCICLOP":"2","TIPOUSUARIOCICLOP":"1","LOCALIDAD":"1","DIRECCIONCICLOP":"CL 127 15 A 03","HORARIOCICLOP":"L-D 06:00 - 22:00","TIPOLOGIACICLOP":"8","CUPOCICLOP":27,"SELLOCICLOP":"2","ANOCICLOP":2016,"GLOBALID":"{57A1B546-2441-49C8-B2A3-7661AE5A3EAF}"},"geometry":{"type":"Point","coordinates":[-74.043666,4.703996999845577]}},
{"type":"Feature","properties":{"fid":114,"OBJECTID":114,"ID_CICLOPARQUEDERO":1113,"CIV":1007023,"CLASECICLOP":"F","NOMBRECICLOP":"City Parking Calle 109","SECTORCICLOP":"2","TIPOUSUARIOCICLOP":"1","LOCALIDAD":"1","DIRECCIONCICLOP":"AK 19 109 50","HORARIOCICLOP":"L-S 06:00 - 22:00  D-F 06:00 - 18:00","TIPOLOGIACICLOP":"8","CUPOCICLOP":8,"SELLOCICLOP":"2","ANOCICLOP":2016,"GLOBALID":"{F93E7EFD-4D40-4173-BB5D-1E63B538FA39}"},"geometry":{"type":"Point","coordinates":[-74.050326,4.695632999845819]}},
{"type":"Feature","properties":{"fid":115,"OBJECTID":115,"ID_CICLOPARQUEDERO":1114,"CIV":2001472,"CLASECICLOP":"F","NOMBRECICLOP":"City Parking Bodytech Chapinero","SECTORCICLOP":"2","TIPOUSUARIOCICLOP":"1","LOCALIDAD":"2","DIRECCIONCICLOP":"KR 7 61 47","HORARIOCICLOP":"L-D 24h","TIPOLOGIACICLOP":"8","CUPOCICLOP":18,"SELLOCICLOP":"2","ANOCICLOP":2016,"GLOBALID":"{BDF08739-96A7-46C2-9D63-BB522656CB16}"},"geometry":{"type":"Point","coordinates":[-74.060531,4.646694999847448]}},
{"type":"Feature","properties":{"fid":117,"OBJECTID":117,"ID_CICLOPARQUEDERO":1116,"CIV":2000508,"CLASECICLOP":"F","NOMBRECICLOP":"City Parking Carrera 11 A","SECTORCICLOP":"2","TIPOUSUARIOCICLOP":"1","LOCALIDAD":"2","DIRECCIONCICLOP":"KR 11 A 88 49","HORARIOCICLOP":"L-M 06:00 - 23:00 J-S 06:00 - 03:00 D-F 08:00 - 1*","TIPOLOGIACICLOP":"8","CUPOCICLOP":15,"SELLOCICLOP":"2","ANOCICLOP":2016,"GLOBALID":"{EADF3BEB-6072-4C42-8F35-47E0F2653A6A}"},"geometry":{"type":"Point","coordinates":[-74.049902,4.671958999846619]}},
{"type":"Feature","properties":{"fid":119,"OBJECTID":119,"ID_CICLOPARQUEDERO":1118,"CIV":15001554,"CLASECICLOP":"F","NOMBRECICLOP":"City Parking Bodytech Sultana","SECTORCICLOP":"2","TIPOUSUARIOCICLOP":"1","LOCALIDAD":"15","DIRECCIONCICLOP":"CL 12 SUR 31 37","HORARIOCICLOP":"L-J 05:00 - 23:00  V 05:00 - 21:00  S 07:00 - 18:*","TIPOLOGIACICLOP":"8","CUPOCICLOP":32,"SELLOCICLOP":"2","ANOCICLOP":2016,"GLOBALID":"{1F5A45A8-DC56-4524-8138-D6825EAFFAC3}"},"geometry":{"type":"Point","coordinates":[-74.108349,4.597902998849001]}},
{"type":"Feature","properties":{"fid":120,"OBJECTID":120,"ID_CICLOPARQUEDERO":1119,"CIV":10011508,"CLASECICLOP":"F","NOMBRECICLOP":"City Parking Bodytech Normandia","SECTORCICLOP":"2","TIPOUSUARIOCICLOP":"1","LOCALIDAD":"10","DIRECCIONCICLOP":"AK 72 49 15","HORARIOCICLOP":"L-V 05:00 - 23:00  S-D 06:00 - 17:00","TIPOLOGIACICLOP":"8","CUPOCICLOP":36,"SELLOCICLOP":"2","ANOCICLOP":2016,"GLOBALID":"{8D422AC6-FE87-48BE-9890-8228FE223D3F}"},"geometry":{"type":"Point","coordinates":[-74.110125,4.668301999846708]}},
{"type":"Feature","properties":{"fid":121,"OBJECTID":121,"ID_CICLOPARQUEDERO":1120,"CIV":12003318,"CLASECICLOP":"F","NOMBRECICLOP":"Centro Comercial Iserra 100","SECTORCICLOP":"2","TIPOUSUARIOCICLOP":"1","LOCALIDAD":"12","DIRECCIONCICLOP":"TV 55 98 A 66","HORARIOCICLOP":"L-V 07:00 - 22:00  S 08:00 - 21:00","TIPOLOGIACICLOP":"8","CUPOCICLOP":197,"SELLOCICLOP":"2","ANOCICLOP":2016,"GLOBALID":"{882437FF-6DC3-457F-A0C9-7FD1F38E11D7}"},"geometry":{"type":"Point","coordinates":[-74.064597,4.687820999846073]}},
{"type":"Feature","properties":{"fid":124,"OBJECTID":124,"ID_CICLOPARQUEDERO":1123,"CIV":2000420,"CLASECICLOP":"F","NOMBRECICLOP":"Sura","SECTORCICLOP":"2","TIPOUSUARIOCICLOP":"2","LOCALIDAD":"2","DIRECCIONCICLOP":"KR 11 93 46","HORARIOCICLOP":"L-V 07:00 - 20:00","TIPOLOGIACICLOP":"8","CUPOCICLOP":30,"SELLOCICLOP":"2","ANOCICLOP":2016,"GLOBALID":"{6D2CB0A2-B398-498E-8D7E-213FD208DB31}"},"geometry":{"type":"Point","coordinates":[-74.047276,4.674756999846511]}},
{"type":"Feature","properties":{"fid":125,"OBJECTID":125,"ID_CICLOPARQUEDERO":1124,"CIV":10010119,"CLASECICLOP":"F","NOMBRECICLOP":"Centro Comercial Titan","SECTORCICLOP":"2","TIPOUSUARIOCICLOP":"1","LOCALIDAD":"10","DIRECCIONCICLOP":"AK 72 80 94","HORARIOCICLOP":"L-D 06:00 - 22:00","TIPOLOGIACICLOP":"8","CUPOCICLOP":350,"SELLOCICLOP":"2","ANOCICLOP":2017,"GLOBALID":"{69B018B3-C62D-411C-852E-2B6C9772F56B}"},"geometry":{"type":"Point","coordinates":[-74.086616,4.69574899984581]}},
{"type":"Feature","properties":{"fid":126,"OBJECTID":126,"ID_CICLOPARQUEDERO":1125,"CIV":13001631,"CLASECICLOP":"F","NOMBRECICLOP":"Aparcar A.G.","SECTORCICLOP":"2","TIPOUSUARIOCICLOP":"1","LOCALIDAD":"13","DIRECCIONCICLOP":"CL 43 A 18 A 40","HORARIOCICLOP":"L-V 06:00 - 19:30  S 06:00 - 14:00","TIPOLOGIACICLOP":"8","CUPOCICLOP":30,"SELLOCICLOP":"2","ANOCICLOP":2018,"GLOBALID":"{110F9279-3767-46A0-90DA-E5D3A3281A4D}"},"geometry":{"type":"Point","coordinates":[-74.071882,4.632167998847882]}},
{"type":"Feature","properties":{"fid":133,"OBJECTID":133,"ID_CICLOPARQUEDERO":1132,"CIV":3002336,"CLASECICLOP":"F","NOMBRECICLOP":"Parqueaderos del Futuro","SECTORCICLOP":"2","TIPOUSUARIOCICLOP":"1","LOCALIDAD":"3","DIRECCIONCICLOP":"KR 7 24 70","HORARIOCICLOP":"L-V 07:00 - 22:00","TIPOLOGIACICLOP":"8","CUPOCICLOP":25,"SELLOCICLOP":"2","ANOCICLOP":2018,"GLOBALID":"{59AC3F80-3E6D-4C7A-BD5B-931925918FFD}"},"geometry":{"type":"Point","coordinates":[-74.069994,4.610405999848616]}},
{"type":"Feature","properties":{"fid":134,"OBJECTID":134,"ID_CICLOPARQUEDERO":1133,"CIV":3000412,"CLASECICLOP":"F","NOMBRECICLOP":"Parking Motos San Diego","SECTORCICLOP":"2","TIPOUSUARIOCICLOP":"1","LOCALIDAD":"3","DIRECCIONCICLOP":"CL 24 12 65","HORARIOCICLOP":"L-D 05:30 - 20:00","TIPOLOGIACICLOP":"8","CUPOCICLOP":30,"SELLOCICLOP":"2","ANOCICLOP":2018,"GLOBALID":"{5C33BDAE-0C93-42A9-B47B-9BED29FBAD9B}"},"geometry":{"type":"Point","coordinates":[-74.072299,4.611131999848578]}},
{"type":"Feature","properties":{"fid":135,"OBJECTID":135,"ID_CICLOPARQUEDERO":1134,"CIV":3000623,"CLASECICLOP":"F","NOMBRECICLOP":"Parqueadero Tequendama","SECTORCICLOP":"2","TIPOUSUARIOCICLOP":"1","LOCALIDAD":"3","DIRECCIONCICLOP":"KR 1 20 A 50","HORARIOCICLOP":"L-V 06:00 - 20:00  S 06:00 - 16:00","TIPOLOGIACICLOP":"8","CUPOCICLOP":12,"SELLOCICLOP":"2","ANOCICLOP":2018,"GLOBALID":"{B5C80CB4-EADB-41FA-BA56-4ED8DB3103B2}"},"geometry":{"type":"Point","coordinates":[-74.065128,4.605007999848778]}},
{"type":"Feature","properties":{"fid":136,"OBJECTID":136,"ID_CICLOPARQUEDERO":1135,"CIV":1008104,"CLASECICLOP":"F","NOMBRECICLOP":"Park Castellena 104","SECTORCICLOP":"2","TIPOUSUARIOCICLOP":"1","LOCALIDAD":"1","DIRECCIONCICLOP":"AK 19 104 49","HORARIOCICLOP":"L-V 05:30 - 21:30  S 06:00 - 21:00  D-F 08:00 - 1*","TIPOLOGIACICLOP":"8","CUPOCICLOP":13,"SELLOCICLOP":"2","ANOCICLOP":2018,"GLOBALID":"{F74FBE18-68A4-4049-ADF2-6B76DE80D413}"},"geometry":{"type":"Point","coordinates":[-74.05134,4.691210999845989]}},
{"type":"Feature","properties":{"fid":139,"OBJECTID":139,"ID_CICLOPARQUEDERO":1138,"CIV":14000357,"CLASECICLOP":"F","NOMBRECICLOP":"Parqueadero Las Mercedes / Congragación Padres V.","SECTORCICLOP":"2","TIPOUSUARIOCICLOP":"1","LOCALIDAD":"14","DIRECCIONCICLOP":"CL 12 B 27 64","HORARIOCICLOP":"L-D 24h","TIPOLOGIACICLOP":"8","CUPOCICLOP":10,"SELLOCICLOP":"2","ANOCICLOP":2018,"GLOBALID":"{7E16CAD9-12D6-49F7-BB5C-C2A0028A42BF}"},"geometry":{"type":"Point","coordinates":[-74.090554,4.611716999848563]}},
{"type":"Feature","properties":{"fid":141,"OBJECTID":141,"ID_CICLOPARQUEDERO":1140,"CIV":14000758,"CLASECICLOP":"F","NOMBRECICLOP":"Solo Motos El Paisa","SECTORCICLOP":"2","TIPOUSUARIOCICLOP":"1","LOCALIDAD":"14","DIRECCIONCICLOP":"CL 13 14 23","HORARIOCICLOP":"L-S 10:00 - 19:00  D-F 10:00 - 16:00","TIPOLOGIACICLOP":"8","CUPOCICLOP":12,"SELLOCICLOP":"2","ANOCICLOP":2018,"GLOBALID":"{AB67D58C-16EF-4EDB-8B8D-453A0020015A}"},"geometry":{"type":"Point","coordinates":[-74.080283,4.603735999848849]}},
{"type":"Feature","properties":{"fid":143,"OBJECTID":143,"ID_CICLOPARQUEDERO":1142,"CIV":3000520,"CLASECICLOP":"F","NOMBRECICLOP":"Parqueadero Público Lima","SECTORCICLOP":"2","TIPOUSUARIOCICLOP":"1","LOCALIDAD":"3","DIRECCIONCICLOP":"KR 13 18 61","HORARIOCICLOP":"L-V 07:00 - 19:30  S 08:00 - 19:00","TIPOLOGIACICLOP":"8","CUPOCICLOP":14,"SELLOCICLOP":"2","ANOCICLOP":2018,"GLOBALID":"{85ED5C7F-267F-44B5-AE75-9C846CCDED59}"},"geometry":{"type":"Point","coordinates":[-74.075623,4.607723999848715]}},
{"type":"Feature","properties":{"fid":145,"OBJECTID":145,"ID_CICLOPARQUEDERO":1144,"CIV":2001643,"CLASECICLOP":"F","NOMBRECICLOP":"Parqueadero P y T","SECTORCICLOP":"2","TIPOUSUARIOCICLOP":"1","LOCALIDAD":"2","DIRECCIONCICLOP":"CL 55 10 43","HORARIOCICLOP":"L-S 07:00 - 20:00","TIPOLOGIACICLOP":"8","CUPOCICLOP":12,"SELLOCICLOP":"2","ANOCICLOP":2018,"GLOBALID":"{FF0F9743-29BE-4F64-8CF1-5598837CB576}"},"geometry":{"type":"Point","coordinates":[-74.064155,4.641906999847586]}},
{"type":"Feature","properties":{"fid":146,"OBJECTID":146,"ID_CICLOPARQUEDERO":1145,"CIV":3000455,"CLASECICLOP":"F","NOMBRECICLOP":"City Parking Intercentro","SECTORCICLOP":"2","TIPOUSUARIOCICLOP":"1","LOCALIDAD":"3","DIRECCIONCICLOP":"KR 9 23 75","HORARIOCICLOP":"L-S 06:00 - 22:00","TIPOLOGIACICLOP":"8","CUPOCICLOP":26,"SELLOCICLOP":"2","ANOCICLOP":2018,"GLOBALID":"{604D6D42-0647-400E-A9AD-D5F5B25EA1E8}"},"geometry":{"type":"Point","coordinates":[-74.071076,4.610177999848634]}},
{"type":"Feature","properties":{"fid":147,"OBJECTID":147,"ID_CICLOPARQUEDERO":1146,"CIV":2000371,"CLASECICLOP":"F","NOMBRECICLOP":"City Parking Hotel Best Western","SECTORCICLOP":"2","TIPOUSUARIOCICLOP":"1","LOCALIDAD":"2","DIRECCIONCICLOP":"CL 93 13 71","HORARIOCICLOP":"L-V 06:00 - 22:00  S 06:00 - 21:00","TIPOLOGIACICLOP":"8","CUPOCICLOP":15,"SELLOCICLOP":"2","ANOCICLOP":2018,"GLOBALID":"{8137C9B3-59F2-400E-8926-25D8F7A47848}"},"geometry":{"type":"Point","coordinates":[-74.050483,4.675700999846486]}},
{"type":"Feature","properties":{"fid":149,"OBJECTID":149,"ID_CICLOPARQUEDERO":1148,"CIV":2001575,"CLASECICLOP":"F","NOMBRECICLOP":"City Parking Surtifruver Chapinero","SECTORCICLOP":"2","TIPOUSUARIOCICLOP":"1","LOCALIDAD":"2","DIRECCIONCICLOP":"KR 7 58 18","HORARIOCICLOP":"L-V 06:00 - 22:00  S 06:00 - 23:00  D-F 08:00 - 2*","TIPOLOGIACICLOP":"8","CUPOCICLOP":14,"SELLOCICLOP":"2","ANOCICLOP":2019,"GLOBALID":"{3CB95BB6-B2B1-422E-B3B6-32AB4A5E0198}"},"geometry":{"type":"Point","coordinates":[-74.061823,4.643703999847543]}},
{"type":"Feature","properties":{"fid":152,"OBJECTID":152,"ID_CICLOPARQUEDERO":1151,"CIV":1005818,"CLASECICLOP":"F","NOMBRECICLOP":"City Parking Cl 100","SECTORCICLOP":"2","TIPOUSUARIOCICLOP":"1","LOCALIDAD":"1","DIRECCIONCICLOP":"CL 100 13 67","HORARIOCICLOP":"L-S 06:00 - 22:00  D-F 08:00 - 18:00","TIPOLOGIACICLOP":"8","CUPOCICLOP":12,"SELLOCICLOP":"2","ANOCICLOP":2019,"GLOBALID":"{17DFB705-5A2D-420F-99CB-FF7EE44C4ADA}"},"geometry":{"type":"Point","coordinates":[-74.046069,4.683785999846216]}},
{"type":"Feature","properties":{"fid":153,"OBJECTID":153,"ID_CICLOPARQUEDERO":1152,"CIV":9004506,"CLASECICLOP":"F","NOMBRECICLOP":"City Parking Elemento","SECTORCICLOP":"2","TIPOUSUARIOCICLOP":"1","LOCALIDAD":"9","DIRECCIONCICLOP":"CL 26 69 76","HORARIOCICLOP":"L-D 24h","TIPOLOGIACICLOP":"8","CUPOCICLOP":216,"SELLOCICLOP":"2","ANOCICLOP":2019,"GLOBALID":"{283C2F65-1B2D-4037-8D29-437864BA3EEF}"},"geometry":{"type":"Point","coordinates":[-74.107121,4.658339998847063]}},
{"type":"Feature","properties":{"fid":154,"OBJECTID":154,"ID_CICLOPARQUEDERO":1153,"CIV":1004963,"CLASECICLOP":"F","NOMBRECICLOP":"City Parking Pepe Sierra","SECTORCICLOP":"2","TIPOUSUARIOCICLOP":"1","LOCALIDAD":"1","DIRECCIONCICLOP":"KR 17 116 14","HORARIOCICLOP":"L-J 06:00 - 20:00  V-S 06:00 - 23:00  D-F 010:00 *","TIPOLOGIACICLOP":"8","CUPOCICLOP":12,"SELLOCICLOP":"2","ANOCICLOP":2019,"GLOBALID":"{04D91810-9D0A-4BD8-A102-873C0D34DFAC}"},"geometry":{"type":"Point","coordinates":[-74.046132,4.69769299884579]}},
{"type":"Feature","properties":{"fid":164,"OBJECTID":164,"ID_CICLOPARQUEDERO":1163,"CIV":2000775,"CLASECICLOP":"F","NOMBRECICLOP":"City Parking Calle 84","SECTORCICLOP":"2","TIPOUSUARIOCICLOP":"1","LOCALIDAD":"2","DIRECCIONCICLOP":"KR 11 84 50","HORARIOCICLOP":"L-M 05:30 - 23:00  J-D 24 h","TIPOLOGIACICLOP":"8","CUPOCICLOP":12,"SELLOCICLOP":"2","ANOCICLOP":2019,"GLOBALID":"{1A56B9D9-1A8B-4F2F-B8EE-0FC3179AC6E1}"},"geometry":{"type":"Point","coordinates":[-74.051602,4.666586999846773]}},
{"type":"Feature","properties":{"fid":165,"OBJECTID":165,"ID_CICLOPARQUEDERO":1164,"CIV":13001289,"CLASECICLOP":"F","NOMBRECICLOP":"RTVC","SECTORCICLOP":"1","TIPOUSUARIOCICLOP":"1","LOCALIDAD":"13","DIRECCIONCICLOP":"KR 45 26 33","HORARIOCICLOP":"L-D 24h","TIPOLOGIACICLOP":"8","CUPOCICLOP":100,"SELLOCICLOP":"1","ANOCICLOP":2022,"GLOBALID":"{1216184A-0B32-4754-AE4F-75DBE0218280}"},"geometry":{"type":"Point","coordinates":[-74.092256346,4.638022917847702]}},
{"type":"Feature","properties":{"fid":169,"OBJECTID":169,"ID_CICLOPARQUEDERO":1168,"CIV":1004455,"CLASECICLOP":"F","NOMBRECICLOP":"Novo Nordisk Colombia","SECTORCICLOP":"2","TIPOUSUARIOCICLOP":"2","LOCALIDAD":"1","DIRECCIONCICLOP":"CL 125 19 24","HORARIOCICLOP":"L-V 7:00 - 17:00","TIPOLOGIACICLOP":"8","CUPOCICLOP":119,"SELLOCICLOP":"1","ANOCICLOP":2022,"GLOBALID":"{9CFC8FC0-07FE-416C-9FAB-149B05E23D54}"},"geometry":{"type":"Point","coordinates":[-74.049156151,4.704809685845511]}},
{"type":"Feature","properties":{"fid":170,"OBJECTID":170,"ID_CICLOPARQUEDERO":1169,"CIV":9004084,"CLASECICLOP":"F","NOMBRECICLOP":"City Parking Buro 26","SECTORCICLOP":"2","TIPOUSUARIOCICLOP":"1","LOCALIDAD":"9","DIRECCIONCICLOP":"AC 26 102 20","HORARIOCICLOP":"L-D 24h","TIPOLOGIACICLOP":"8","CUPOCICLOP":41,"SELLOCICLOP":"1","ANOCICLOP":2021,"GLOBALID":"{871EB26A-5F62-44C4-9AD6-2134AC018A47}"},"geometry":{"type":"Point","coordinates":[-74.130163462999974,4.689630844846041]}},
{"type":"Feature","properties":{"fid":172,"OBJECTID":172,"ID_CICLOPARQUEDERO":1171,"CIV":9000833,"CLASECICLOP":"F","NOMBRECICLOP":"City Parking Hotel Marriot","SECTORCICLOP":"2","TIPOUSUARIOCICLOP":"1","LOCALIDAD":"10","DIRECCIONCICLOP":"CL 26 #96j- 90","HORARIOCICLOP":"L-D 24h","TIPOLOGIACICLOP":"8","CUPOCICLOP":140,"SELLOCICLOP":"1","ANOCICLOP":2021,"GLOBALID":"{F2323360-38DF-4C79-B670-0C1B6B566B30}"},"geometry":{"type":"Point","coordinates":[-74.127308602000028,4.687637057846102]}},
{"type":"Feature","properties":{"fid":173,"OBJECTID":173,"ID_CICLOPARQUEDERO":1172,"CIV":12000342,"CLASECICLOP":"F","NOMBRECICLOP":"City Parking Castellana","SECTORCICLOP":"2","TIPOUSUARIOCICLOP":"1","LOCALIDAD":"12","DIRECCIONCICLOP":"KR 45a 94 66","HORARIOCICLOP":"L-V 5:30 -23:00 S 5:30 -22:00 D-F 7:00 - 20:00","TIPOLOGIACICLOP":"8","CUPOCICLOP":24,"SELLOCICLOP":"1","ANOCICLOP":2022,"GLOBALID":"{E6093EBD-BF08-47D4-9B61-41E0341A54F3}"},"geometry":{"type":"Point","coordinates":[-74.058695263,4.683050771846248]}},
{"type":"Feature","properties":{"fid":175,"OBJECTID":175,"ID_CICLOPARQUEDERO":1174,"CIV":2000630,"CLASECICLOP":"F","NOMBRECICLOP":"City Parking Carrera 14","SECTORCICLOP":"2","TIPOUSUARIOCICLOP":"1","LOCALIDAD":"2","DIRECCIONCICLOP":"KR 14 85 85","HORARIOCICLOP":"L-Mi 6:00 - 22:00 J-S 6:00 - 15:00 D-F 8:00 - 16:*","TIPOLOGIACICLOP":"8","CUPOCICLOP":26,"SELLOCICLOP":"1","ANOCICLOP":2022,"GLOBALID":"{FA08B8E8-E6D8-47CA-BA1D-D667B637BF26}"},"geometry":{"type":"Point","coordinates":[-74.054110174000016,4.670315479846662]}},
{"type":"Feature","properties":{"fid":177,"OBJECTID":177,"ID_CICLOPARQUEDERO":1176,"CIV":13001023,"CLASECICLOP":"F","NOMBRECICLOP":"Centro empresarial Sarmiento Angulo","SECTORCICLOP":"2","TIPOUSUARIOCICLOP":"2","LOCALIDAD":"13","DIRECCIONCICLOP":"AV CL 26 54 41","HORARIOCICLOP":"L-V 8:00 - 17:30","TIPOLOGIACICLOP":"8","CUPOCICLOP":401,"SELLOCICLOP":"1","ANOCICLOP":2022,"GLOBALID":"{2E0BA442-AD49-41FE-BB1B-170861BFE4D6}"},"geometry":{"type":"Point","coordinates":[-74.098125357000015,4.64218883584758]}},
{"type":"Feature","properties":{"fid":178,"OBJECTID":178,"ID_CICLOPARQUEDERO":1177,"CIV":3002394,"CLASECICLOP":"F","NOMBRECICLOP":"Torres Atrio","SECTORCICLOP":"2","TIPOUSUARIOCICLOP":"1","LOCALIDAD":"3","DIRECCIONCICLOP":"Av Caracas x Cll 26","HORARIOCICLOP":"L-D 10:00 -17:00","TIPOLOGIACICLOP":"8","CUPOCICLOP":343,"SELLOCICLOP":"1","ANOCICLOP":2022,"GLOBALID":"{3B645931-53E1-4666-9C71-7242C81A72D5}"},"geometry":{"type":"Point","coordinates":[-74.072248662999982,4.615436590848431]}},
{"type":"Feature","properties":{"fid":179,"OBJECTID":179,"ID_CICLOPARQUEDERO":1178,"CIV":11014195,"CLASECICLOP":"F","NOMBRECICLOP":"Centro empresarial Colpatria","SECTORCICLOP":"2","TIPOUSUARIOCICLOP":"2","LOCALIDAD":"11","DIRECCIONCICLOP":"CL 127A 54A 45","HORARIOCICLOP":"L-V 8:00 - 18:00","TIPOLOGIACICLOP":"8","CUPOCICLOP":392,"SELLOCICLOP":"1","ANOCICLOP":2022,"GLOBALID":"{5D9187DB-9162-47B4-84F0-121B2280D99F}"},"geometry":{"type":"Point","coordinates":[-74.06242682200002,4.709331272845364]}},
{"type":"Feature","properties":{"fid":181,"OBJECTID":181,"ID_CICLOPARQUEDERO":1180,"CIV":3000592,"CLASECICLOP":"F","NOMBRECICLOP":"Universidad Central","SECTORCICLOP":"2","TIPOUSUARIOCICLOP":"2","LOCALIDAD":"3","DIRECCIONCICLOP":"Cll 22 3 79","HORARIOCICLOP":"L-V 5:30 - 22:00  S 5:30 - 19:00","TIPOLOGIACICLOP":"8","CUPOCICLOP":24,"SELLOCICLOP":"1","ANOCICLOP":2022,"GLOBALID":"{0C411194-26FF-497B-B772-527832E0E6F6}"},"geometry":{"type":"Point","coordinates":[-74.067541517,4.605738315848741]}},
{"type":"Feature","properties":{"fid":182,"OBJECTID":182,"ID_CICLOPARQUEDERO":1181,"CIV":2001767,"CLASECICLOP":"F","NOMBRECICLOP":"City Parking SmartFit Chapinero","SECTORCICLOP":"2","TIPOUSUARIOCICLOP":"1","LOCALIDAD":"2","DIRECCIONCICLOP":"KR 13 51 57","HORARIOCICLOP":"L-J 5:00 - 22:00  V 5:00 - 21:00 S 7:00 -20:00  D*","TIPOLOGIACICLOP":"8","CUPOCICLOP":26,"SELLOCICLOP":"1","ANOCICLOP":2022,"GLOBALID":"{E02CAD99-A602-4225-904D-641FE35AD7E6}"},"geometry":{"type":"Point","coordinates":[-74.065381960000025,4.638873143847682]}},
{"type":"Feature","properties":{"fid":186,"OBJECTID":186,"ID_CICLOPARQUEDERO":1185,"CIV":2001661,"CLASECICLOP":"F","NOMBRECICLOP":"Alcaldia Local de Chapinero","SECTORCICLOP":"1","TIPOUSUARIOCICLOP":"1","LOCALIDAD":"2","DIRECCIONCICLOP":"KR 13 54 74","HORARIOCICLOP":"L-V 7:00 - 16:30","TIPOLOGIACICLOP":"1","CUPOCICLOP":30,"SELLOCICLOP":"1","ANOCICLOP":2022,"GLOBALID":"{ABC949A1-5ECF-4BE8-BBCC-35B157806C46}"},"geometry":{"type":"Point","coordinates":[-74.064660521,4.641680831847609]}},
{"type":"Feature","properties":{"fid":187,"OBJECTID":187,"ID_CICLOPARQUEDERO":1186,"CIV":3000540,"CLASECICLOP":"F","NOMBRECICLOP":"ETB- Sede Centro","SECTORCICLOP":"1","TIPOUSUARIOCICLOP":"1","LOCALIDAD":"3","DIRECCIONCICLOP":"KR 8 20 22","HORARIOCICLOP":"L-S 8:00 - 17:00","TIPOLOGIACICLOP":"8","CUPOCICLOP":42,"SELLOCICLOP":"1","ANOCICLOP":2022,"GLOBALID":"{2D641E82-9ECE-4D2E-BE2B-A7FB56105D52}"},"geometry":{"type":"Point","coordinates":[-74.071517625000013,4.606876505848713]}},
{"type":"Feature","properties":{"fid":188,"OBJECTID":188,"ID_CICLOPARQUEDERO":1187,"CIV":10002271,"CLASECICLOP":"F","NOMBRECICLOP":"ETB- Sede Bachue","SECTORCICLOP":"1","TIPOUSUARIOCICLOP":"1","LOCALIDAD":"10","DIRECCIONCICLOP":"CL 80 101 7","HORARIOCICLOP":"L-S 8:00 - 18:00","TIPOLOGIACICLOP":"8","CUPOCICLOP":36,"SELLOCICLOP":"1","ANOCICLOP":2022,"GLOBALID":"{7C0646C9-E2D6-4ABC-95F2-3CEEEE71BAD1}"},"geometry":{"type":"Point","coordinates":[-74.112818619999985,4.712043378845322]}},
{"type":"Feature","properties":{"fid":190,"OBJECTID":190,"ID_CICLOPARQUEDERO":1189,"CIV":11003693,"CLASECICLOP":"F","NOMBRECICLOP":"Centro comercial Fiesta Suba","SECTORCICLOP":"2","TIPOUSUARIOCICLOP":"1","LOCALIDAD":"11","DIRECCIONCICLOP":"CL 147 101 56","HORARIOCICLOP":"L-S 7:00 - 20:00  D 8:00 - 20:00","TIPOLOGIACICLOP":"8","CUPOCICLOP":107,"SELLOCICLOP":"1","ANOCICLOP":2022,"GLOBALID":"{E3C7FC9F-C157-4AC6-925B-85FEAA61E639}"},"geometry":{"type":"Point","coordinates":[-74.092151945000012,4.744302598844227]}},
{"type":"Feature","properties":{"fid":191,"OBJECTID":191,"ID_CICLOPARQUEDERO":1190,"CIV":11010274,"CLASECICLOP":"F","NOMBRECICLOP":"Centro Comercial Niza","SECTORCICLOP":"2","TIPOUSUARIOCICLOP":"1","LOCALIDAD":"11","DIRECCIONCICLOP":"KR 70 D 127 48","HORARIOCICLOP":"L-D 06:00 - 22:00","TIPOLOGIACICLOP":"8","CUPOCICLOP":60,"SELLOCICLOP":"1","ANOCICLOP":2018,"GLOBALID":"{5C39D896-11F5-46DB-A2CE-20102E24C0F8}"},"geometry":{"type":"Point","coordinates":[-74.073937,4.711308999845349]}},
{"type":"Feature","properties":{"fid":192,"OBJECTID":192,"ID_CICLOPARQUEDERO":1191,"CIV":2001060,"CLASECICLOP":"F","NOMBRECICLOP":"City Parking Calle 72","SECTORCICLOP":"2","TIPOUSUARIOCICLOP":"1","LOCALIDAD":"2","DIRECCIONCICLOP":"CL 72 11 61","HORARIOCICLOP":"L-S 06:00 - 22:00  D-F 10:00 - 18:00","TIPOLOGIACICLOP":"8","CUPOCICLOP":24,"SELLOCICLOP":"1","ANOCICLOP":2021,"GLOBALID":"{B706E5FE-583B-4965-9CED-B8814EF0131A}"},"geometry":{"type":"Point","coordinates":[-74.059322,4.657705999847087]}},
{"type":"Feature","properties":{"fid":194,"OBJECTID":194,"ID_CICLOPARQUEDERO":1193,"CIV":2000806,"CLASECICLOP":"F","NOMBRECICLOP":"City Parking Body Cabrera","SECTORCICLOP":"2","TIPOUSUARIOCICLOP":"1","LOCALIDAD":"2","DIRECCIONCICLOP":"CL 85 7 13","HORARIOCICLOP":"L-V 07:00 - 18:30  S 8:00 - 12:30","TIPOLOGIACICLOP":"8","CUPOCICLOP":24,"SELLOCICLOP":"1","ANOCICLOP":2021,"GLOBALID":"{930F8FAA-5E0F-4D67-ACFA-3D34242A77FA}"},"geometry":{"type":"Point","coordinates":[-74.046634,4.665444999846792]}},
{"type":"Feature","properties":{"fid":196,"OBJECTID":196,"ID_CICLOPARQUEDERO":1195,"CIV":13002538,"CLASECICLOP":"F","NOMBRECICLOP":"Secretaría Distrital de Hacienda","SECTORCICLOP":"1","TIPOUSUARIOCICLOP":"1","LOCALIDAD":"13","DIRECCIONCICLOP":"KR 30 25-90","HORARIOCICLOP":"L-S:7:00 - 20:00","TIPOLOGIACICLOP":"8","CUPOCICLOP":334,"SELLOCICLOP":"1","ANOCICLOP":2020,"GLOBALID":"{2807A4E9-3E40-4EC0-8258-507B5C6C9519}"},"geometry":{"type":"Point","coordinates":[-74.081948,4.62555799984813]}},
{"type":"Feature","properties":{"fid":197,"OBJECTID":197,"ID_CICLOPARQUEDERO":1196,"CIV":13000777,"CLASECICLOP":"F","NOMBRECICLOP":"Parking International Grand Hyatt","SECTORCICLOP":"2","TIPOUSUARIOCICLOP":"1","LOCALIDAD":"13","DIRECCIONCICLOP":"CL 24a 57 60","HORARIOCICLOP":"L-D 24h","TIPOLOGIACICLOP":"8","CUPOCICLOP":190,"SELLOCICLOP":"1","ANOCICLOP":2020,"GLOBALID":"{A6B99461-A508-41C0-BBF1-2AC5E070D1E1}"},"geometry":{"type":"Point","coordinates":[-74.099673,4.644354999847522]}},
{"type":"Feature","properties":{"fid":200,"OBJECTID":200,"ID_CICLOPARQUEDERO":1199,"CIV":1006460,"CLASECICLOP":"F","NOMBRECICLOP":"Parking international Edificio Universal","SECTORCICLOP":"2","TIPOUSUARIOCICLOP":"1","LOCALIDAD":"2","DIRECCIONCICLOP":"CL 100 7ª 81","HORARIOCICLOP":"L-V 06:00 - 17:00 S 07:00 - 15:00","TIPOLOGIACICLOP":"8","CUPOCICLOP":24,"SELLOCICLOP":"1","ANOCICLOP":2020,"GLOBALID":"{6EAB10E3-5225-491F-BC5A-AB78A26362EF}"},"geometry":{"type":"Point","coordinates":[-74.039862,4.680440999846301]}},
{"type":"Feature","properties":{"fid":203,"OBJECTID":203,"ID_CICLOPARQUEDERO":1202,"CIV":2001620,"CLASECICLOP":"F","NOMBRECICLOP":"Secretaría Distrital de Ambiente","SECTORCICLOP":"1","TIPOUSUARIOCICLOP":"1","LOCALIDAD":"2","DIRECCIONCICLOP":"AV Caracas 53-38","HORARIOCICLOP":"L-V 06:00 - 20:00","TIPOLOGIACICLOP":"8","CUPOCICLOP":56,"SELLOCICLOP":"1","ANOCICLOP":2021,"GLOBALID":"{E70D5034-8FC1-417B-8E03-BD16D0C7D0A9}"},"geometry":{"type":"Point","coordinates":[-74.065518,4.642210998847564]}},
{"type":"Feature","properties":{"fid":204,"OBJECTID":204,"ID_CICLOPARQUEDERO":1203,"CIV":1003729,"CLASECICLOP":"F","NOMBRECICLOP":"Punto IPES Alcalá","SECTORCICLOP":"1","TIPOUSUARIOCICLOP":"1","LOCALIDAD":"1","DIRECCIONCICLOP":"Autonorte 136-79","HORARIOCICLOP":"L-D 8:00 - 17:00","TIPOLOGIACICLOP":"8","CUPOCICLOP":69,"SELLOCICLOP":"1","ANOCICLOP":2021,"GLOBALID":"{9A59123B-D4F4-4A04-9DC4-7A22610E27BE}"},"geometry":{"type":"Point","coordinates":[-74.050784,4.722148998844979]}},
{"type":"Feature","properties":{"fid":206,"OBJECTID":206,"ID_CICLOPARQUEDERO":1205,"CIV":8013629,"CLASECICLOP":"F","NOMBRECICLOP":"Punto IPES Mundo Aventura","SECTORCICLOP":"1","TIPOUSUARIOCICLOP":"1","LOCALIDAD":"8","DIRECCIONCICLOP":"AV Americas 71","HORARIOCICLOP":"L-D 8:00 - 17:00","TIPOLOGIACICLOP":"8","CUPOCICLOP":72,"SELLOCICLOP":"1","ANOCICLOP":2021,"GLOBALID":"{CB282D46-D070-43F5-B18E-BA5F56C2B240}"},"geometry":{"type":"Point","coordinates":[-74.134186,4.630179999847963]}},
{"type":"Feature","properties":{"fid":207,"OBJECTID":207,"ID_CICLOPARQUEDERO":1206,"CIV":13001023,"CLASECICLOP":"F","NOMBRECICLOP":"Gobernacion de Cundinamarca","SECTORCICLOP":"1","TIPOUSUARIOCICLOP":"1","LOCALIDAD":"13","DIRECCIONCICLOP":"AV. CL 26 51 53","HORARIOCICLOP":"L-S:7:00 - 20:00","TIPOLOGIACICLOP":"8","CUPOCICLOP":250,"SELLOCICLOP":"1","ANOCICLOP":2021,"GLOBALID":"{116DF579-ABCE-4A7B-B6C9-CA98B4C703DE}"},"geometry":{"type":"Point","coordinates":[-74.097106,4.641799999847578]}},
{"type":"Feature","properties":{"fid":211,"OBJECTID":211,"ID_CICLOPARQUEDERO":1210,"CIV":1005300,"CLASECICLOP":"F","NOMBRECICLOP":"EAAB - Subcentral Usaquén","SECTORCICLOP":"1","TIPOUSUARIOCICLOP":"1","LOCALIDAD":"1","DIRECCIONCICLOP":"CL 110 9 80","HORARIOCICLOP":"L-S:7:00 - 20:00","TIPOLOGIACICLOP":"8","CUPOCICLOP":36,"SELLOCICLOP":"1","ANOCICLOP":2021,"GLOBALID":"{2D7EC992-548F-488B-8730-FBA1EB1D18C0}"},"geometry":{"type":"Point","coordinates":[-74.038479387,4.691575175845978]}},
{"type":"Feature","properties":{"fid":213,"OBJECTID":213,"ID_CICLOPARQUEDERO":1212,"CIV":17000142,"CLASECICLOP":"F","NOMBRECICLOP":"Secretaria de Gobierno","SECTORCICLOP":"1","TIPOUSUARIOCICLOP":"1","LOCALIDAD":"3","DIRECCIONCICLOP":"KR 8 10 65","HORARIOCICLOP":"L-S:7:00 - 20:00","TIPOLOGIACICLOP":"8","CUPOCICLOP":199,"SELLOCICLOP":"1","ANOCICLOP":2021,"GLOBALID":"{71D2E1DC-6903-4F28-B9C2-8E368D56AC9A}"},"geometry":{"type":"Point","coordinates":[-74.077127255,4.598587872848982]}},
{"type":"Feature","properties":{"fid":215,"OBJECTID":215,"ID_CICLOPARQUEDERO":1214,"CIV":2000764,"CLASECICLOP":"F","NOMBRECICLOP":"Centro comercial Atlantis","SECTORCICLOP":"2","TIPOUSUARIOCICLOP":"1","LOCALIDAD":"2","DIRECCIONCICLOP":"CL 80 13 06","HORARIOCICLOP":"L-D 8:00 - 22:00","TIPOLOGIACICLOP":"8","CUPOCICLOP":120,"SELLOCICLOP":"1","ANOCICLOP":2021,"GLOBALID":"{A91A9CFB-E8EC-4C42-92A0-E244F40E91E8}"},"geometry":{"type":"Point","coordinates":[-74.055855421999979,4.666161499846776]}},
{"type":"Feature","properties":{"fid":216,"OBJECTID":216,"ID_CICLOPARQUEDERO":1215,"CIV":10009783,"CLASECICLOP":"F","NOMBRECICLOP":"Johnson & Johnson","SECTORCICLOP":"2","TIPOUSUARIOCICLOP":"2","LOCALIDAD":"10","DIRECCIONCICLOP":"AC 26 69 76","HORARIOCICLOP":"L-V 06:00 - 20:00","TIPOLOGIACICLOP":"8","CUPOCICLOP":52,"SELLOCICLOP":"1","ANOCICLOP":2021,"GLOBALID":"{D874D0EF-B5E6-4B16-B5F0-2D46533A218A}"},"geometry":{"type":"Point","coordinates":[-74.106295866999972,4.65971668784701]}},
{"type":"Feature","properties":{"fid":221,"OBJECTID":221,"ID_CICLOPARQUEDERO":1220,"CIV":17000149,"CLASECICLOP":"F","NOMBRECICLOP":"City Parking Capuchino Plaza","SECTORCICLOP":"2","TIPOUSUARIOCICLOP":"1","LOCALIDAD":"17","DIRECCIONCICLOP":"KR 9 10 37","HORARIOCICLOP":"L-S 6:00 -22:00 D-F 7:00 - 19:00","TIPOLOGIACICLOP":"8","CUPOCICLOP":24,"SELLOCICLOP":"1","ANOCICLOP":2021,"GLOBALID":"{C34149C2-557F-46FD-B825-48A3A968469E}"},"geometry":{"type":"Point","coordinates":[-74.077686097000026,4.59811411884901]}},
{"type":"Feature","properties":{"fid":225,"OBJECTID":225,"ID_CICLOPARQUEDERO":1224,"CIV":11014052,"CLASECICLOP":"F","NOMBRECICLOP":"City Parking Edimaz","SECTORCICLOP":"2","TIPOUSUARIOCICLOP":"1","LOCALIDAD":"11","DIRECCIONCICLOP":"KR 55 152B 68","HORARIOCICLOP":"L-V 5:00 -20 :00 S 7:00 - 17:00 D-F 7:00 - 17:00","TIPOLOGIACICLOP":"8","CUPOCICLOP":26,"SELLOCICLOP":"1","ANOCICLOP":2021,"GLOBALID":"{CE39FC0A-C126-4ACC-8750-931C40D4D4D5}"},"geometry":{"type":"Point","coordinates":[-74.056424445000019,4.738862825844435]}},
{"type":"Feature","properties":{"fid":226,"OBJECTID":226,"ID_CICLOPARQUEDERO":1225,"CIV":3000361,"CLASECICLOP":"F","NOMBRECICLOP":"City Parking Fonade","SECTORCICLOP":"2","TIPOUSUARIOCICLOP":"1","LOCALIDAD":"3","DIRECCIONCICLOP":"KR 13 25 31","HORARIOCICLOP":"L-V 06:00 - 22:00  S 07:00 - 18:00","TIPOLOGIACICLOP":"8","CUPOCICLOP":30,"SELLOCICLOP":"1","ANOCICLOP":2021,"GLOBALID":"{4CD03E91-429D-45B8-B31A-EF8986D5DECC}"},"geometry":{"type":"Point","coordinates":[-74.071673,4.612599999848519]}},
{"type":"Feature","properties":{"fid":227,"OBJECTID":227,"ID_CICLOPARQUEDERO":1226,"CIV":16004865,"CLASECICLOP":"F","NOMBRECICLOP":"City Parking Calle 13","SECTORCICLOP":"2","TIPOUSUARIOCICLOP":"1","LOCALIDAD":"16","DIRECCIONCICLOP":"CL 13 66 70","HORARIOCICLOP":"L-D 24h","TIPOLOGIACICLOP":"8","CUPOCICLOP":26,"SELLOCICLOP":"1","ANOCICLOP":2021,"GLOBALID":"{7F73390E-0D83-437A-A3BD-1927389F521F}"},"geometry":{"type":"Point","coordinates":[-74.117155,4.636809998847728]}},
{"type":"Feature","properties":{"fid":228,"OBJECTID":228,"ID_CICLOPARQUEDERO":1227,"CIV":1001394,"CLASECICLOP":"F","NOMBRECICLOP":"City Parking  Bodytech Autopista165","SECTORCICLOP":"2","TIPOUSUARIOCICLOP":"1","LOCALIDAD":"1","DIRECCIONCICLOP":"AK 45 166 56","HORARIOCICLOP":"L-J 05:00 - 23:00  V 05:00 - 21:00  S 07:00 - 18:*","TIPOLOGIACICLOP":"8","CUPOCICLOP":26,"SELLOCICLOP":"1","ANOCICLOP":2021,"GLOBALID":"{D515F94A-E851-41B4-9499-CC346B90B3FB}"},"geometry":{"type":"Point","coordinates":[-74.046478,4.748265999844119]}},
{"type":"Feature","properties":{"fid":229,"OBJECTID":229,"ID_CICLOPARQUEDERO":1228,"CIV":1002745,"CLASECICLOP":"F","NOMBRECICLOP":"City Parking Cruz Verde Cedritos","SECTORCICLOP":"2","TIPOUSUARIOCICLOP":"1","LOCALIDAD":"1","DIRECCIONCICLOP":"AV 19 151 75","HORARIOCICLOP":"L-S 06:00 - 21:00  D 06:00 - 18:00","TIPOLOGIACICLOP":"8","CUPOCICLOP":24,"SELLOCICLOP":"1","ANOCICLOP":2021,"GLOBALID":"{9EB2BC03-B85D-45D9-BCA2-1EDC33B00116}"},"geometry":{"type":"Point","coordinates":[-74.044842,4.733765999844589]}},
{"type":"Feature","properties":{"fid":231,"OBJECTID":231,"ID_CICLOPARQUEDERO":1230,"CIV":11000757,"CLASECICLOP":"F","NOMBRECICLOP":"City Parking Biblioteca Julio Mario SantoDomingo","SECTORCICLOP":"2","TIPOUSUARIOCICLOP":"1","LOCALIDAD":"11","DIRECCIONCICLOP":"CL 170 67 51","HORARIOCICLOP":"L-D 08:00 - 20:00","TIPOLOGIACICLOP":"8","CUPOCICLOP":65,"SELLOCICLOP":"1","ANOCICLOP":2021,"GLOBALID":"{8802C14C-7E00-400C-BA51-64D3E9C9C2D2}"},"geometry":{"type":"Point","coordinates":[-74.062838,4.757983999843829]}},
{"type":"Feature","properties":{"fid":232,"OBJECTID":232,"ID_CICLOPARQUEDERO":1231,"CIV":3000048,"CLASECICLOP":"F","NOMBRECICLOP":"City Parking Olivos Candelaria","SECTORCICLOP":"2","TIPOUSUARIOCICLOP":"1","LOCALIDAD":"2","DIRECCIONCICLOP":"KR 13 34 83","HORARIOCICLOP":"L-D: 06:00 - 22:00","TIPOLOGIACICLOP":"8","CUPOCICLOP":24,"SELLOCICLOP":"1","ANOCICLOP":2021,"GLOBALID":"{09A00D03-F8E8-459D-861C-D9CFB183638F}"},"geometry":{"type":"Point","coordinates":[-74.067984,4.622731999848193]}},
{"type":"Feature","properties":{"fid":233,"OBJECTID":233,"ID_CICLOPARQUEDERO":1232,"CIV":8013944,"CLASECICLOP":"F","NOMBRECICLOP":"SDIS - Centro de Desarrollo Comunitario Kennedy","SECTORCICLOP":"1","TIPOUSUARIOCICLOP":"1","LOCALIDAD":"8","DIRECCIONCICLOP":"KR 80 43 43 SUR","HORARIOCICLOP":"L-V 07:00 - 17:30","TIPOLOGIACICLOP":"8","CUPOCICLOP":24,"SELLOCICLOP":"1","ANOCICLOP":2021,"GLOBALID":"{5460FF63-092F-4B9C-AAEB-EC01C295C988}"},"geometry":{"type":"Point","coordinates":[-74.166406384000027,4.621113280848282]}},
{"type":"Feature","properties":{"fid":234,"OBJECTID":234,"ID_CICLOPARQUEDERO":1233,"CIV":13001913,"CLASECICLOP":"F","NOMBRECICLOP":"Contraloría y Lotería de Bogotá","SECTORCICLOP":"1","TIPOUSUARIOCICLOP":"1","LOCALIDAD":"13","DIRECCIONCICLOP":"KR 32a 26A 10","HORARIOCICLOP":"L-V 07:00 - 17:30","TIPOLOGIACICLOP":"8","CUPOCICLOP":36,"SELLOCICLOP":"1","ANOCICLOP":2021,"GLOBALID":"{EC01788F-6B50-49C2-B62F-EC500ABFB5A4}"},"geometry":{"type":"Point","coordinates":[-74.081950404999986,4.629289097848015]}},
{"type":"Feature","properties":{"fid":238,"OBJECTID":238,"ID_CICLOPARQUEDERO":1237,"CIV":8014079,"CLASECICLOP":"F","NOMBRECICLOP":"City Parking Bazar Alzacia","SECTORCICLOP":"2","TIPOUSUARIOCICLOP":"1","LOCALIDAD":"8","DIRECCIONCICLOP":"Cl 12 B 71 D 61","HORARIOCICLOP":"L-D 24h","TIPOLOGIACICLOP":"8","CUPOCICLOP":56,"SELLOCICLOP":"1","ANOCICLOP":2021,"GLOBALID":"{2EC0A46F-5151-41B1-BB89-C14D8DEA10B5}"},"geometry":{"type":"Point","coordinates":[-74.129863302999979,4.645514930847446]}},
{"type":"Feature","properties":{"fid":239,"OBJECTID":239,"ID_CICLOPARQUEDERO":1238,"CIV":10011692,"CLASECICLOP":"F","NOMBRECICLOP":"City Parking Lote av. ciudad de cali","SECTORCICLOP":"2","TIPOUSUARIOCICLOP":"1","LOCALIDAD":"10","DIRECCIONCICLOP":"Kr 85k #46a-45","HORARIOCICLOP":"L-D 24h","TIPOLOGIACICLOP":"8","CUPOCICLOP":34,"SELLOCICLOP":"1","ANOCICLOP":2021,"GLOBALID":"{3CEBCBFD-C44B-4540-B4B0-D70F172E62D8}"},"geometry":{"type":"Point","coordinates":[-74.117390213000022,4.679870400846364]}},
{"type":"Feature","properties":{"fid":240,"OBJECTID":240,"ID_CICLOPARQUEDERO":1239,"CIV":7009600,"CLASECICLOP":"F","NOMBRECICLOP":"Centro comercial Mi centro El Porvenir Bosa","SECTORCICLOP":"2","TIPOUSUARIOCICLOP":"1","LOCALIDAD":"7","DIRECCIONCICLOP":"CL 54F SUR 94 18","HORARIOCICLOP":"L-D 8:00 - 21:00","TIPOLOGIACICLOP":"8","CUPOCICLOP":223,"SELLOCICLOP":"2","ANOCICLOP":2022,"GLOBALID":"{880626FE-AFDC-4A2D-9934-0F472553C992}"},"geometry":{"type":"Point","coordinates":[-74.188296084,4.636923533847749]}},
{"type":"Feature","properties":{"fid":241,"OBJECTID":241,"ID_CICLOPARQUEDERO":1240,"CIV":16000300,"CLASECICLOP":"F","NOMBRECICLOP":"Centro comercial Oulet las ámericas","SECTORCICLOP":"2","TIPOUSUARIOCICLOP":"1","LOCALIDAD":"16","DIRECCIONCICLOP":"KR 62 9a 60","HORARIOCICLOP":"L-V 9:30 - 20:30","TIPOLOGIACICLOP":"8","CUPOCICLOP":50,"SELLOCICLOP":"2","ANOCICLOP":2022,"GLOBALID":"{9A5B3F44-6C97-4AB8-9485-78000BFF0847}"},"geometry":{"type":"Point","coordinates":[-74.116019173,4.629168002848021]}},
{"type":"Feature","properties":{"fid":243,"OBJECTID":243,"ID_CICLOPARQUEDERO":1242,"CIV":2002744,"CLASECICLOP":"F","NOMBRECICLOP":"Parking International Almirante Colon","SECTORCICLOP":"2","TIPOUSUARIOCICLOP":"1","LOCALIDAD":"2","DIRECCIONCICLOP":"KR 16 84A 09","HORARIOCICLOP":"L-S 6:00 - 19:00","TIPOLOGIACICLOP":"8","CUPOCICLOP":12,"SELLOCICLOP":"2","ANOCICLOP":2022,"GLOBALID":"{D4C87440-2D28-47C9-B37F-10CB9C8167E0}"},"geometry":{"type":"Point","coordinates":[-74.056601001,4.669817203846701]}},
{"type":"Feature","properties":{"fid":244,"OBJECTID":244,"ID_CICLOPARQUEDERO":1243,"CIV":10004454,"CLASECICLOP":"F","NOMBRECICLOP":"Centro comercial Primavera Plaza","SECTORCICLOP":"2","TIPOUSUARIOCICLOP":"1","LOCALIDAD":"10","DIRECCIONCICLOP":"CL 80 80 90","HORARIOCICLOP":"L-S 5:30 - 21:00 D-F 8:00 - 21:00","TIPOLOGIACICLOP":"8","CUPOCICLOP":66,"SELLOCICLOP":"2","ANOCICLOP":2022,"GLOBALID":"{A210BADA-0C79-4344-BB83-21EDAA7E40D5}"},"geometry":{"type":"Point","coordinates":[-74.103376874999981,4.704878280845521]}},
{"type":"Feature","properties":{"fid":245,"OBJECTID":245,"ID_CICLOPARQUEDERO":1244,"CIV":2000816,"CLASECICLOP":"F","NOMBRECICLOP":"Parking International Edificio 811","SECTORCICLOP":"2","TIPOUSUARIOCICLOP":"1","LOCALIDAD":"2","DIRECCIONCICLOP":"CL 81 11 08","HORARIOCICLOP":"L-J 6:00 - 20:00 V-D 6:00 - 14:00","TIPOLOGIACICLOP":"8","CUPOCICLOP":152,"SELLOCICLOP":"2","ANOCICLOP":2022,"GLOBALID":"{434CD1B3-D1DF-45EA-A323-F417D67DE267}"},"geometry":{"type":"Point","coordinates":[-74.053402216999984,4.665256984846812]}},
{"type":"Feature","properties":{"fid":246,"OBJECTID":246,"ID_CICLOPARQUEDERO":1245,"CIV":13000088,"CLASECICLOP":"F","NOMBRECICLOP":"Aparcar Biblioteca Virgilio Barco","SECTORCICLOP":"2","TIPOUSUARIOCICLOP":"1","LOCALIDAD":"12","DIRECCIONCICLOP":"AK 60 57-60","HORARIOCICLOP":"L-S 6:00 - 20:00 D-F 07:00 - 17:00","TIPOLOGIACICLOP":"8","CUPOCICLOP":42,"SELLOCICLOP":"2","ANOCICLOP":2022,"GLOBALID":"{D897D4F3-E6A3-494B-BACD-E63D4BAD840F}"},"geometry":{"type":"Point","coordinates":[-74.089326968000023,4.657278315847053]}},
{"type":"Feature","properties":{"fid":247,"OBJECTID":247,"ID_CICLOPARQUEDERO":1246,"CIV":13001005,"CLASECICLOP":"F","NOMBRECICLOP":"Parqueadero Lugano","SECTORCICLOP":"2","TIPOUSUARIOCICLOP":"1","LOCALIDAD":"2","DIRECCIONCICLOP":"KR 24 53 41","HORARIOCICLOP":"L-S 6:00 - 19:00","TIPOLOGIACICLOP":"8","CUPOCICLOP":83,"SELLOCICLOP":"2","ANOCICLOP":2022,"GLOBALID":"{773E7F87-4870-40EF-A257-E821A9C83D5C}"},"geometry":{"type":"Point","coordinates":[-74.074291748,4.642145579847554]}},
{"type":"Feature","properties":{"fid":248,"OBJECTID":248,"ID_CICLOPARQUEDERO":1247,"CIV":1006376,"CLASECICLOP":"F","NOMBRECICLOP":"Homecenter Calle 170","SECTORCICLOP":"2","TIPOUSUARIOCICLOP":"1","LOCALIDAD":"11","DIRECCIONCICLOP":"Auto Norte 175 50","HORARIOCICLOP":"L-S 7:00 - 21:00 D-F: 8:00 - 20:00","TIPOLOGIACICLOP":"8","CUPOCICLOP":75,"SELLOCICLOP":"2","ANOCICLOP":2022,"GLOBALID":"{B20AC5FB-2408-4BE4-B23A-EE38C8998A24}"},"geometry":{"type":"Point","coordinates":[-74.046533935000014,4.755860679843884]}},
{"type":"Feature","properties":{"fid":249,"OBJECTID":249,"ID_CICLOPARQUEDERO":1248,"CIV":1006420,"CLASECICLOP":"F","NOMBRECICLOP":"Centro comercial Bima","SECTORCICLOP":"2","TIPOUSUARIOCICLOP":"1","LOCALIDAD":"11","DIRECCIONCICLOP":"Auto Norte 232 35","HORARIOCICLOP":"L-V 9:00 - 19:00 S: 9:00 - 21:00 D-F: 8:00 - 21:00","TIPOLOGIACICLOP":"8","CUPOCICLOP":30,"SELLOCICLOP":"2","ANOCICLOP":2022,"GLOBALID":"{0A519B93-B0EC-4842-84FD-CC7E680AB360}"},"geometry":{"type":"Point","coordinates":[-74.038251557000024,4.806853583842229]}},
{"type":"Feature","properties":{"fid":251,"OBJECTID":251,"ID_CICLOPARQUEDERO":1250,"CIV":9004403,"CLASECICLOP":"F","NOMBRECICLOP":"Homecenter Dorado calle 26","SECTORCICLOP":"2","TIPOUSUARIOCICLOP":"1","LOCALIDAD":"10","DIRECCIONCICLOP":"Cll 50 82 55","HORARIOCICLOP":"L-S 7:00 - 21:00 D-F: 9:00 - 20:00","TIPOLOGIACICLOP":"8","CUPOCICLOP":130,"SELLOCICLOP":"2","ANOCICLOP":2022,"GLOBALID":"{60114243-6A1A-442F-ADF4-168A281F261C}"},"geometry":{"type":"Point","coordinates":[-74.117799988,4.678370756846379]}},
{"type":"Feature","properties":{"fid":252,"OBJECTID":252,"ID_CICLOPARQUEDERO":1251,"CIV":9004944,"CLASECICLOP":"F","NOMBRECICLOP":"Centro comercial Salitre plaza","SECTORCICLOP":"2","TIPOUSUARIOCICLOP":"1","LOCALIDAD":"9","DIRECCIONCICLOP":"KR 68 24 39","HORARIOCICLOP":"L-D 8:00 - 22:00","TIPOLOGIACICLOP":"8","CUPOCICLOP":186,"SELLOCICLOP":"2","ANOCICLOP":2022,"GLOBALID":"{5E193200-B681-448D-B202-A9086D4A4F40}"},"geometry":{"type":"Point","coordinates":[-74.109842304999972,4.653286308847219]}},
{"type":"Feature","properties":{"fid":253,"OBJECTID":253,"ID_CICLOPARQUEDERO":1252,"CIV":9004096,"CLASECICLOP":"F","NOMBRECICLOP":"Parqueadero H&H","SECTORCICLOP":"2","TIPOUSUARIOCICLOP":"1","LOCALIDAD":"9","DIRECCIONCICLOP":"CL 26 103 04","HORARIOCICLOP":"L-V 07:00 - 18:30 S 8:00 - 12:30","TIPOLOGIACICLOP":"8","CUPOCICLOP":292,"SELLOCICLOP":"2","ANOCICLOP":2022,"GLOBALID":"{0DB1B557-438F-4824-8A52-D03AF4243774}"},"geometry":{"type":"Point","coordinates":[-74.131900791000021,4.689565895846009]}},
{"type":"Feature","properties":{"fid":254,"OBJECTID":254,"ID_CICLOPARQUEDERO":1253,"CIV":3000600,"CLASECICLOP":"F","NOMBRECICLOP":"City Parking Universidad Central Campus","SECTORCICLOP":"2","TIPOUSUARIOCICLOP":"1","LOCALIDAD":"17","DIRECCIONCICLOP":"KR 5 21 38","HORARIOCICLOP":"L-V 06:00 - 22:00  S:6:00 - 18:00","TIPOLOGIACICLOP":"8","CUPOCICLOP":120,"SELLOCICLOP":"2","ANOCICLOP":2022,"GLOBALID":"{4AD32F9B-7381-494F-907A-E33346C2B040}"},"geometry":{"type":"Point","coordinates":[-74.068401280999979,4.605305126848782]}},
{"type":"Feature","properties":{"fid":255,"OBJECTID":255,"ID_CICLOPARQUEDERO":1254,"CIV":10011417,"CLASECICLOP":"F","NOMBRECICLOP":"Home center calle 80","SECTORCICLOP":"2","TIPOUSUARIOCICLOP":"1","LOCALIDAD":"10","DIRECCIONCICLOP":"KR 68 80 77","HORARIOCICLOP":"L-S 7:00 - 21:00 D-F: 9:00 - 20:0","TIPOLOGIACICLOP":"8","CUPOCICLOP":110,"SELLOCICLOP":"2","ANOCICLOP":2022,"GLOBALID":"{027146AD-1988-48DD-B2EC-4B29611CF94B}"},"geometry":{"type":"Point","coordinates":[-74.078922864,4.684864770846166]}},
{"type":"Feature","properties":{"fid":259,"OBJECTID":259,"ID_CICLOPARQUEDERO":1258,"CIV":11011022,"CLASECICLOP":"F","NOMBRECICLOP":"Instituto Distrital de Protección y Bienestar Ani*","SECTORCICLOP":"1","TIPOUSUARIOCICLOP":"1","LOCALIDAD":"10","DIRECCIONCICLOP":"KR 106a 67 02","HORARIOCICLOP":"L-V 07:00 - 17:30","TIPOLOGIACICLOP":"8","CUPOCICLOP":33,"SELLOCICLOP":"2","ANOCICLOP":2021,"GLOBALID":"{84592C51-2CAC-43FC-8F73-D126A2B86BCF}"},"geometry":{"type":"Point","coordinates":[-74.077058,4.698559999845722]}},
{"type":"Feature","properties":{"fid":260,"OBJECTID":260,"ID_CICLOPARQUEDERO":1259,"CIV":1004934,"CLASECICLOP":"F","NOMBRECICLOP":"Home Sentry 116","SECTORCICLOP":"2","TIPOUSUARIOCICLOP":"1","LOCALIDAD":"1","DIRECCIONCICLOP":"CL 116 19 17","HORARIOCICLOP":"L-D 8:00 - 22:00","TIPOLOGIACICLOP":"8","CUPOCICLOP":40,"SELLOCICLOP":"2","ANOCICLOP":2021,"GLOBALID":"{3B24D42A-33EE-4733-89B0-039FA91385CF}"},"geometry":{"type":"Point","coordinates":[-74.050108637999983,4.698475388845752]}},
{"type":"Feature","properties":{"fid":268,"OBJECTID":268,"ID_CICLOPARQUEDERO":1267,"CIV":10010283,"CLASECICLOP":"F","NOMBRECICLOP":"Centro comecial Diver Plaza","SECTORCICLOP":"2","TIPOUSUARIOCICLOP":"1","LOCALIDAD":"10","DIRECCIONCICLOP":"TV 99 70A 89","HORARIOCICLOP":"L-D 10:00 - 21:00","TIPOLOGIACICLOP":"8","CUPOCICLOP":145,"SELLOCICLOP":"2","ANOCICLOP":2022,"GLOBALID":"{C0F9E876-4287-4AB3-BE6E-0AE63EC495FB}"},"geometry":{"type":"Point","coordinates":[-74.115508886999976,4.700926833845629]}},
{"type":"Feature","properties":{"fid":272,"OBJECTID":272,"ID_CICLOPARQUEDERO":1271,"CIV":2000149,"CLASECICLOP":"F","NOMBRECICLOP":"Edificio Green Office Corporativo","SECTORCICLOP":"2","TIPOUSUARIOCICLOP":"2","LOCALIDAD":"2","DIRECCIONCICLOP":"KR 11 97 7","HORARIOCICLOP":"L-V 7:00 - 19:00","TIPOLOGIACICLOP":"8","CUPOCICLOP":172,"SELLOCICLOP":"2","ANOCICLOP":2022,"GLOBALID":"{A0A440D5-DB02-4028-B661-F33EA3EC7A8A}"},"geometry":{"type":"Point","coordinates":[-74.044365840000012,4.681222083846316]}},
{"type":"Feature","properties":{"fid":273,"OBJECTID":273,"ID_CICLOPARQUEDERO":1272,"CIV":9004084,"CLASECICLOP":"F","NOMBRECICLOP":"Parking hotel habitel","SECTORCICLOP":"2","TIPOUSUARIOCICLOP":"1","LOCALIDAD":"9","DIRECCIONCICLOP":"AV CL 26 100 89","HORARIOCICLOP":"L-V 7:00 - 19:00","TIPOLOGIACICLOP":"8","CUPOCICLOP":24,"SELLOCICLOP":"2","ANOCICLOP":2022,"GLOBALID":"{C8246C77-EA9E-49FA-B4E6-6101F6FB40F7}"},"geometry":{"type":"Point","coordinates":[-74.130479598000022,4.688193667846075]}},
{"type":"Feature","properties":{"fid":274,"OBJECTID":274,"ID_CICLOPARQUEDERO":1273,"CIV":10007210,"CLASECICLOP":"F","NOMBRECICLOP":"Parking Jumbo Calle 80","SECTORCICLOP":"2","TIPOUSUARIOCICLOP":"1","LOCALIDAD":"10","DIRECCIONCICLOP":"CL 80 69Q 50","HORARIOCICLOP":"L-V 7:00 - 19:00","TIPOLOGIACICLOP":"8","CUPOCICLOP":140,"SELLOCICLOP":"2","ANOCICLOP":2022,"GLOBALID":"{F1A004EC-CF43-4875-854F-12F1DC29D0CC}"},"geometry":{"type":"Point","coordinates":[-74.083937151999976,4.69117006584596]}},
{"type":"Feature","properties":{"fid":275,"OBJECTID":275,"ID_CICLOPARQUEDERO":1274,"CIV":1005349,"CLASECICLOP":"F","NOMBRECICLOP":"Edificio Teleport Bussines","SECTORCICLOP":"2","TIPOUSUARIOCICLOP":"2","LOCALIDAD":"1","DIRECCIONCICLOP":"CL 113 7 45","HORARIOCICLOP":"L-V 7:00 - 19:00","TIPOLOGIACICLOP":"8","CUPOCICLOP":60,"SELLOCICLOP":"2","ANOCICLOP":2022,"GLOBALID":"{A9DC9005-D7C8-473D-843A-FE436F50AD49}"},"geometry":{"type":"Point","coordinates":[-74.035116018,4.691797200845944]}},
{"type":"Feature","properties":{"fid":278,"OBJECTID":278,"ID_CICLOPARQUEDERO":1277,"CIV":6001776,"CLASECICLOP":"F","NOMBRECICLOP":"Alcaldía Local de Tunjuelito","SECTORCICLOP":"1","TIPOUSUARIOCICLOP":"1","LOCALIDAD":"6","DIRECCIONCICLOP":"CL 51 SUR 7 35","HORARIOCICLOP":"L-V 7:00 - 19:00","TIPOLOGIACICLOP":"2","CUPOCICLOP":30,"SELLOCICLOP":"1","ANOCICLOP":2022,"GLOBALID":"{D7112242-E1AA-4502-9757-3792CA362580}"},"geometry":{"type":"Point","coordinates":[-74.121770116,4.556206337850353]}},
{"type":"Feature","properties":{"fid":279,"OBJECTID":279,"ID_CICLOPARQUEDERO":1278,"CIV":7005135,"CLASECICLOP":"F","NOMBRECICLOP":"Alcaldía Local de Bosa","SECTORCICLOP":"1","TIPOUSUARIOCICLOP":"1","LOCALIDAD":"7","DIRECCIONCICLOP":"KR 80i 69 70 SUR","HORARIOCICLOP":"L-V 7:00 - 19:00","TIPOLOGIACICLOP":"2","CUPOCICLOP":46,"SELLOCICLOP":"1","ANOCICLOP":2022,"GLOBALID":"{15BB28B6-E975-4132-976B-6D5640D25E78}"},"geometry":{"type":"Point","coordinates":[-74.184778887999983,4.610487082848616]}},
{"type":"Feature","properties":{"fid":283,"OBJECTID":283,"ID_CICLOPARQUEDERO":1282,"CIV":7004839,"CLASECICLOP":"F","NOMBRECICLOP":"Jardin Infantil Diurno-ABSUN","SECTORCICLOP":"1","TIPOUSUARIOCICLOP":"1","LOCALIDAD":"7","DIRECCIONCICLOP":"CL 81 SUR 81 - 75","HORARIOCICLOP":"L-V 7:00 - 19:00","TIPOLOGIACICLOP":"8","CUPOCICLOP":19,"SELLOCICLOP":"2","ANOCICLOP":2022,"GLOBALID":"{37275A37-7B13-479C-B0DE-668EF7890C02}"},"geometry":{"type":"Point","coordinates":[-74.205407499999978,4.612672399848544]}},
{"type":"Feature","properties":{"fid":285,"OBJECTID":285,"ID_CICLOPARQUEDERO":1284,"CIV":7009064,"CLASECICLOP":"F","NOMBRECICLOP":"Jardin Infantil Diurno-Los cedros","SECTORCICLOP":"1","TIPOUSUARIOCICLOP":"1","LOCALIDAD":"7","DIRECCIONCICLOP":"KR 81 A 84 C 25 SUR","HORARIOCICLOP":"L-V 7:00 - 19:00","TIPOLOGIACICLOP":"8","CUPOCICLOP":20,"SELLOCICLOP":"2","ANOCICLOP":2022,"GLOBALID":"{10D7E04F-385B-46C1-A3D9-1BE3D561578B}"},"geometry":{"type":"Point","coordinates":[-74.182772049,4.612745456848546]}},
{"type":"Feature","properties":{"fid":287,"OBJECTID":287,"ID_CICLOPARQUEDERO":1286,"CIV":8009344,"CLASECICLOP":"F","NOMBRECICLOP":"Comisarias de Familia- CFAM Kennedy","SECTORCICLOP":"1","TIPOUSUARIOCICLOP":"1","LOCALIDAD":"8","DIRECCIONCICLOP":"KR 74 42 G 52 SUR","HORARIOCICLOP":"L-V 7:00 - 19:00","TIPOLOGIACICLOP":"8","CUPOCICLOP":29,"SELLOCICLOP":"2","ANOCICLOP":2022,"GLOBALID":"{A3D5FFBE-D3AA-4E35-A96D-59D72A353921}"},"geometry":{"type":"Point","coordinates":[-74.157981939000024,4.610304783848604]}},
{"type":"Feature","properties":{"fid":288,"OBJECTID":288,"ID_CICLOPARQUEDERO":1287,"CIV":8011656,"CLASECICLOP":"F","NOMBRECICLOP":"Nuestra Señora de Guadalupe el Paraiso","SECTORCICLOP":"1","TIPOUSUARIOCICLOP":"1","LOCALIDAD":"8","DIRECCIONCICLOP":"CL 39 SUR 89 C 37","HORARIOCICLOP":"L-V 7:00 - 19:00","TIPOLOGIACICLOP":"8","CUPOCICLOP":12,"SELLOCICLOP":"2","ANOCICLOP":2022,"GLOBALID":"{A6C8A61A-6F13-4554-81DE-8FBBA2703D2D}"},"geometry":{"type":"Point","coordinates":[-74.169226799,4.640089693847624]}},
{"type":"Feature","properties":{"fid":300,"OBJECTID":300,"ID_CICLOPARQUEDERO":1299,"CIV":13000449,"CLASECICLOP":"F","NOMBRECICLOP":"Imprenta Nacional","SECTORCICLOP":"1","TIPOUSUARIOCICLOP":"1","LOCALIDAD":"13","DIRECCIONCICLOP":"KR 66 24 09","HORARIOCICLOP":"L-V 8:00 - 17:00","TIPOLOGIACICLOP":"8","CUPOCICLOP":58,"SELLOCICLOP":"1","ANOCICLOP":2022,"GLOBALID":"{B447649E-75C9-469F-8E87-DAF28FE3CC6B}"},"geometry":{"type":"Point","coordinates":[-74.105506757,4.649224399847323]}},
{"type":"Feature","properties":{"fid":301,"OBJECTID":301,"ID_CICLOPARQUEDERO":1300,"CIV":13002078,"CLASECICLOP":"F","NOMBRECICLOP":"Alcaldia Local de Teusaquillo","SECTORCICLOP":"1","TIPOUSUARIOCICLOP":"1","LOCALIDAD":"13","DIRECCIONCICLOP":"TV 18 BIS 38 41","HORARIOCICLOP":"L-V 7:00 - 16:30","TIPOLOGIACICLOP":"2","CUPOCICLOP":32,"SELLOCICLOP":"1","ANOCICLOP":2022,"GLOBALID":"{C50D99EF-EBDB-444C-94F1-BC936F0D3109}"},"geometry":{"type":"Point","coordinates":[-74.072377518,4.626947443848065]}},
{"type":"Feature","properties":{"fid":304,"OBJECTID":304,"ID_CICLOPARQUEDERO":1303,"CIV":1003147,"CLASECICLOP":"F","NOMBRECICLOP":"Homecenter Cedritos","SECTORCICLOP":"2","TIPOUSUARIOCICLOP":"1","LOCALIDAD":"1","DIRECCIONCICLOP":"KR 9 152A 23","HORARIOCICLOP":"L-D 7:00 - 21:00","TIPOLOGIACICLOP":"8","CUPOCICLOP":78,"SELLOCICLOP":"2","ANOCICLOP":2022,"GLOBALID":"{79458789-9501-46ED-B198-22E114F8BEA7}"},"geometry":{"type":"Point","coordinates":[-74.03274552900001,4.730566022844696]}},
{"type":"Feature","properties":{"fid":307,"OBJECTID":307,"ID_CICLOPARQUEDERO":1306,"CIV":8012886,"CLASECICLOP":"F","NOMBRECICLOP":"Homecenter Tintal","SECTORCICLOP":"2","TIPOUSUARIOCICLOP":"1","LOCALIDAD":"8","DIRECCIONCICLOP":"CL 10B 86 50","HORARIOCICLOP":"L-D 8:00 - 21:00","TIPOLOGIACICLOP":"8","CUPOCICLOP":100,"SELLOCICLOP":"2","ANOCICLOP":2023,"GLOBALID":"{20DB5205-EEA0-4343-9A1D-C3C647A87783}"},"geometry":{"type":"Point","coordinates":[-74.146007247,4.65148760284729]}},
{"type":"Feature","properties":{"fid":308,"OBJECTID":308,"ID_CICLOPARQUEDERO":1307,"CIV":10011417,"CLASECICLOP":"F","NOMBRECICLOP":"Homecenter Avenida 68","SECTORCICLOP":"2","TIPOUSUARIOCICLOP":"1","LOCALIDAD":"10","DIRECCIONCICLOP":"AKR 68 80 77","HORARIOCICLOP":"L-D 7:00 - 21:00","TIPOLOGIACICLOP":"8","CUPOCICLOP":70,"SELLOCICLOP":"2","ANOCICLOP":2022,"GLOBALID":"{B0F8489D-6DBB-4C30-BDEB-FDBCBF6DEF96}"},"geometry":{"type":"Point","coordinates":[-74.078943749000018,4.684970905846172]}},
{"type":"Feature","properties":{"fid":309,"OBJECTID":309,"ID_CICLOPARQUEDERO":1308,"CIV":13001213,"CLASECICLOP":"F","NOMBRECICLOP":"City Parking Portal Belalcazar","SECTORCICLOP":"2","TIPOUSUARIOCICLOP":"1","LOCALIDAD":"13","DIRECCIONCICLOP":"KR 30 48 38","HORARIOCICLOP":"L-D 6:00 - 22:00","TIPOLOGIACICLOP":"8","CUPOCICLOP":24,"SELLOCICLOP":"1","ANOCICLOP":2023,"GLOBALID":"{9F8D34D9-D855-4299-A04B-4EE224924BFC}"},"geometry":{"type":"Point","coordinates":[-74.078696588000014,4.638146469847687]}},
{"type":"Feature","properties":{"fid":312,"OBJECTID":312,"ID_CICLOPARQUEDERO":1311,"CIV":3000361,"CLASECICLOP":"F","NOMBRECICLOP":"City Parking Carrera 13","SECTORCICLOP":"2","TIPOUSUARIOCICLOP":"1","LOCALIDAD":"3","DIRECCIONCICLOP":"KR 13 26 85","HORARIOCICLOP":"L-D 5:30 - 22:00","TIPOLOGIACICLOP":"8","CUPOCICLOP":24,"SELLOCICLOP":"1","ANOCICLOP":2023,"GLOBALID":"{5165CFA8-1167-4C05-BCC3-5B6F3F034542}"},"geometry":{"type":"Point","coordinates":[-74.071661729000027,4.612504486848564]}},
{"type":"Feature","properties":{"fid":314,"OBJECTID":314,"ID_CICLOPARQUEDERO":1313,"CIV":10010354,"CLASECICLOP":"F","NOMBRECICLOP":"Centro comercial Nuestro Bogotá","SECTORCICLOP":"2","TIPOUSUARIOCICLOP":"1","LOCALIDAD":"10","DIRECCIONCICLOP":"AV KR 86 55A 75","HORARIOCICLOP":"L-D 10:00 - 20:00","TIPOLOGIACICLOP":"8","CUPOCICLOP":687,"SELLOCICLOP":"1","ANOCICLOP":2023,"GLOBALID":"{1684DB0D-17B4-4ACE-A4A4-46BCC02B9AA2}"},"geometry":{"type":"Point","coordinates":[-74.116162781000014,4.682790610846231]}},
{"type":"Feature","properties":{"fid":315,"OBJECTID":315,"ID_CICLOPARQUEDERO":1314,"CIV":9004741,"CLASECICLOP":"F","NOMBRECICLOP":"Centro comercial Dorado Plaza","SECTORCICLOP":"2","TIPOUSUARIOCICLOP":"1","LOCALIDAD":"9","DIRECCIONCICLOP":"AC 26 85D 55","HORARIOCICLOP":"L-V 8:00 - 17:00   D-F 7:00 - 20:00","TIPOLOGIACICLOP":"8","CUPOCICLOP":100,"SELLOCICLOP":"1","ANOCICLOP":2023,"GLOBALID":"{032B7F09-F81E-496E-B044-DEF2BDAB9424}"},"geometry":{"type":"Point","coordinates":[-74.119249253000021,4.676432520846442]}},
{"type":"Feature","properties":{"fid":320,"OBJECTID":320,"ID_CICLOPARQUEDERO":1319,"CIV":2000271,"CLASECICLOP":"F","NOMBRECICLOP":"Edificio Calle 95","SECTORCICLOP":"2","TIPOUSUARIOCICLOP":"1","LOCALIDAD":"2","DIRECCIONCICLOP":"Cl. 95 10-71","HORARIOCICLOP":"L-V 7:00 - 16:30","TIPOLOGIACICLOP":"8","CUPOCICLOP":69,"SELLOCICLOP":"2","ANOCICLOP":2023,"GLOBALID":"{19C1F424-75AA-468D-A74F-EB7B1C439E45}"},"geometry":{"type":"Point","coordinates":[-74.045227383,4.678302223846392]}},
{"type":"Feature","properties":{"fid":323,"OBJECTID":323,"ID_CICLOPARQUEDERO":1322,"CIV":1005740,"CLASECICLOP":"F","NOMBRECICLOP":"Edificio Ecotower 100","SECTORCICLOP":"2","TIPOUSUARIOCICLOP":"1","LOCALIDAD":"1","DIRECCIONCICLOP":"CL 100 19A 44","HORARIOCICLOP":"L-V 7:00 - 16:30","TIPOLOGIACICLOP":"8","CUPOCICLOP":37,"SELLOCICLOP":"2","ANOCICLOP":2023,"GLOBALID":"{804CCA38-9000-42D1-B4AF-A06D4B94189C}"},"geometry":{"type":"Point","coordinates":[-74.05347615300002,4.686473635846149]}},
{"type":"Feature","properties":{"fid":324,"OBJECTID":324,"ID_CICLOPARQUEDERO":1323,"CIV":1007973,"CLASECICLOP":"F","NOMBRECICLOP":"Edificio Ecotower Chico","SECTORCICLOP":"2","TIPOUSUARIOCICLOP":"1","LOCALIDAD":"1","DIRECCIONCICLOP":"CL 100 23 10","HORARIOCICLOP":"L-V 7:00 - 16:30","TIPOLOGIACICLOP":"8","CUPOCICLOP":86,"SELLOCICLOP":"2","ANOCICLOP":2023,"GLOBALID":"{6F468A4C-4DC6-4DB0-BFA6-5998EB63A8D5}"},"geometry":{"type":"Point","coordinates":[-74.056011682000019,4.687265129846117]}},
{"type":"Feature","properties":{"fid":325,"OBJECTID":325,"ID_CICLOPARQUEDERO":1324,"CIV":11000448,"CLASECICLOP":"F","NOMBRECICLOP":"Colegio Marymount","SECTORCICLOP":"2","TIPOUSUARIOCICLOP":"2","LOCALIDAD":"11","DIRECCIONCICLOP":"CL 169B 74A 02","HORARIOCICLOP":"L-V 7:00 - 16:30","TIPOLOGIACICLOP":"8","CUPOCICLOP":38,"SELLOCICLOP":"1","ANOCICLOP":2023,"GLOBALID":"{B096784C-E4F7-4F03-8348-BA8D54B6E653}"},"geometry":{"type":"Point","coordinates":[-74.066314592000026,4.757094691843848]}},
{"type":"Feature","properties":{"fid":326,"OBJECTID":326,"ID_CICLOPARQUEDERO":1325,"CIV":2000046,"CLASECICLOP":"F","NOMBRECICLOP":"Torre Empresarial FD100","SECTORCICLOP":"2","TIPOUSUARIOCICLOP":"1","LOCALIDAD":"2","DIRECCIONCICLOP":"AC 100 13 95","HORARIOCICLOP":"L-V 7:00 - 16:30","TIPOLOGIACICLOP":"8","CUPOCICLOP":189,"SELLOCICLOP":"1","ANOCICLOP":2023,"GLOBALID":"{FF9785B4-2F5D-447A-8113-772FEB2CE4AE}"},"geometry":{"type":"Point","coordinates":[-74.04721594,4.683887163846214]}},
{"type":"Feature","properties":{"fid":329,"OBJECTID":329,"ID_CICLOPARQUEDERO":1328,"CIV":3000531,"CLASECICLOP":"F","NOMBRECICLOP":"Personeria","SECTORCICLOP":"1","TIPOUSUARIOCICLOP":"1","LOCALIDAD":"3","DIRECCIONCICLOP":"KR 7 21 24","HORARIOCICLOP":"L-V 7:00 - 16:30","TIPOLOGIACICLOP":"8","CUPOCICLOP":42,"SELLOCICLOP":"1","ANOCICLOP":2023,"GLOBALID":"{99133CDB-0F46-4728-9AB1-6A36B470685F}"},"geometry":{"type":"Point","coordinates":[-74.070884018000015,4.607207458848707]}},
{"type":"Feature","properties":{"fid":330,"OBJECTID":330,"ID_CICLOPARQUEDERO":1329,"CIV":1007030,"CLASECICLOP":"F","NOMBRECICLOP":"Edificio Prime Tower MTS","SECTORCICLOP":"2","TIPOUSUARIOCICLOP":"1","LOCALIDAD":"2","DIRECCIONCICLOP":" CL 95 10 71","HORARIOCICLOP":"L-V 7:00 - 16:30","TIPOLOGIACICLOP":"8","CUPOCICLOP":139,"SELLOCICLOP":"1","ANOCICLOP":2023,"GLOBALID":"{1238481A-D3AD-4FED-9C2A-28933CEED1ED}"},"geometry":{"type":"Point","coordinates":[-74.052547157,4.68634285484616]}},
{"type":"Feature","properties":{"fid":333,"OBJECTID":333,"ID_CICLOPARQUEDERO":1332,"CIV":0,"CLASECICLOP":"F","NOMBRECICLOP":"Compensar Av 68","SECTORCICLOP":"2","TIPOUSUARIOCICLOP":"2","LOCALIDAD":"10","DIRECCIONCICLOP":"AK 68 49A 47","HORARIOCICLOP":"L-D 5:00 - 21:00","TIPOLOGIACICLOP":"8","CUPOCICLOP":267,"SELLOCICLOP":"2","ANOCICLOP":2023,"GLOBALID":"{3014910C-BE97-4795-9DD6-26F52E75C5C1}"},"geometry":{"type":"Point","coordinates":[-74.09899088200001,4.660572909846961]}},
{"type":"Feature","properties":{"fid":334,"OBJECTID":334,"ID_CICLOPARQUEDERO":1333,"CIV":3000773,"CLASECICLOP":"F","NOMBRECICLOP":"Parque Comercial La Victoria","SECTORCICLOP":"2","TIPOUSUARIOCICLOP":"1","LOCALIDAD":"3","DIRECCIONCICLOP":"AV CARACAS 9 48","HORARIOCICLOP":"L-D 9:00 - 18:00","TIPOLOGIACICLOP":"8","CUPOCICLOP":140,"SELLOCICLOP":"2","ANOCICLOP":2023,"GLOBALID":"{B22A9E75-BE09-4E84-81A5-0D520CE9F44D}"},"geometry":{"type":"Point","coordinates":[-74.081697243,4.600431296848936]}},
{"type":"Feature","properties":{"fid":335,"OBJECTID":335,"ID_CICLOPARQUEDERO":1334,"CIV":14000082,"CLASECICLOP":"F","NOMBRECICLOP":"Centro comercial mall plaza","SECTORCICLOP":"2","TIPOUSUARIOCICLOP":"1","LOCALIDAD":"14","DIRECCIONCICLOP":"AV CR 30 19","HORARIOCICLOP":"L-D 9:00 - 22:00","TIPOLOGIACICLOP":"8","CUPOCICLOP":262,"SELLOCICLOP":"2","ANOCICLOP":2023,"GLOBALID":"{EA6AE37A-9BD1-41B7-A183-A6455CFBEF97}"},"geometry":{"type":"Point","coordinates":[-74.086601968000025,4.618965054848324]}},
{"type":"Feature","properties":{"fid":336,"OBJECTID":336,"ID_CICLOPARQUEDERO":1335,"CIV":8006879,"CLASECICLOP":"F","NOMBRECICLOP":"Home Sentry Americas","SECTORCICLOP":"2","TIPOUSUARIOCICLOP":"1","LOCALIDAD":"8","DIRECCIONCICLOP":"CL 3 71C 19","HORARIOCICLOP":"L-D 9:00 - 20:00","TIPOLOGIACICLOP":"8","CUPOCICLOP":37,"SELLOCICLOP":"2","ANOCICLOP":2023,"GLOBALID":"{B1472901-BBB4-4215-BB8D-E1851C8E71FD}"},"geometry":{"type":"Point","coordinates":[-74.136942268999974,4.620260081848306]}},
{"type":"Feature","properties":{"fid":337,"OBJECTID":337,"ID_CICLOPARQUEDERO":1336,"CIV":12003358,"CLASECICLOP":"F","NOMBRECICLOP":"Home Sentry Avenida 68","SECTORCICLOP":"2","TIPOUSUARIOCICLOP":"1","LOCALIDAD":"12","DIRECCIONCICLOP":"AK 68 64 50","HORARIOCICLOP":"L-D 9:00 - 20:00","TIPOLOGIACICLOP":"8","CUPOCICLOP":47,"SELLOCICLOP":"2","ANOCICLOP":2023,"GLOBALID":"{A427CF9D-EA22-4C87-A989-CB9E5D2F5399}"},"geometry":{"type":"Point","coordinates":[-74.088713396,4.671825654846631]}},
{"type":"Feature","properties":{"fid":340,"OBJECTID":340,"ID_CICLOPARQUEDERO":1339,"CIV":10006230,"CLASECICLOP":"F","NOMBRECICLOP":"Makro calle 80","SECTORCICLOP":"2","TIPOUSUARIOCICLOP":"1","LOCALIDAD":"10","DIRECCIONCICLOP":"CL 81B  13","HORARIOCICLOP":"L-D 8:00 - 21:00","TIPOLOGIACICLOP":"8","CUPOCICLOP":128,"SELLOCICLOP":"2","ANOCICLOP":2023,"GLOBALID":"{E07ADCFA-FBAD-4649-AF59-203EDE9586D8}"},"geometry":{"type":"Point","coordinates":[-74.087529491,4.697427215845766]}},
{"type":"Feature","properties":{"fid":342,"OBJECTID":342,"ID_CICLOPARQUEDERO":1341,"CIV":16001973,"CLASECICLOP":"F","NOMBRECICLOP":"Alkosto Kr 30","SECTORCICLOP":"2","TIPOUSUARIOCICLOP":"1","LOCALIDAD":"16","DIRECCIONCICLOP":"KR 30 10 25","HORARIOCICLOP":"L-D 8:00 - 21:00","TIPOLOGIACICLOP":"8","CUPOCICLOP":55,"SELLOCICLOP":"2","ANOCICLOP":2023,"GLOBALID":"{36928856-E23F-431A-AFA0-EFB354811C85}"},"geometry":{"type":"Point","coordinates":[-74.094814765000024,4.611594484848578]}},
{"type":"Feature","properties":{"fid":345,"OBJECTID":345,"ID_CICLOPARQUEDERO":1344,"CIV":2000474,"CLASECICLOP":"F","NOMBRECICLOP":"FIC9211","SECTORCICLOP":"2","TIPOUSUARIOCICLOP":"2","LOCALIDAD":"2","DIRECCIONCICLOP":"KR 11 91 46","HORARIOCICLOP":"L-V 7:00 - 16:30","TIPOLOGIACICLOP":"8","CUPOCICLOP":138,"SELLOCICLOP":"1","ANOCICLOP":2023,"GLOBALID":"{1406F82E-792B-4834-B1A4-5AE0D085C1C7}"},"geometry":{"type":"Point","coordinates":[-74.048093844,4.673189130846579]}},
{"type":"Feature","properties":{"fid":346,"OBJECTID":346,"ID_CICLOPARQUEDERO":1345,"CIV":2002299,"CLASECICLOP":"F","NOMBRECICLOP":"Compensar 94","SECTORCICLOP":"2","TIPOUSUARIOCICLOP":"2","LOCALIDAD":"2","DIRECCIONCICLOP":"CL 94 23 43","HORARIOCICLOP":"L-D 8:00 - 18:00","TIPOLOGIACICLOP":"8","CUPOCICLOP":52,"SELLOCICLOP":"2","ANOCICLOP":2023,"GLOBALID":"{8D14BDE2-B0E0-4CB1-857C-22A2EF5C5EB6}"},"geometry":{"type":"Point","coordinates":[-74.057561580000026,4.681418163846281]}},
{"type":"Feature","properties":{"fid":350,"OBJECTID":350,"ID_CICLOPARQUEDERO":3240,"CIV":1006554,"CLASECICLOP":"F","NOMBRECICLOP":"Universidad del Rosario Sede Norte","SECTORCICLOP":"2","TIPOUSUARIOCICLOP":"2","LOCALIDAD":"1","DIRECCIONCICLOP":"KR 7 200","HORARIOCICLOP":"L-V 7:00 - 19:00","TIPOLOGIACICLOP":"8","CUPOCICLOP":88,"SELLOCICLOP":"1","ANOCICLOP":2024,"GLOBALID":"{7317949B-5BE1-4538-B52A-A54F48DB53C8}"},"geometry":{"type":"Point","coordinates":[-74.035616788000027,4.774308637843251]}},
{"type":"Feature","properties":{"fid":353,"OBJECTID":353,"ID_CICLOPARQUEDERO":3243,"CIV":1001428,"CLASECICLOP":"F","NOMBRECICLOP":"Paqueaderos Tequendama KR 14 169 49","SECTORCICLOP":"2","TIPOUSUARIOCICLOP":"1","LOCALIDAD":"1","DIRECCIONCICLOP":"KR 14 169 49","HORARIOCICLOP":"L-D 08:00 - 20:00","TIPOLOGIACICLOP":"8","CUPOCICLOP":629,"SELLOCICLOP":"1","ANOCICLOP":2024,"GLOBALID":"{BF11A84A-CFF0-4FE9-972D-5EEFD8D6B4F8}"},"geometry":{"type":"Point","coordinates":[-74.03528,4.747992726844126]}},
{"type":"Feature","properties":{"fid":354,"OBJECTID":354,"ID_CICLOPARQUEDERO":3244,"CIV":6001751,"CLASECICLOP":"F","NOMBRECICLOP":"Estación Molinos","SECTORCICLOP":"1","TIPOUSUARIOCICLOP":"1","LOCALIDAD":"18","DIRECCIONCICLOP":"Caracas Sur","HORARIOCICLOP":"L-D 05:00 - 24:00","TIPOLOGIACICLOP":"8","CUPOCICLOP":300,"SELLOCICLOP":"1","ANOCICLOP":2018,"GLOBALID":"{CCD3207A-7E93-4622-852C-C1CDCA2D6BB8}"},"geometry":{"type":"Point","coordinates":[-74.121905455,4.55718545485036]}},
{"type":"Feature","properties":{"fid":355,"OBJECTID":355,"ID_CICLOPARQUEDERO":3245,"CIV":8008879,"CLASECICLOP":"F","NOMBRECICLOP":"Centro de Desarrollo Comunitario Lago Timiza","SECTORCICLOP":"1","TIPOUSUARIOCICLOP":"1","LOCALIDAD":"8","DIRECCIONCICLOP":" KR 74 42g Sur 52","HORARIOCICLOP":"L-V 7:00 - 16:30","TIPOLOGIACICLOP":"8","CUPOCICLOP":24,"SELLOCICLOP":"1","ANOCICLOP":2024,"GLOBALID":"{64489EB5-BD21-4EBF-8B22-E26E24FBA67E}"},"geometry":{"type":"Point","coordinates":[-74.16984,4.612596363848549]}},
{"type":"Feature","properties":{"fid":356,"OBJECTID":356,"ID_CICLOPARQUEDERO":3246,"CIV":12000297,"CLASECICLOP":"F","NOMBRECICLOP":"Empresa de Seguridad San Martin","SECTORCICLOP":"2","TIPOUSUARIOCICLOP":"2","LOCALIDAD":"12","DIRECCIONCICLOP":"CL 94 Bis 49 A  40","HORARIOCICLOP":"L-V 7:00 - 16:30","TIPOLOGIACICLOP":"8","CUPOCICLOP":12,"SELLOCICLOP":"1","ANOCICLOP":2024,"GLOBALID":"{E9F3294B-8EB4-4B37-B0E7-B4BAEA48F357}"},"geometry":{"type":"Point","coordinates":[-74.062618182,4.682916363846241]}},
{"type":"Feature","properties":{"fid":357,"OBJECTID":357,"ID_CICLOPARQUEDERO":3247,"CIV":9003716,"CLASECICLOP":"F","NOMBRECICLOP":"Edificio World Business Port","SECTORCICLOP":"2","TIPOUSUARIOCICLOP":"2","LOCALIDAD":"9","DIRECCIONCICLOP":"KR 69 25B 44","HORARIOCICLOP":"L-V 7:00 - 16:30","TIPOLOGIACICLOP":"8","CUPOCICLOP":9,"SELLOCICLOP":"1","ANOCICLOP":2024,"GLOBALID":"{4833F06F-3752-4379-8F2B-5646CA7F47F0}"},"geometry":{"type":"Point","coordinates":[-74.10725818200001,4.657621817847069]}},
{"type":"Feature","properties":{"fid":360,"OBJECTID":360,"ID_CICLOPARQUEDERO":3357,"CIV":17000342,"CLASECICLOP":"F","NOMBRECICLOP":"Ministerio de Hacienda y Crédito Público","SECTORCICLOP":"1","TIPOUSUARIOCICLOP":"2","LOCALIDAD":"17","DIRECCIONCICLOP":"CL 6B 6-34","HORARIOCICLOP":"L-V: 6:00 - 18:00","TIPOLOGIACICLOP":"2","CUPOCICLOP":130,"SELLOCICLOP":"1","ANOCICLOP":2024,"GLOBALID":"{EACE937A-F91F-4A05-9E86-75063A7231EF}"},"geometry":{"type":"Point","coordinates":[-74.078040094000016,4.592124002849183]}},
{"type":"Feature","properties":{"fid":361,"OBJECTID":361,"ID_CICLOPARQUEDERO":1042,"CIV":10011692,"CLASECICLOP":"F","NOMBRECICLOP":"City Parking World Business Center","SECTORCICLOP":"2","TIPOUSUARIOCICLOP":"1","LOCALIDAD":"10","DIRECCIONCICLOP":"KR 86 51 66","HORARIOCICLOP":"L-V 06:00 - 20:00   S-D 06:00 - 14:00","TIPOLOGIACICLOP":"8","CUPOCICLOP":26,"SELLOCICLOP":"1","ANOCICLOP":2016,"GLOBALID":"{4FA0EEB9-D4C1-4007-BB2B-0E758DDD907B}"},"geometry":{"type":"Point","coordinates":[-74.117267234,4.680956897846286]}}
]
}
