{
  "type": "FeatureCollection",
  "generator": "overpass-turbo",
  "copyright": "The data included in this document is from www.openstreetmap.org. The data is made available under ODbL.",
  "timestamp": "2026-07-17T02:43:58Z",
  "features": [
    {
      "type": "Feature",
      "properties": {
        "@id": "node/1830380562",
        "amenity": "drinking_water"
      },
      "geometry": {
        "type": "Point",
        "coordinates": [
          -74.0389217,
          4.7060045
        ]
      },
      "id": "node/1830380562"
    },
    {
      "type": "Feature",
      "properties": {
        "@id": "node/2037624479",
        "amenity": "drinking_water"
      },
      "geometry": {
        "type": "Point",
        "coordinates": [
          -74.0662221,
          4.6026876
        ]
      },
      "id": "node/2037624479"
    },
    {
      "type": "Feature",
      "properties": {
        "@id": "node/2040291708",
        "amenity": "drinking_water"
      },
      "geometry": {
        "type": "Point",
        "coordinates": [
          -74.0629716,
          4.6001211
        ]
      },
      "id": "node/2040291708"
    },
    {
      "type": "Feature",
      "properties": {
        "@id": "node/2040292579",
        "amenity": "drinking_water"
      },
      "geometry": {
        "type": "Point",
        "coordinates": [
          -74.0632906,
          4.6005355
        ]
      },
      "id": "node/2040292579"
    },
    {
      "type": "Feature",
      "properties": {
        "@id": "node/2040296393",
        "amenity": "drinking_water"
      },
      "geometry": {
        "type": "Point",
        "coordinates": [
          -74.06317,
          4.5996559
        ]
      },
      "id": "node/2040296393"
    },
    {
      "type": "Feature",
      "properties": {
        "@id": "node/4113165407",
        "amenity": "drinking_water"
      },
      "geometry": {
        "type": "Point",
        "coordinates": [
          -74.0646935,
          4.6273098
        ]
      },
      "id": "node/4113165407"
    },
    {
      "type": "Feature",
      "properties": {
        "@id": "node/4321280204",
        "amenity": "drinking_water",
        "diet:kosher": "yes",
        "name": "Agua SanRemo"
      },
      "geometry": {
        "type": "Point",
        "coordinates": [
          -74.0285777,
          4.7367986
        ]
      },
      "id": "node/4321280204"
    },
    {
      "type": "Feature",
      "properties": {
        "@id": "node/5597436521",
        "amenity": "drinking_water",
        "name": "casa Jorge"
      },
      "geometry": {
        "type": "Point",
        "coordinates": [
          -74.0979223,
          4.6793376
        ]
      },
      "id": "node/5597436521"
    },
    {
      "type": "Feature",
      "properties": {
        "@id": "node/6814613595",
        "amenity": "drinking_water"
      },
      "geometry": {
        "type": "Point",
        "coordinates": [
          -74.0541628,
          4.6730261
        ]
      },
      "id": "node/6814613595"
    },
    {
      "type": "Feature",
      "properties": {
        "@id": "node/7304258957",
        "amenity": "drinking_water"
      },
      "geometry": {
        "type": "Point",
        "coordinates": [
          -74.0552972,
          4.6732551
        ]
      },
      "id": "node/7304258957"
    },
    {
      "type": "Feature",
      "properties": {
        "@id": "node/11041579805",
        "amenity": "drinking_water"
      },
      "geometry": {
        "type": "Point",
        "coordinates": [
          -74.0226687,
          4.6685832
        ]
      },
      "id": "node/11041579805"
    },
    {
      "type": "Feature",
      "properties": {
        "@id": "node/11041579905",
        "amenity": "drinking_water"
      },
      "geometry": {
        "type": "Point",
        "coordinates": [
          -74.0309229,
          4.6748529
        ]
      },
      "id": "node/11041579905"
    },
    {
      "type": "Feature",
      "properties": {
        "@id": "node/11508354128",
        "access": "yes",
        "amenity": "drinking_water",
        "operator": "PARQUE DE VILLA MAYOR"
      },
      "geometry": {
        "type": "Point",
        "coordinates": [
          -74.1179249,
          4.5911251
        ]
      },
      "id": "node/11508354128"
    },
    {
      "type": "Feature",
      "properties": {
        "@id": "node/12013443107",
        "amenity": "drinking_water",
        "drinking_water": "yes",
        "fee": "no",
        "man_made": "water_tap",
        "operator": "Universidad de Bogotá Jorge Tadeo Lozano"
      },
      "geometry": {
        "type": "Point",
        "coordinates": [
          -74.0680311,
          4.6067313
        ]
      },
      "id": "node/12013443107"
    },
    {
      "type": "Feature",
      "properties": {
        "@id": "node/12013443108",
        "amenity": "drinking_water",
        "drinking_water": "yes",
        "fee": "no",
        "man_made": "water_tap",
        "operator": "Universidad de Bogotá Jorge Tadeo Lozano"
      },
      "geometry": {
        "type": "Point",
        "coordinates": [
          -74.068781,
          4.6072328
        ]
      },
      "id": "node/12013443108"
    },
    {
      "type": "Feature",
      "properties": {
        "@id": "node/12013443109",
        "amenity": "drinking_water",
        "drinking_water": "yes",
        "fee": "no",
        "man_made": "water_tap",
        "operator": "Universidad de Bogotá Jorge Tadeo Lozano"
      },
      "geometry": {
        "type": "Point",
        "coordinates": [
          -74.0682916,
          4.6070538
        ]
      },
      "id": "node/12013443109"
    },
    {
      "type": "Feature",
      "properties": {
        "@id": "node/12015647640",
        "amenity": "drinking_water",
        "drinking_water": "yes",
        "fee": "no",
        "man_made": "water_tap",
        "operator": "Universidad de Bogotá Jorge Tadeo Lozano"
      },
      "geometry": {
        "type": "Point",
        "coordinates": [
          -74.0683657,
          4.6075314
        ]
      },
      "id": "node/12015647640"
    },
    {
      "type": "Feature",
      "properties": {
        "@id": "node/12109492986",
        "access": "private",
        "amenity": "drinking_water",
        "fee": "no",
        "man_made": "water_tap",
        "operator": "Universiad Jorge Tadeo Lozano"
      },
      "geometry": {
        "type": "Point",
        "coordinates": [
          -74.0672804,
          4.6079174
        ]
      },
      "id": "node/12109492986"
    }
  ]
}