{
"type": "FeatureCollection",
"name": "roda_parqueaderos_secundarios",
"crs": { "type": "name", "properties": { "name": "urn:ogc:def:crs:OGC:1.3:CRS84" } },
"features": [
{"type":"Feature","properties":{"fid":2,"id":"node/602896528","@id":"node/602896528","access":null,"amenity":"bicycle_parking","area":null,"bicycle_parking":null,"building":null,"capacity":null,"capacity:cargo_bike":null,"cargo_bike":null,"charge":null,"check_date":null,"covered":null,"description":null,"ele":null,"fee":null,"level":null,"name":null,"operator":null,"operator:type":null,"payment:cash":null,"payment:credit_cards":null},"geometry":{"type":"Point","coordinates":[-74.09082260000001,4.6369633]}},
{"type":"Feature","properties":{"fid":4,"id":"node/602896531","@id":"node/602896531","access":null,"amenity":"bicycle_parking","area":null,"bicycle_parking":"ground_slots","building":null,"capacity":"40","capacity:cargo_bike":null,"cargo_bike":null,"charge":null,"check_date":null,"covered":"no","description":null,"ele":null,"fee":"no","level":null,"name":"Cicloparqueadero","operator":"Unal","operator:type":null,"payment:cash":null,"payment:credit_cards":null},"geometry":{"type":"Point","coordinates":[-74.0887452,4.6390708]}},
{"type":"Feature","properties":{"fid":9,"id":"node/602896538","@id":"node/602896538","access":null,"amenity":"bicycle_parking","area":null,"bicycle_parking":null,"building":"university","capacity":null,"capacity:cargo_bike":null,"cargo_bike":null,"charge":null,"check_date":null,"covered":null,"description":null,"ele":null,"fee":null,"level":null,"name":null,"operator":null,"operator:type":null,"payment:cash":null,"payment:credit_cards":null},"geometry":{"type":"Point","coordinates":[-74.0820412,4.6421997]}},
{"type":"Feature","properties":{"fid":14,"id":"node/1953634826","@id":"node/1953634826","access":null,"amenity":"bicycle_parking","area":null,"bicycle_parking":"stands","building":null,"capacity":null,"capacity:cargo_bike":null,"cargo_bike":null,"charge":null,"check_date":null,"covered":null,"description":null,"ele":null,"fee":null,"level":null,"name":null,"operator":null,"operator:type":null,"payment:cash":null,"payment:credit_cards":null},"geometry":{"type":"Point","coordinates":[-74.0585281,4.6537864]}},
{"type":"Feature","properties":{"fid":16,"id":"node/1984472749","@id":"node/1984472749","access":null,"amenity":"bicycle_parking","area":null,"bicycle_parking":"wall_loops","building":null,"capacity":"7","capacity:cargo_bike":null,"cargo_bike":null,"charge":null,"check_date":null,"covered":"no","description":null,"ele":null,"fee":null,"level":null,"name":null,"operator":null,"operator:type":null,"payment:cash":null,"payment:credit_cards":null},"geometry":{"type":"Point","coordinates":[-74.053814,4.6747474]}},
{"type":"Feature","properties":{"fid":27,"id":"node/6388000283","@id":"node/6388000283","access":null,"amenity":"bicycle_parking","area":null,"bicycle_parking":null,"building":null,"capacity":null,"capacity:cargo_bike":null,"cargo_bike":null,"charge":null,"check_date":null,"covered":null,"description":null,"ele":null,"fee":null,"level":null,"name":null,"operator":null,"operator:type":null,"payment:cash":null,"payment:credit_cards":null},"geometry":{"type":"Point","coordinates":[-74.0727666,4.6813703]}},
{"type":"Feature","properties":{"fid":31,"id":"node/6879003338","@id":"node/6879003338","access":null,"amenity":"bicycle_parking","area":null,"bicycle_parking":null,"building":null,"capacity":"12","capacity:cargo_bike":null,"cargo_bike":null,"charge":null,"check_date":null,"covered":null,"description":null,"ele":null,"fee":"yes","level":null,"name":"Parqueadero Palermo","operator":null,"operator:type":null,"payment:cash":null,"payment:credit_cards":null},"geometry":{"type":"Point","coordinates":[-74.0748029,4.6361458]}},
{"type":"Feature","properties":{"fid":32,"id":"node/6879003339","@id":"node/6879003339","access":null,"amenity":"bicycle_parking","area":null,"bicycle_parking":null,"building":null,"capacity":"12","capacity:cargo_bike":null,"cargo_bike":null,"charge":null,"check_date":null,"covered":null,"description":"L-V 07:00 - 20:00","ele":null,"fee":"yes","level":null,"name":"Los Magnificos","operator":null,"operator:type":null,"payment:cash":null,"payment:credit_cards":null},"geometry":{"type":"Point","coordinates":[-74.0756311,4.6406243]}},
{"type":"Feature","properties":{"fid":34,"id":"node/6879004576","@id":"node/6879004576","access":null,"amenity":"bicycle_parking","area":null,"bicycle_parking":null,"building":null,"capacity":"200","capacity:cargo_bike":null,"cargo_bike":null,"charge":null,"check_date":null,"covered":null,"description":null,"ele":null,"fee":null,"level":null,"name":null,"operator":"Universidad del Rosario","operator:type":"private","payment:cash":null,"payment:credit_cards":null},"geometry":{"type":"Point","coordinates":[-74.0730132,4.653825]}},
{"type":"Feature","properties":{"fid":36,"id":"node/6879004578","@id":"node/6879004578","access":null,"amenity":"bicycle_parking","area":null,"bicycle_parking":null,"building":null,"capacity":"12","capacity:cargo_bike":null,"cargo_bike":null,"charge":"$10/min","check_date":null,"covered":null,"description":null,"ele":null,"fee":"yes","level":null,"name":null,"operator":"City Parking","operator:type":"private","payment:cash":null,"payment:credit_cards":null},"geometry":{"type":"Point","coordinates":[-74.0602798,4.6491993]}},
{"type":"Feature","properties":{"fid":42,"id":"node/6879088734","@id":"node/6879088734","access":null,"amenity":"bicycle_parking","area":null,"bicycle_parking":null,"building":null,"capacity":"20","capacity:cargo_bike":null,"cargo_bike":null,"charge":null,"check_date":null,"covered":null,"description":null,"ele":null,"fee":null,"level":null,"name":"U. Manuela Beltran","operator":"City Parking","operator:type":"private","payment:cash":null,"payment:credit_cards":null},"geometry":{"type":"Point","coordinates":[-74.0541042,4.6427404]}},
{"type":"Feature","properties":{"fid":43,"id":"node/6879088735","@id":"node/6879088735","access":null,"amenity":"bicycle_parking","area":null,"bicycle_parking":null,"building":null,"capacity":"40","capacity:cargo_bike":null,"cargo_bike":null,"charge":null,"check_date":null,"covered":null,"description":"Sello Oro","ele":null,"fee":null,"level":null,"name":"Claustro la Enseñanza","operator":"Parking International","operator:type":"private","payment:cash":null,"payment:credit_cards":null},"geometry":{"type":"Point","coordinates":[-74.0573354,4.6544582]}},
{"type":"Feature","properties":{"fid":46,"id":"node/6879180492","@id":"node/6879180492","access":null,"amenity":"bicycle_parking","area":null,"bicycle_parking":null,"building":null,"capacity":"60","capacity:cargo_bike":null,"cargo_bike":null,"charge":null,"check_date":null,"covered":null,"description":"L-V 07:00 - 20:00\nSello Oro","ele":null,"fee":null,"level":null,"name":"Tribunales","operator":null,"operator:type":null,"payment:cash":null,"payment:credit_cards":null},"geometry":{"type":"Point","coordinates":[-74.0943018,4.6465942]}},
{"type":"Feature","properties":{"fid":49,"id":"node/8378339593","@id":"node/8378339593","access":"yes","amenity":"bicycle_parking","area":null,"bicycle_parking":null,"building":null,"capacity":null,"capacity:cargo_bike":null,"cargo_bike":null,"charge":"10 COP/hour","check_date":null,"covered":null,"description":null,"ele":null,"fee":"yes","level":null,"name":null,"operator":null,"operator:type":null,"payment:cash":"yes","payment:credit_cards":"yes"},"geometry":{"type":"Point","coordinates":[-74.102059700000012,4.6472405]}},
{"type":"Feature","properties":{"fid":52,"id":"node/11726004709","@id":"node/11726004709","access":null,"amenity":"bicycle_parking","area":null,"bicycle_parking":"stands","building":null,"capacity":"12","capacity:cargo_bike":null,"cargo_bike":null,"charge":null,"check_date":null,"covered":"no","description":null,"ele":null,"fee":null,"level":null,"name":null,"operator":null,"operator:type":null,"payment:cash":null,"payment:credit_cards":null},"geometry":{"type":"Point","coordinates":[-74.0501253,4.6662309]}},
{"type":"Feature","properties":{"fid":54,"id":"node/12554728527","@id":"node/12554728527","access":null,"amenity":"bicycle_parking","area":null,"bicycle_parking":"wall_loops","building":null,"capacity":"10","capacity:cargo_bike":null,"cargo_bike":null,"charge":null,"check_date":null,"covered":"no","description":null,"ele":null,"fee":"no","level":null,"name":null,"operator":null,"operator:type":"private","payment:cash":null,"payment:credit_cards":null},"geometry":{"type":"Point","coordinates":[-74.0580914,4.6553996]}},
{"type":"Feature","properties":{"fid":55,"id":"node/12568582001","@id":"node/12568582001","access":"yes","amenity":"bicycle_parking","area":null,"bicycle_parking":"stands","building":null,"capacity":"7","capacity:cargo_bike":null,"cargo_bike":null,"charge":null,"check_date":null,"covered":"no","description":null,"ele":null,"fee":"no","level":null,"name":null,"operator":null,"operator:type":"public","payment:cash":null,"payment:credit_cards":null},"geometry":{"type":"Point","coordinates":[-74.0580333,4.6542976]}},
{"type":"Feature","properties":{"fid":56,"id":"node/12568582002","@id":"node/12568582002","access":"yes","amenity":"bicycle_parking","area":null,"bicycle_parking":"stands","building":null,"capacity":"7","capacity:cargo_bike":null,"cargo_bike":null,"charge":null,"check_date":null,"covered":"no","description":null,"ele":null,"fee":"no","level":null,"name":null,"operator":null,"operator:type":"public","payment:cash":null,"payment:credit_cards":null},"geometry":{"type":"Point","coordinates":[-74.0581433,4.654368]}},
{"type":"Feature","properties":{"fid":57,"id":"node/12568582003","@id":"node/12568582003","access":"private","amenity":"bicycle_parking","area":null,"bicycle_parking":"wall_loops","building":null,"capacity":"5","capacity:cargo_bike":null,"cargo_bike":null,"charge":null,"check_date":null,"covered":"no","description":null,"ele":null,"fee":"no","level":null,"name":null,"operator":null,"operator:type":"private","payment:cash":null,"payment:credit_cards":null},"geometry":{"type":"Point","coordinates":[-74.057911500000017,4.6544306]}},
{"type":"Feature","properties":{"fid":58,"id":"node/12568582004","@id":"node/12568582004","access":"yes","amenity":"bicycle_parking","area":null,"bicycle_parking":"stands","building":null,"capacity":"7","capacity:cargo_bike":null,"cargo_bike":null,"charge":null,"check_date":null,"covered":"no","description":null,"ele":null,"fee":"no","level":null,"name":null,"operator":null,"operator:type":"public","payment:cash":null,"payment:credit_cards":null},"geometry":{"type":"Point","coordinates":[-74.0582694,4.6541844]}},
{"type":"Feature","properties":{"fid":59,"id":"node/12568582005","@id":"node/12568582005","access":"yes","amenity":"bicycle_parking","area":null,"bicycle_parking":"stands","building":null,"capacity":"7","capacity:cargo_bike":null,"cargo_bike":null,"charge":null,"check_date":null,"covered":"no","description":null,"ele":null,"fee":"no","level":null,"name":null,"operator":null,"operator:type":"public","payment:cash":null,"payment:credit_cards":null},"geometry":{"type":"Point","coordinates":[-74.0583265,4.6541089]}},
{"type":"Feature","properties":{"fid":63,"id":"node/12582834920","@id":"node/12582834920","access":"permissive","amenity":"bicycle_parking","area":null,"bicycle_parking":"wall_loops","building":null,"capacity":"4","capacity:cargo_bike":null,"cargo_bike":null,"charge":null,"check_date":null,"covered":"no","description":null,"ele":null,"fee":"no","level":null,"name":null,"operator":null,"operator:type":"private","payment:cash":null,"payment:credit_cards":null},"geometry":{"type":"Point","coordinates":[-74.058287,4.6548758]}},
{"type":"Feature","properties":{"fid":65,"id":"node/12588057612","@id":"node/12588057612","access":"yes","amenity":"bicycle_parking","area":null,"bicycle_parking":"stands","building":null,"capacity":null,"capacity:cargo_bike":null,"cargo_bike":null,"charge":null,"check_date":null,"covered":"no","description":null,"ele":null,"fee":"no","level":null,"name":null,"operator":null,"operator:type":"public","payment:cash":null,"payment:credit_cards":null},"geometry":{"type":"Point","coordinates":[-74.0543787,4.652404]}},
{"type":"Feature","properties":{"fid":66,"id":"node/12588057613","@id":"node/12588057613","access":"yes","amenity":"bicycle_parking","area":null,"bicycle_parking":"wall_loops","building":null,"capacity":null,"capacity:cargo_bike":null,"cargo_bike":null,"charge":null,"check_date":null,"covered":"no","description":null,"ele":null,"fee":"no","level":null,"name":null,"operator":null,"operator:type":"public","payment:cash":null,"payment:credit_cards":null},"geometry":{"type":"Point","coordinates":[-74.0543874,4.6527568]}},
{"type":"Feature","properties":{"fid":72,"id":"node/13696577401","@id":"node/13696577401","access":null,"amenity":"bicycle_parking","area":null,"bicycle_parking":null,"building":null,"capacity":null,"capacity:cargo_bike":null,"cargo_bike":null,"charge":null,"check_date":null,"covered":null,"description":null,"ele":null,"fee":null,"level":null,"name":null,"operator":null,"operator:type":null,"payment:cash":null,"payment:credit_cards":null},"geometry":{"type":"Point","coordinates":[-74.0534085,4.6741338]}}
]
}
