{
"type": "FeatureCollection",
"name": "roda_banos_secundarios",
"crs": { "type": "name", "properties": { "name": "urn:ogc:def:crs:OGC:1.3:CRS84" } },
"features": [
{"type":"Feature","properties":{"fid":1,"id":"node/494768845","@id":"node/494768845","access":null,"addr:floor":null,"amenity":"toilets","building":null,"changing_table":null,"check_date":null,"fee":null,"female":null,"level":null,"male":null,"operator":null,"payment:cash":null,"payment:coins":null,"payment:credit_cards":null,"payment:visa":null,"toilets:disposal":null,"toilets:handwashing":null,"unisex":null,"wheelchair":null},"geometry":{"type":"Point","coordinates":[-74.0409006,4.7026142]}},
{"type":"Feature","properties":{"fid":3,"id":"node/1830380563","@id":"node/1830380563","access":null,"addr:floor":null,"amenity":"toilets","building":null,"changing_table":null,"check_date":null,"fee":null,"female":null,"level":null,"male":null,"operator":null,"payment:cash":null,"payment:coins":null,"payment:credit_cards":null,"payment:visa":null,"toilets:disposal":null,"toilets:handwashing":null,"unisex":null,"wheelchair":null},"geometry":{"type":"Point","coordinates":[-74.0389446,4.7061084]}},
{"type":"Feature","properties":{"fid":5,"id":"node/3520251075","@id":"node/3520251075","access":"customers","addr:floor":null,"amenity":"toilets","building":null,"changing_table":null,"check_date":null,"fee":null,"female":null,"level":null,"male":null,"operator":null,"payment:cash":null,"payment:coins":null,"payment:credit_cards":null,"payment:visa":null,"toilets:disposal":null,"toilets:handwashing":null,"unisex":null,"wheelchair":null},"geometry":{"type":"Point","coordinates":[-74.0967479,4.666343]}},
{"type":"Feature","properties":{"fid":7,"id":"node/4323827262","@id":"node/4323827262","access":null,"addr:floor":null,"amenity":"toilets","building":null,"changing_table":null,"check_date":null,"fee":null,"female":null,"level":null,"male":null,"operator":null,"payment:cash":null,"payment:coins":null,"payment:credit_cards":null,"payment:visa":null,"toilets:disposal":null,"toilets:handwashing":null,"unisex":null,"wheelchair":null},"geometry":{"type":"Point","coordinates":[-74.0411157,4.7021497]}},
{"type":"Feature","properties":{"fid":9,"id":"node/4829091621","@id":"node/4829091621","access":null,"addr:floor":null,"amenity":"toilets","building":null,"changing_table":null,"check_date":null,"fee":null,"female":null,"level":null,"male":null,"operator":"Baños Publicos","payment:cash":null,"payment:coins":null,"payment:credit_cards":null,"payment:visa":null,"toilets:disposal":null,"toilets:handwashing":null,"unisex":null,"wheelchair":null},"geometry":{"type":"Point","coordinates":[-74.114320300000017,4.6523505]}},
{"type":"Feature","properties":{"fid":11,"id":"node/6580342617","@id":"node/6580342617","access":null,"addr:floor":null,"amenity":"toilets","building":null,"changing_table":null,"check_date":null,"fee":"no","female":null,"level":"2","male":null,"operator":null,"payment:cash":null,"payment:coins":null,"payment:credit_cards":null,"payment:visa":null,"toilets:disposal":null,"toilets:handwashing":null,"unisex":null,"wheelchair":null},"geometry":{"type":"Point","coordinates":[-74.0533991,4.6670422]}},
{"type":"Feature","properties":{"fid":13,"id":"node/7124968773","@id":"node/7124968773","access":null,"addr:floor":null,"amenity":"toilets","building":null,"changing_table":null,"check_date":null,"fee":"no","female":null,"level":null,"male":null,"operator":null,"payment:cash":null,"payment:coins":null,"payment:credit_cards":null,"payment:visa":null,"toilets:disposal":null,"toilets:handwashing":null,"unisex":null,"wheelchair":"no"},"geometry":{"type":"Point","coordinates":[-74.1008597,4.6679588]}},
{"type":"Feature","properties":{"fid":24,"id":"node/10114283980","@id":"node/10114283980","access":null,"addr:floor":null,"amenity":"toilets","building":null,"changing_table":null,"check_date":null,"fee":"yes","female":null,"level":"1","male":null,"operator":null,"payment:cash":"yes","payment:coins":"yes","payment:credit_cards":"no","payment:visa":"no","toilets:disposal":null,"toilets:handwashing":null,"unisex":null,"wheelchair":null},"geometry":{"type":"Point","coordinates":[-74.0867009,4.654335]}},
{"type":"Feature","properties":{"fid":27,"id":"node/11396538969","@id":"node/11396538969","access":null,"addr:floor":null,"amenity":"toilets","building":null,"changing_table":null,"check_date":null,"fee":"no","female":null,"level":null,"male":null,"operator":null,"payment:cash":null,"payment:coins":null,"payment:credit_cards":null,"payment:visa":null,"toilets:disposal":null,"toilets:handwashing":null,"unisex":null,"wheelchair":"yes"},"geometry":{"type":"Point","coordinates":[-74.0806403,4.7420846]}},
{"type":"Feature","properties":{"fid":28,"id":"node/12307960750","@id":"node/12307960750","access":"yes","addr:floor":"-1","amenity":"toilets","building":null,"changing_table":"yes","check_date":"2024-11-02","fee":"no","female":null,"level":null,"male":null,"operator":null,"payment:cash":null,"payment:coins":null,"payment:credit_cards":null,"payment:visa":null,"toilets:disposal":"flush","toilets:handwashing":"yes","unisex":null,"wheelchair":"yes"},"geometry":{"type":"Point","coordinates":[-74.1000612,4.6677815]}},
{"type":"Feature","properties":{"fid":30,"id":"node/12551125402","@id":"node/12551125402","access":null,"addr:floor":null,"amenity":"toilets","building":null,"changing_table":null,"check_date":null,"fee":null,"female":null,"level":null,"male":null,"operator":null,"payment:cash":null,"payment:coins":null,"payment:credit_cards":null,"payment:visa":null,"toilets:disposal":null,"toilets:handwashing":null,"unisex":null,"wheelchair":null},"geometry":{"type":"Point","coordinates":[-74.115379,4.6552635]}},
{"type":"Feature","properties":{"fid":32,"id":"node/13711373209","@id":"node/13711373209","access":"customers","addr:floor":null,"amenity":"toilets","building":null,"changing_table":null,"check_date":null,"fee":null,"female":null,"level":null,"male":null,"operator":null,"payment:cash":null,"payment:coins":null,"payment:credit_cards":null,"payment:visa":null,"toilets:disposal":null,"toilets:handwashing":null,"unisex":null,"wheelchair":null},"geometry":{"type":"Point","coordinates":[-74.079643,4.6635989]}}
]
}
